{
  "0000": {
    "postcode": "9250000",
    "prefecture": "石川県",
    "prefecture_kana": "イシカワケン",
    "prefecture_code": 17,
    "city": "羽咋市",
    "city_kana": "ハクイシ",
    "town": "",
    "town_kana": "",
    "street": null,
    "office_name": null,
    "office_name_kana": null
  },
  "0001": {
    "postcode": "9250001",
    "prefecture": "石川県",
    "prefecture_kana": "イシカワケン",
    "prefecture_code": 17,
    "city": "羽咋市",
    "city_kana": "ハクイシ",
    "town": "柴垣町",
    "town_kana": "シバガキマチ",
    "street": null,
    "office_name": null,
    "office_name_kana": null
  },
  "0002": {
    "postcode": "9250002",
    "prefecture": "石川県",
    "prefecture_kana": "イシカワケン",
    "prefecture_code": 17,
    "city": "羽咋市",
    "city_kana": "ハクイシ",
    "town": "滝谷町",
    "town_kana": "タキダニマチ",
    "street": null,
    "office_name": null,
    "office_name_kana": null
  },
  "0003": {
    "postcode": "9250003",
    "prefecture": "石川県",
    "prefecture_kana": "イシカワケン",
    "prefecture_code": 17,
    "city": "羽咋市",
    "city_kana": "ハクイシ",
    "town": "寺家町",
    "town_kana": "ジケマチ",
    "street": null,
    "office_name": null,
    "office_name_kana": null
  },
  "0004": {
    "postcode": "9250004",
    "prefecture": "石川県",
    "prefecture_kana": "イシカワケン",
    "prefecture_code": 17,
    "city": "羽咋市",
    "city_kana": "ハクイシ",
    "town": "一ノ宮町",
    "town_kana": "イチノミヤマチ",
    "street": null,
    "office_name": null,
    "office_name_kana": null
  },
  "0005": {
    "postcode": "9250005",
    "prefecture": "石川県",
    "prefecture_kana": "イシカワケン",
    "prefecture_code": 17,
    "city": "羽咋市",
    "city_kana": "ハクイシ",
    "town": "滝町",
    "town_kana": "タキマチ",
    "street": null,
    "office_name": null,
    "office_name_kana": null
  },
  "0011": {
    "postcode": "9250011",
    "prefecture": "石川県",
    "prefecture_kana": "イシカワケン",
    "prefecture_code": 17,
    "city": "羽咋市",
    "city_kana": "ハクイシ",
    "town": "上中山町",
    "town_kana": "カミナカヤママチ",
    "street": null,
    "office_name": null,
    "office_name_kana": null
  },
  "0012": {
    "postcode": "9250012",
    "prefecture": "石川県",
    "prefecture_kana": "イシカワケン",
    "prefecture_code": 17,
    "city": "羽咋市",
    "city_kana": "ハクイシ",
    "town": "千路町",
    "town_kana": "チジマチ",
    "street": null,
    "office_name": null,
    "office_name_kana": null
  },
  "0013": {
    "postcode": "9250013",
    "prefecture": "石川県",
    "prefecture_kana": "イシカワケン",
    "prefecture_code": 17,
    "city": "羽咋市",
    "city_kana": "ハクイシ",
    "town": "東釜屋町",
    "town_kana": "ヒガシカマヤマチ",
    "street": null,
    "office_name": null,
    "office_name_kana": null
  },
  "0014": {
    "postcode": "9250014",
    "prefecture": "石川県",
    "prefecture_kana": "イシカワケン",
    "prefecture_code": 17,
    "city": "羽咋市",
    "city_kana": "ハクイシ",
    "town": "釜屋町",
    "town_kana": "カマヤマチ",
    "street": null,
    "office_name": null,
    "office_name_kana": null
  },
  "0015": {
    "postcode": "9250015",
    "prefecture": "石川県",
    "prefecture_kana": "イシカワケン",
    "prefecture_code": 17,
    "city": "羽咋市",
    "city_kana": "ハクイシ",
    "town": "大川町",
    "town_kana": "オオカワマチ",
    "street": null,
    "office_name": null,
    "office_name_kana": null
  },
  "0016": {
    "postcode": "9250016",
    "prefecture": "石川県",
    "prefecture_kana": "イシカワケン",
    "prefecture_code": 17,
    "city": "羽咋市",
    "city_kana": "ハクイシ",
    "town": "羽咋町",
    "town_kana": "ハクイマチ",
    "street": null,
    "office_name": null,
    "office_name_kana": null
  },
  "0017": {
    "postcode": "9250017",
    "prefecture": "石川県",
    "prefecture_kana": "イシカワケン",
    "prefecture_code": 17,
    "city": "羽咋市",
    "city_kana": "ハクイシ",
    "town": "西釜屋町",
    "town_kana": "ニシカマヤマチ",
    "street": null,
    "office_name": null,
    "office_name_kana": null
  },
  "0018": {
    "postcode": "9250018",
    "prefecture": "石川県",
    "prefecture_kana": "イシカワケン",
    "prefecture_code": 17,
    "city": "羽咋市",
    "city_kana": "ハクイシ",
    "town": "柳田町",
    "town_kana": "ヤナイダマチ",
    "street": null,
    "office_name": null,
    "office_name_kana": null
  },
  "0021": {
    "postcode": "9250021",
    "prefecture": "石川県",
    "prefecture_kana": "イシカワケン",
    "prefecture_code": 17,
    "city": "羽咋市",
    "city_kana": "ハクイシ",
    "town": "吉崎町",
    "town_kana": "ヨシサキマチ",
    "street": null,
    "office_name": null,
    "office_name_kana": null
  },
  "0022": {
    "postcode": "9250022",
    "prefecture": "石川県",
    "prefecture_kana": "イシカワケン",
    "prefecture_code": 17,
    "city": "羽咋市",
    "city_kana": "ハクイシ",
    "town": "深江町",
    "town_kana": "フカエマチ",
    "street": null,
    "office_name": null,
    "office_name_kana": null
  },
  "0023": {
    "postcode": "9250023",
    "prefecture": "石川県",
    "prefecture_kana": "イシカワケン",
    "prefecture_code": 17,
    "city": "羽咋市",
    "city_kana": "ハクイシ",
    "town": "若草町",
    "town_kana": "ワカクサマチ",
    "street": null,
    "office_name": null,
    "office_name_kana": null
  },
  "0024": {
    "postcode": "9250024",
    "prefecture": "石川県",
    "prefecture_kana": "イシカワケン",
    "prefecture_code": 17,
    "city": "羽咋市",
    "city_kana": "ハクイシ",
    "town": "三ツ屋町",
    "town_kana": "ミツヤマチ",
    "street": null,
    "office_name": null,
    "office_name_kana": null
  },
  "0025": {
    "postcode": "9250025",
    "prefecture": "石川県",
    "prefecture_kana": "イシカワケン",
    "prefecture_code": 17,
    "city": "羽咋市",
    "city_kana": "ハクイシ",
    "town": "太田町",
    "town_kana": "オオタマチ",
    "street": null,
    "office_name": null,
    "office_name_kana": null
  },
  "0026": {
    "postcode": "9250026",
    "prefecture": "石川県",
    "prefecture_kana": "イシカワケン",
    "prefecture_code": 17,
    "city": "羽咋市",
    "city_kana": "ハクイシ",
    "town": "石野町",
    "town_kana": "イシノマチ",
    "street": null,
    "office_name": null,
    "office_name_kana": null
  },
  "0027": {
    "postcode": "9250027",
    "prefecture": "石川県",
    "prefecture_kana": "イシカワケン",
    "prefecture_code": 17,
    "city": "羽咋市",
    "city_kana": "ハクイシ",
    "town": "鶴多町",
    "town_kana": "ツルタマチ",
    "street": null,
    "office_name": null,
    "office_name_kana": null
  },
  "0028": {
    "postcode": "9250028",
    "prefecture": "石川県",
    "prefecture_kana": "イシカワケン",
    "prefecture_code": 17,
    "city": "羽咋市",
    "city_kana": "ハクイシ",
    "town": "次場町",
    "town_kana": "スバマチ",
    "street": null,
    "office_name": null,
    "office_name_kana": null
  },
  "0031": {
    "postcode": "9250031",
    "prefecture": "石川県",
    "prefecture_kana": "イシカワケン",
    "prefecture_code": 17,
    "city": "羽咋市",
    "city_kana": "ハクイシ",
    "town": "東的場町",
    "town_kana": "ヒガシマトバマチ",
    "street": null,
    "office_name": null,
    "office_name_kana": null
  },
  "0032": {
    "postcode": "9250032",
    "prefecture": "石川県",
    "prefecture_kana": "イシカワケン",
    "prefecture_code": 17,
    "city": "羽咋市",
    "city_kana": "ハクイシ",
    "town": "東川原町",
    "town_kana": "ヒガシカワラマチ",
    "street": null,
    "office_name": null,
    "office_name_kana": null
  },
  "0033": {
    "postcode": "9250033",
    "prefecture": "石川県",
    "prefecture_kana": "イシカワケン",
    "prefecture_code": 17,
    "city": "羽咋市",
    "city_kana": "ハクイシ",
    "town": "川原町",
    "town_kana": "カワラマチ",
    "street": null,
    "office_name": null,
    "office_name_kana": null
  },
  "0034": {
    "postcode": "9250034",
    "prefecture": "石川県",
    "prefecture_kana": "イシカワケン",
    "prefecture_code": 17,
    "city": "羽咋市",
    "city_kana": "ハクイシ",
    "town": "旭町",
    "town_kana": "アサヒマチ",
    "street": null,
    "office_name": null,
    "office_name_kana": null
  },
  "0035": {
    "postcode": "9250035",
    "prefecture": "石川県",
    "prefecture_kana": "イシカワケン",
    "prefecture_code": 17,
    "city": "羽咋市",
    "city_kana": "ハクイシ",
    "town": "本町",
    "town_kana": "ホンマチ",
    "street": null,
    "office_name": null,
    "office_name_kana": null
  },
  "0036": {
    "postcode": "9250036",
    "prefecture": "石川県",
    "prefecture_kana": "イシカワケン",
    "prefecture_code": 17,
    "city": "羽咋市",
    "city_kana": "ハクイシ",
    "town": "的場町",
    "town_kana": "マトバマチ",
    "street": null,
    "office_name": null,
    "office_name_kana": null
  },
  "0041": {
    "postcode": "9250041",
    "prefecture": "石川県",
    "prefecture_kana": "イシカワケン",
    "prefecture_code": 17,
    "city": "羽咋市",
    "city_kana": "ハクイシ",
    "town": "立開町",
    "town_kana": "リュウガイマチ",
    "street": null,
    "office_name": null,
    "office_name_kana": null
  },
  "0042": {
    "postcode": "9250042",
    "prefecture": "石川県",
    "prefecture_kana": "イシカワケン",
    "prefecture_code": 17,
    "city": "羽咋市",
    "city_kana": "ハクイシ",
    "town": "土橋町",
    "town_kana": "ツチハシマチ",
    "street": null,
    "office_name": null,
    "office_name_kana": null
  },
  "0043": {
    "postcode": "9250043",
    "prefecture": "石川県",
    "prefecture_kana": "イシカワケン",
    "prefecture_code": 17,
    "city": "羽咋市",
    "city_kana": "ハクイシ",
    "town": "粟原町",
    "town_kana": "アワラマチ",
    "street": null,
    "office_name": null,
    "office_name_kana": null
  },
  "0044": {
    "postcode": "9250044",
    "prefecture": "石川県",
    "prefecture_kana": "イシカワケン",
    "prefecture_code": 17,
    "city": "羽咋市",
    "city_kana": "ハクイシ",
    "town": "新保町",
    "town_kana": "シンボマチ",
    "street": null,
    "office_name": null,
    "office_name_kana": null
  },
  "0045": {
    "postcode": "9250045",
    "prefecture": "石川県",
    "prefecture_kana": "イシカワケン",
    "prefecture_code": 17,
    "city": "羽咋市",
    "city_kana": "ハクイシ",
    "town": "粟生町",
    "town_kana": "アオマチ",
    "street": null,
    "office_name": null,
    "office_name_kana": null
  },
  "0046": {
    "postcode": "9250046",
    "prefecture": "石川県",
    "prefecture_kana": "イシカワケン",
    "prefecture_code": 17,
    "city": "羽咋市",
    "city_kana": "ハクイシ",
    "town": "兵庫町",
    "town_kana": "ヒョウゴマチ",
    "street": null,
    "office_name": null,
    "office_name_kana": null
  },
  "0047": {
    "postcode": "9250047",
    "prefecture": "石川県",
    "prefecture_kana": "イシカワケン",
    "prefecture_code": 17,
    "city": "羽咋市",
    "city_kana": "ハクイシ",
    "town": "御坊山町",
    "town_kana": "ゴボウヤママチ",
    "street": null,
    "office_name": null,
    "office_name_kana": null
  },
  "0048": {
    "postcode": "9250048",
    "prefecture": "石川県",
    "prefecture_kana": "イシカワケン",
    "prefecture_code": 17,
    "city": "羽咋市",
    "city_kana": "ハクイシ",
    "town": "松ケ下町",
    "town_kana": "マツガシタマチ",
    "street": null,
    "office_name": null,
    "office_name_kana": null
  },
  "0049": {
    "postcode": "9250049",
    "prefecture": "石川県",
    "prefecture_kana": "イシカワケン",
    "prefecture_code": 17,
    "city": "羽咋市",
    "city_kana": "ハクイシ",
    "town": "柳橋町",
    "town_kana": "ヤナギバシマチ",
    "street": null,
    "office_name": null,
    "office_name_kana": null
  },
  "0051": {
    "postcode": "9250051",
    "prefecture": "石川県",
    "prefecture_kana": "イシカワケン",
    "prefecture_code": 17,
    "city": "羽咋市",
    "city_kana": "ハクイシ",
    "town": "島出町",
    "town_kana": "シマデマチ",
    "street": null,
    "office_name": null,
    "office_name_kana": null
  },
  "0052": {
    "postcode": "9250052",
    "prefecture": "石川県",
    "prefecture_kana": "イシカワケン",
    "prefecture_code": 17,
    "city": "羽咋市",
    "city_kana": "ハクイシ",
    "town": "中央町",
    "town_kana": "チュウオウマチ",
    "street": null,
    "office_name": null,
    "office_name_kana": null
  },
  "0053": {
    "postcode": "9250053",
    "prefecture": "石川県",
    "prefecture_kana": "イシカワケン",
    "prefecture_code": 17,
    "city": "羽咋市",
    "city_kana": "ハクイシ",
    "town": "南中央町",
    "town_kana": "ミナミチュウオウマチ",
    "street": null,
    "office_name": null,
    "office_name_kana": null
  },
  "0054": {
    "postcode": "9250054",
    "prefecture": "石川県",
    "prefecture_kana": "イシカワケン",
    "prefecture_code": 17,
    "city": "羽咋市",
    "city_kana": "ハクイシ",
    "town": "千里浜町",
    "town_kana": "チリハママチ",
    "street": null,
    "office_name": null,
    "office_name_kana": null
  },
  "0071": {
    "postcode": "9250071",
    "prefecture": "石川県",
    "prefecture_kana": "イシカワケン",
    "prefecture_code": 17,
    "city": "羽咋市",
    "city_kana": "ハクイシ",
    "town": "下曽祢町",
    "town_kana": "シモソネマチ",
    "street": null,
    "office_name": null,
    "office_name_kana": null
  },
  "0072": {
    "postcode": "9250072",
    "prefecture": "石川県",
    "prefecture_kana": "イシカワケン",
    "prefecture_code": 17,
    "city": "羽咋市",
    "city_kana": "ハクイシ",
    "town": "大町",
    "town_kana": "オオマチ",
    "street": null,
    "office_name": null,
    "office_name_kana": null
  },
  "0073": {
    "postcode": "9250073",
    "prefecture": "石川県",
    "prefecture_kana": "イシカワケン",
    "prefecture_code": 17,
    "city": "羽咋市",
    "city_kana": "ハクイシ",
    "town": "四柳町",
    "town_kana": "ヨツヤナギマチ",
    "street": null,
    "office_name": null,
    "office_name_kana": null
  },
  "0074": {
    "postcode": "9250074",
    "prefecture": "石川県",
    "prefecture_kana": "イシカワケン",
    "prefecture_code": 17,
    "city": "羽咋市",
    "city_kana": "ハクイシ",
    "town": "酒井町",
    "town_kana": "サカイマチ",
    "street": null,
    "office_name": null,
    "office_name_kana": null
  },
  "0075": {
    "postcode": "9250075",
    "prefecture": "石川県",
    "prefecture_kana": "イシカワケン",
    "prefecture_code": 17,
    "city": "羽咋市",
    "city_kana": "ハクイシ",
    "town": "金丸出町",
    "town_kana": "カネマルデマチ",
    "street": null,
    "office_name": null,
    "office_name_kana": null
  },
  "0076": {
    "postcode": "9250076",
    "prefecture": "石川県",
    "prefecture_kana": "イシカワケン",
    "prefecture_code": 17,
    "city": "羽咋市",
    "city_kana": "ハクイシ",
    "town": "鹿島路町",
    "town_kana": "カシマジマチ",
    "street": null,
    "office_name": null,
    "office_name_kana": null
  },
  "0077": {
    "postcode": "9250077",
    "prefecture": "石川県",
    "prefecture_kana": "イシカワケン",
    "prefecture_code": 17,
    "city": "羽咋市",
    "city_kana": "ハクイシ",
    "town": "東潟町",
    "town_kana": "ヒガシカタマチ",
    "street": null,
    "office_name": null,
    "office_name_kana": null
  },
  "0100": {
    "postcode": "9250100",
    "prefecture": "石川県",
    "prefecture_kana": "イシカワケン",
    "prefecture_code": 17,
    "city": "羽咋郡志賀町",
    "city_kana": "ハクイグンシカマチ",
    "town": "",
    "town_kana": "",
    "street": null,
    "office_name": null,
    "office_name_kana": null
  },
  "0121": {
    "postcode": "9250121",
    "prefecture": "石川県",
    "prefecture_kana": "イシカワケン",
    "prefecture_code": 17,
    "city": "羽咋郡志賀町",
    "city_kana": "ハクイグンシカマチ",
    "town": "安津見",
    "town_kana": "アヅミ",
    "street": null,
    "office_name": null,
    "office_name_kana": null
  },
  "0122": {
    "postcode": "9250122",
    "prefecture": "石川県",
    "prefecture_kana": "イシカワケン",
    "prefecture_code": 17,
    "city": "羽咋郡志賀町",
    "city_kana": "ハクイグンシカマチ",
    "town": "倉垣",
    "town_kana": "クラカキ",
    "street": null,
    "office_name": null,
    "office_name_kana": null
  },
  "0123": {
    "postcode": "9250123",
    "prefecture": "石川県",
    "prefecture_kana": "イシカワケン",
    "prefecture_code": 17,
    "city": "羽咋郡志賀町",
    "city_kana": "ハクイグンシカマチ",
    "town": "矢駄",
    "town_kana": "ヤダ",
    "street": null,
    "office_name": null,
    "office_name_kana": null
  },
  "0124": {
    "postcode": "9250124",
    "prefecture": "石川県",
    "prefecture_kana": "イシカワケン",
    "prefecture_code": 17,
    "city": "羽咋郡志賀町",
    "city_kana": "ハクイグンシカマチ",
    "town": "西山",
    "town_kana": "ニシヤマ",
    "street": null,
    "office_name": null,
    "office_name_kana": null
  },
  "0125": {
    "postcode": "9250125",
    "prefecture": "石川県",
    "prefecture_kana": "イシカワケン",
    "prefecture_code": 17,
    "city": "羽咋郡志賀町",
    "city_kana": "ハクイグンシカマチ",
    "town": "西山台",
    "town_kana": "ニシヤマダイ",
    "street": null,
    "office_name": null,
    "office_name_kana": null
  },
  "0131": {
    "postcode": "9250131",
    "prefecture": "石川県",
    "prefecture_kana": "イシカワケン",
    "prefecture_code": 17,
    "city": "羽咋郡志賀町",
    "city_kana": "ハクイグンシカマチ",
    "town": "米浜",
    "town_kana": "ヨネハマ",
    "street": null,
    "office_name": null,
    "office_name_kana": null
  },
  "0132": {
    "postcode": "9250132",
    "prefecture": "石川県",
    "prefecture_kana": "イシカワケン",
    "prefecture_code": 17,
    "city": "羽咋郡志賀町",
    "city_kana": "ハクイグンシカマチ",
    "town": "穴口",
    "town_kana": "アナグチ",
    "street": null,
    "office_name": null,
    "office_name_kana": null
  },
  "0133": {
    "postcode": "9250133",
    "prefecture": "石川県",
    "prefecture_kana": "イシカワケン",
    "prefecture_code": 17,
    "city": "羽咋郡志賀町",
    "city_kana": "ハクイグンシカマチ",
    "town": "大坂",
    "town_kana": "オオサカ",
    "street": null,
    "office_name": null,
    "office_name_kana": null
  },
  "0134": {
    "postcode": "9250134",
    "prefecture": "石川県",
    "prefecture_kana": "イシカワケン",
    "prefecture_code": 17,
    "city": "羽咋郡志賀町",
    "city_kana": "ハクイグンシカマチ",
    "town": "上棚",
    "town_kana": "ウワダナ",
    "street": null,
    "office_name": null,
    "office_name_kana": null
  },
  "0135": {
    "postcode": "9250135",
    "prefecture": "石川県",
    "prefecture_kana": "イシカワケン",
    "prefecture_code": 17,
    "city": "羽咋郡志賀町",
    "city_kana": "ハクイグンシカマチ",
    "town": "二所宮",
    "town_kana": "ニショノミヤ",
    "street": null,
    "office_name": null,
    "office_name_kana": null
  },
  "0136": {
    "postcode": "9250136",
    "prefecture": "石川県",
    "prefecture_kana": "イシカワケン",
    "prefecture_code": 17,
    "city": "羽咋郡志賀町",
    "city_kana": "ハクイグンシカマチ",
    "town": "舘",
    "town_kana": "タチ",
    "street": null,
    "office_name": null,
    "office_name_kana": null
  },
  "0137": {
    "postcode": "9250137",
    "prefecture": "石川県",
    "prefecture_kana": "イシカワケン",
    "prefecture_code": 17,
    "city": "羽咋郡志賀町",
    "city_kana": "ハクイグンシカマチ",
    "town": "福井",
    "town_kana": "フクイ",
    "street": null,
    "office_name": null,
    "office_name_kana": null
  },
  "0141": {
    "postcode": "9250141",
    "prefecture": "石川県",
    "prefecture_kana": "イシカワケン",
    "prefecture_code": 17,
    "city": "羽咋郡志賀町",
    "city_kana": "ハクイグンシカマチ",
    "town": "高浜町",
    "town_kana": "タカハマチョウ",
    "street": null,
    "office_name": null,
    "office_name_kana": null
  },
  "0142": {
    "postcode": "9250142",
    "prefecture": "石川県",
    "prefecture_kana": "イシカワケン",
    "prefecture_code": 17,
    "city": "羽咋郡志賀町",
    "city_kana": "ハクイグンシカマチ",
    "town": "福野",
    "town_kana": "フクノ",
    "street": null,
    "office_name": null,
    "office_name_kana": null
  },
  "0143": {
    "postcode": "9250143",
    "prefecture": "石川県",
    "prefecture_kana": "イシカワケン",
    "prefecture_code": 17,
    "city": "羽咋郡志賀町",
    "city_kana": "ハクイグンシカマチ",
    "town": "宿女",
    "town_kana": "ヤドメ",
    "street": null,
    "office_name": null,
    "office_name_kana": null
  },
  "0144": {
    "postcode": "9250144",
    "prefecture": "石川県",
    "prefecture_kana": "イシカワケン",
    "prefecture_code": 17,
    "city": "羽咋郡志賀町",
    "city_kana": "ハクイグンシカマチ",
    "town": "坪野",
    "town_kana": "ツボノ",
    "street": null,
    "office_name": null,
    "office_name_kana": null
  },
  "0145": {
    "postcode": "9250145",
    "prefecture": "石川県",
    "prefecture_kana": "イシカワケン",
    "prefecture_code": 17,
    "city": "羽咋郡志賀町",
    "city_kana": "ハクイグンシカマチ",
    "town": "岩田",
    "town_kana": "イワタ",
    "street": null,
    "office_name": null,
    "office_name_kana": null
  },
  "0146": {
    "postcode": "9250146",
    "prefecture": "石川県",
    "prefecture_kana": "イシカワケン",
    "prefecture_code": 17,
    "city": "羽咋郡志賀町",
    "city_kana": "ハクイグンシカマチ",
    "town": "甘田",
    "town_kana": "アマダ",
    "street": null,
    "office_name": null,
    "office_name_kana": null
  },
  "0147": {
    "postcode": "9250147",
    "prefecture": "石川県",
    "prefecture_kana": "イシカワケン",
    "prefecture_code": 17,
    "city": "羽咋郡志賀町",
    "city_kana": "ハクイグンシカマチ",
    "town": "大島",
    "town_kana": "オシマ",
    "street": null,
    "office_name": null,
    "office_name_kana": null
  },
  "0148": {
    "postcode": "9250148",
    "prefecture": "石川県",
    "prefecture_kana": "イシカワケン",
    "prefecture_code": 17,
    "city": "羽咋郡志賀町",
    "city_kana": "ハクイグンシカマチ",
    "town": "長沢",
    "town_kana": "ナガサワ",
    "street": null,
    "office_name": null,
    "office_name_kana": null
  },
  "0151": {
    "postcode": "9250151",
    "prefecture": "石川県",
    "prefecture_kana": "イシカワケン",
    "prefecture_code": 17,
    "city": "羽咋郡志賀町",
    "city_kana": "ハクイグンシカマチ",
    "town": "梨谷小山",
    "town_kana": "ナシタニコヤマ",
    "street": null,
    "office_name": null,
    "office_name_kana": null
  },
  "0152": {
    "postcode": "9250152",
    "prefecture": "石川県",
    "prefecture_kana": "イシカワケン",
    "prefecture_code": 17,
    "city": "羽咋郡志賀町",
    "city_kana": "ハクイグンシカマチ",
    "town": "北吉田",
    "town_kana": "キタヨシダ",
    "street": null,
    "office_name": null,
    "office_name_kana": null
  },
  "0153": {
    "postcode": "9250153",
    "prefecture": "石川県",
    "prefecture_kana": "イシカワケン",
    "prefecture_code": 17,
    "city": "羽咋郡志賀町",
    "city_kana": "ハクイグンシカマチ",
    "town": "清水今江",
    "town_kana": "シミズイマエ",
    "street": null,
    "office_name": null,
    "office_name_kana": null
  },
  "0154": {
    "postcode": "9250154",
    "prefecture": "石川県",
    "prefecture_kana": "イシカワケン",
    "prefecture_code": 17,
    "city": "羽咋郡志賀町",
    "city_kana": "ハクイグンシカマチ",
    "town": "末吉",
    "town_kana": "スエヨシ",
    "street": null,
    "office_name": null,
    "office_name_kana": null
  },
  "0155": {
    "postcode": "9250155",
    "prefecture": "石川県",
    "prefecture_kana": "イシカワケン",
    "prefecture_code": 17,
    "city": "羽咋郡志賀町",
    "city_kana": "ハクイグンシカマチ",
    "town": "神代",
    "town_kana": "カクミ",
    "street": null,
    "office_name": null,
    "office_name_kana": null
  },
  "0156": {
    "postcode": "9250156",
    "prefecture": "石川県",
    "prefecture_kana": "イシカワケン",
    "prefecture_code": 17,
    "city": "羽咋郡志賀町",
    "city_kana": "ハクイグンシカマチ",
    "town": "矢蔵谷",
    "town_kana": "ヤグラダニ",
    "street": null,
    "office_name": null,
    "office_name_kana": null
  },
  "0157": {
    "postcode": "9250157",
    "prefecture": "石川県",
    "prefecture_kana": "イシカワケン",
    "prefecture_code": 17,
    "city": "羽咋郡志賀町",
    "city_kana": "ハクイグンシカマチ",
    "town": "堀松",
    "town_kana": "ホリマツ",
    "street": null,
    "office_name": null,
    "office_name_kana": null
  },
  "0161": {
    "postcode": "9250161",
    "prefecture": "石川県",
    "prefecture_kana": "イシカワケン",
    "prefecture_code": 17,
    "city": "羽咋郡志賀町",
    "city_kana": "ハクイグンシカマチ",
    "town": "赤住",
    "town_kana": "アカスミ",
    "street": null,
    "office_name": null,
    "office_name_kana": null
  },
  "0162": {
    "postcode": "9250162",
    "prefecture": "石川県",
    "prefecture_kana": "イシカワケン",
    "prefecture_code": 17,
    "city": "羽咋郡志賀町",
    "city_kana": "ハクイグンシカマチ",
    "town": "百浦",
    "town_kana": "モモウラ",
    "street": null,
    "office_name": null,
    "office_name_kana": null
  },
  "0163": {
    "postcode": "9250163",
    "prefecture": "石川県",
    "prefecture_kana": "イシカワケン",
    "prefecture_code": 17,
    "city": "羽咋郡志賀町",
    "city_kana": "ハクイグンシカマチ",
    "town": "小浦",
    "town_kana": "オウラ",
    "street": null,
    "office_name": null,
    "office_name_kana": null
  },
  "0164": {
    "postcode": "9250164",
    "prefecture": "石川県",
    "prefecture_kana": "イシカワケン",
    "prefecture_code": 17,
    "city": "羽咋郡志賀町",
    "city_kana": "ハクイグンシカマチ",
    "town": "大津",
    "town_kana": "オオヅ",
    "street": null,
    "office_name": null,
    "office_name_kana": null
  },
  "0165": {
    "postcode": "9250165",
    "prefecture": "石川県",
    "prefecture_kana": "イシカワケン",
    "prefecture_code": 17,
    "city": "羽咋郡志賀町",
    "city_kana": "ハクイグンシカマチ",
    "town": "上野",
    "town_kana": "ウワノ",
    "street": null,
    "office_name": null,
    "office_name_kana": null
  },
  "0166": {
    "postcode": "9250166",
    "prefecture": "石川県",
    "prefecture_kana": "イシカワケン",
    "prefecture_code": 17,
    "city": "羽咋郡志賀町",
    "city_kana": "ハクイグンシカマチ",
    "town": "安部屋",
    "town_kana": "アブヤ",
    "street": null,
    "office_name": null,
    "office_name_kana": null
  },
  "0167": {
    "postcode": "9250167",
    "prefecture": "石川県",
    "prefecture_kana": "イシカワケン",
    "prefecture_code": 17,
    "city": "羽咋郡志賀町",
    "city_kana": "ハクイグンシカマチ",
    "town": "町",
    "town_kana": "マチ",
    "street": null,
    "office_name": null,
    "office_name_kana": null
  },
  "0168": {
    "postcode": "9250168",
    "prefecture": "石川県",
    "prefecture_kana": "イシカワケン",
    "prefecture_code": 17,
    "city": "羽咋郡志賀町",
    "city_kana": "ハクイグンシカマチ",
    "town": "川尻",
    "town_kana": "カワシリ",
    "street": null,
    "office_name": null,
    "office_name_kana": null
  },
  "0193": {
    "postcode": "9250193",
    "prefecture": "石川県",
    "prefecture_kana": "イシカワケン",
    "prefecture_code": 17,
    "city": "羽咋郡志賀町",
    "city_kana": "ハクイグンシカマチ",
    "town": "字末吉",
    "town_kana": null,
    "street": "小崎１０",
    "office_name": "石川サンケン　株式会社　志賀工場",
    "office_name_kana": "イシカワサンケン カブシキガイシヤ シカコウジヨウ"
  },
  "0198": {
    "postcode": "9250198",
    "prefecture": "石川県",
    "prefecture_kana": "イシカワケン",
    "prefecture_code": 17,
    "city": "羽咋郡志賀町",
    "city_kana": "ハクイグンシカマチ",
    "town": "末吉",
    "town_kana": "スエヨシ",
    "street": "千古１番地１",
    "office_name": "志賀町役場",
    "office_name_kana": "シカマチヤクバ"
  },
  "0201": {
    "postcode": "9250201",
    "prefecture": "石川県",
    "prefecture_kana": "イシカワケン",
    "prefecture_code": 17,
    "city": "羽咋郡志賀町",
    "city_kana": "ハクイグンシカマチ",
    "town": "印内",
    "town_kana": "インナイ",
    "street": null,
    "office_name": null,
    "office_name_kana": null
  },
  "0202": {
    "postcode": "9250202",
    "prefecture": "石川県",
    "prefecture_kana": "イシカワケン",
    "prefecture_code": 17,
    "city": "羽咋郡志賀町",
    "city_kana": "ハクイグンシカマチ",
    "town": "代田",
    "town_kana": "シナンタ",
    "street": null,
    "office_name": null,
    "office_name_kana": null
  },
  "0203": {
    "postcode": "9250203",
    "prefecture": "石川県",
    "prefecture_kana": "イシカワケン",
    "prefecture_code": 17,
    "city": "羽咋郡志賀町",
    "city_kana": "ハクイグンシカマチ",
    "town": "新林",
    "town_kana": "シンバヤシ",
    "street": null,
    "office_name": null,
    "office_name_kana": null
  },
  "0204": {
    "postcode": "9250204",
    "prefecture": "石川県",
    "prefecture_kana": "イシカワケン",
    "prefecture_code": 17,
    "city": "羽咋郡志賀町",
    "city_kana": "ハクイグンシカマチ",
    "town": "牧山",
    "town_kana": "マキヤマ",
    "street": null,
    "office_name": null,
    "office_name_kana": null
  },
  "0205": {
    "postcode": "9250205",
    "prefecture": "石川県",
    "prefecture_kana": "イシカワケン",
    "prefecture_code": 17,
    "city": "羽咋郡志賀町",
    "city_kana": "ハクイグンシカマチ",
    "town": "仏木",
    "town_kana": "ホトギリ",
    "street": null,
    "office_name": null,
    "office_name_kana": null
  },
  "0206": {
    "postcode": "9250206",
    "prefecture": "石川県",
    "prefecture_kana": "イシカワケン",
    "prefecture_code": 17,
    "city": "羽咋郡志賀町",
    "city_kana": "ハクイグンシカマチ",
    "town": "谷屋",
    "town_kana": "タニヤ",
    "street": null,
    "office_name": null,
    "office_name_kana": null
  },
  "0207": {
    "postcode": "9250207",
    "prefecture": "石川県",
    "prefecture_kana": "イシカワケン",
    "prefecture_code": 17,
    "city": "羽咋郡志賀町",
    "city_kana": "ハクイグンシカマチ",
    "town": "栗山",
    "town_kana": "クリヤマ",
    "street": null,
    "office_name": null,
    "office_name_kana": null
  },
  "0211": {
    "postcode": "9250211",
    "prefecture": "石川県",
    "prefecture_kana": "イシカワケン",
    "prefecture_code": 17,
    "city": "羽咋郡志賀町",
    "city_kana": "ハクイグンシカマチ",
    "town": "矢田",
    "town_kana": "ヤタ",
    "street": null,
    "office_name": null,
    "office_name_kana": null
  },
  "0212": {
    "postcode": "9250212",
    "prefecture": "石川県",
    "prefecture_kana": "イシカワケン",
    "prefecture_code": 17,
    "city": "羽咋郡志賀町",
    "city_kana": "ハクイグンシカマチ",
    "town": "徳田",
    "town_kana": "トクダ",
    "street": null,
    "office_name": null,
    "office_name_kana": null
  },
  "0213": {
    "postcode": "9250213",
    "prefecture": "石川県",
    "prefecture_kana": "イシカワケン",
    "prefecture_code": 17,
    "city": "羽咋郡志賀町",
    "city_kana": "ハクイグンシカマチ",
    "town": "舘開",
    "town_kana": "タチヒラキ",
    "street": null,
    "office_name": null,
    "office_name_kana": null
  },
  "0214": {
    "postcode": "9250214",
    "prefecture": "石川県",
    "prefecture_kana": "イシカワケン",
    "prefecture_code": 17,
    "city": "羽咋郡志賀町",
    "city_kana": "ハクイグンシカマチ",
    "town": "火打谷",
    "town_kana": "ヒウチダニ",
    "street": null,
    "office_name": null,
    "office_name_kana": null
  },
  "0215": {
    "postcode": "9250215",
    "prefecture": "石川県",
    "prefecture_kana": "イシカワケン",
    "prefecture_code": 17,
    "city": "羽咋郡志賀町",
    "city_kana": "ハクイグンシカマチ",
    "town": "出雲",
    "town_kana": "イズモ",
    "street": null,
    "office_name": null,
    "office_name_kana": null
  },
  "0301": {
    "postcode": "9250301",
    "prefecture": "石川県",
    "prefecture_kana": "イシカワケン",
    "prefecture_code": 17,
    "city": "羽咋郡志賀町",
    "city_kana": "ハクイグンシカマチ",
    "town": "日用",
    "town_kana": "ヒヨウ",
    "street": null,
    "office_name": null,
    "office_name_kana": null
  },
  "0302": {
    "postcode": "9250302",
    "prefecture": "石川県",
    "prefecture_kana": "イシカワケン",
    "prefecture_code": 17,
    "city": "羽咋郡志賀町",
    "city_kana": "ハクイグンシカマチ",
    "town": "町居",
    "town_kana": "マチイ",
    "street": null,
    "office_name": null,
    "office_name_kana": null
  },
  "0303": {
    "postcode": "9250303",
    "prefecture": "石川県",
    "prefecture_kana": "イシカワケン",
    "prefecture_code": 17,
    "city": "羽咋郡志賀町",
    "city_kana": "ハクイグンシカマチ",
    "town": "日下田",
    "town_kana": "ヒゲタ",
    "street": null,
    "office_name": null,
    "office_name_kana": null
  },
  "0304": {
    "postcode": "9250304",
    "prefecture": "石川県",
    "prefecture_kana": "イシカワケン",
    "prefecture_code": 17,
    "city": "羽咋郡志賀町",
    "city_kana": "ハクイグンシカマチ",
    "town": "中山",
    "town_kana": "ナカヤマ",
    "street": null,
    "office_name": null,
    "office_name_kana": null
  },
  "0305": {
    "postcode": "9250305",
    "prefecture": "石川県",
    "prefecture_kana": "イシカワケン",
    "prefecture_code": 17,
    "city": "羽咋郡志賀町",
    "city_kana": "ハクイグンシカマチ",
    "town": "豊後名",
    "town_kana": "ブンゴメ",
    "street": null,
    "office_name": null,
    "office_name_kana": null
  },
  "0306": {
    "postcode": "9250306",
    "prefecture": "石川県",
    "prefecture_kana": "イシカワケン",
    "prefecture_code": 17,
    "city": "羽咋郡志賀町",
    "city_kana": "ハクイグンシカマチ",
    "town": "草木",
    "town_kana": "クサギ",
    "street": null,
    "office_name": null,
    "office_name_kana": null
  },
  "0307": {
    "postcode": "9250307",
    "prefecture": "石川県",
    "prefecture_kana": "イシカワケン",
    "prefecture_code": 17,
    "city": "羽咋郡志賀町",
    "city_kana": "ハクイグンシカマチ",
    "town": "荒屋",
    "town_kana": "アラヤ",
    "street": null,
    "office_name": null,
    "office_name_kana": null
  },
  "0311": {
    "postcode": "9250311",
    "prefecture": "石川県",
    "prefecture_kana": "イシカワケン",
    "prefecture_code": 17,
    "city": "羽咋郡志賀町",
    "city_kana": "ハクイグンシカマチ",
    "town": "谷神",
    "town_kana": "ヤチカミ",
    "street": null,
    "office_name": null,
    "office_name_kana": null
  },
  "0312": {
    "postcode": "9250312",
    "prefecture": "石川県",
    "prefecture_kana": "イシカワケン",
    "prefecture_code": 17,
    "city": "羽咋郡志賀町",
    "city_kana": "ハクイグンシカマチ",
    "town": "六実",
    "town_kana": "ムツミ",
    "street": null,
    "office_name": null,
    "office_name_kana": null
  },
  "0313": {
    "postcode": "9250313",
    "prefecture": "石川県",
    "prefecture_kana": "イシカワケン",
    "prefecture_code": 17,
    "city": "羽咋郡志賀町",
    "city_kana": "ハクイグンシカマチ",
    "town": "三明",
    "town_kana": "サンミョウ",
    "street": null,
    "office_name": null,
    "office_name_kana": null
  },
  "0314": {
    "postcode": "9250314",
    "prefecture": "石川県",
    "prefecture_kana": "イシカワケン",
    "prefecture_code": 17,
    "city": "羽咋郡志賀町",
    "city_kana": "ハクイグンシカマチ",
    "town": "中畠",
    "town_kana": "ナカバタ",
    "street": null,
    "office_name": null,
    "office_name_kana": null
  },
  "0315": {
    "postcode": "9250315",
    "prefecture": "石川県",
    "prefecture_kana": "イシカワケン",
    "prefecture_code": 17,
    "city": "羽咋郡志賀町",
    "city_kana": "ハクイグンシカマチ",
    "town": "福浦港",
    "town_kana": "フクラコウ",
    "street": null,
    "office_name": null,
    "office_name_kana": null
  },
  "0345": [
    {
      "postcode": "9250345",
      "prefecture": "石川県",
      "prefecture_kana": "イシカワケン",
      "prefecture_code": 17,
      "city": "羽咋郡志賀町",
      "city_kana": "ハクイグンシカマチ",
      "town": "富来牛下",
      "town_kana": "トギウシオロシ",
      "street": null,
      "office_name": null,
      "office_name_kana": null
    },
    {
      "postcode": "9250345",
      "prefecture": "石川県",
      "prefecture_kana": "イシカワケン",
      "prefecture_code": 17,
      "city": "羽咋郡志賀町",
      "city_kana": "ハクイグンシカマチ",
      "town": "富来牛下巌門",
      "town_kana": "トギウシオロシガンモン",
      "street": null,
      "office_name": null,
      "office_name_kana": null
    }
  ],
  "0371": {
    "postcode": "9250371",
    "prefecture": "石川県",
    "prefecture_kana": "イシカワケン",
    "prefecture_code": 17,
    "city": "羽咋郡志賀町",
    "city_kana": "ハクイグンシカマチ",
    "town": "釈迦堂",
    "town_kana": "シャカドウ",
    "street": null,
    "office_name": null,
    "office_name_kana": null
  },
  "0372": {
    "postcode": "9250372",
    "prefecture": "石川県",
    "prefecture_kana": "イシカワケン",
    "prefecture_code": 17,
    "city": "羽咋郡志賀町",
    "city_kana": "ハクイグンシカマチ",
    "town": "直海",
    "town_kana": "ノウミ",
    "street": null,
    "office_name": null,
    "office_name_kana": null
  },
  "0373": {
    "postcode": "9250373",
    "prefecture": "石川県",
    "prefecture_kana": "イシカワケン",
    "prefecture_code": 17,
    "city": "羽咋郡志賀町",
    "city_kana": "ハクイグンシカマチ",
    "town": "小室",
    "town_kana": "コモロ",
    "street": null,
    "office_name": null,
    "office_name_kana": null
  },
  "0374": {
    "postcode": "9250374",
    "prefecture": "石川県",
    "prefecture_kana": "イシカワケン",
    "prefecture_code": 17,
    "city": "羽咋郡志賀町",
    "city_kana": "ハクイグンシカマチ",
    "town": "松木",
    "town_kana": "マツノキ",
    "street": null,
    "office_name": null,
    "office_name_kana": null
  },
  "0375": {
    "postcode": "9250375",
    "prefecture": "石川県",
    "prefecture_kana": "イシカワケン",
    "prefecture_code": 17,
    "city": "羽咋郡志賀町",
    "city_kana": "ハクイグンシカマチ",
    "town": "若葉台",
    "town_kana": "ワカバダイ",
    "street": null,
    "office_name": null,
    "office_name_kana": null
  },
  "0376": {
    "postcode": "9250376",
    "prefecture": "石川県",
    "prefecture_kana": "イシカワケン",
    "prefecture_code": 17,
    "city": "羽咋郡志賀町",
    "city_kana": "ハクイグンシカマチ",
    "town": "長田",
    "town_kana": "ナガタ",
    "street": null,
    "office_name": null,
    "office_name_kana": null
  },
  "0381": {
    "postcode": "9250381",
    "prefecture": "石川県",
    "prefecture_kana": "イシカワケン",
    "prefecture_code": 17,
    "city": "羽咋郡志賀町",
    "city_kana": "ハクイグンシカマチ",
    "town": "田原",
    "town_kana": "タワラ",
    "street": null,
    "office_name": null,
    "office_name_kana": null
  },
  "0382": {
    "postcode": "9250382",
    "prefecture": "石川県",
    "prefecture_kana": "イシカワケン",
    "prefecture_code": 17,
    "city": "羽咋郡志賀町",
    "city_kana": "ハクイグンシカマチ",
    "town": "米町",
    "town_kana": "コンマチ",
    "street": null,
    "office_name": null,
    "office_name_kana": null
  },
  "0383": {
    "postcode": "9250383",
    "prefecture": "石川県",
    "prefecture_kana": "イシカワケン",
    "prefecture_code": 17,
    "city": "羽咋郡志賀町",
    "city_kana": "ハクイグンシカマチ",
    "town": "大笹",
    "town_kana": "オオザサ",
    "street": null,
    "office_name": null,
    "office_name_kana": null
  },
  "0384": {
    "postcode": "9250384",
    "prefecture": "石川県",
    "prefecture_kana": "イシカワケン",
    "prefecture_code": 17,
    "city": "羽咋郡志賀町",
    "city_kana": "ハクイグンシカマチ",
    "town": "五里峠",
    "town_kana": "ゴリトウゲ",
    "street": null,
    "office_name": null,
    "office_name_kana": null
  },
  "0385": {
    "postcode": "9250385",
    "prefecture": "石川県",
    "prefecture_kana": "イシカワケン",
    "prefecture_code": 17,
    "city": "羽咋郡志賀町",
    "city_kana": "ハクイグンシカマチ",
    "town": "牛ケ首",
    "town_kana": "ウシガクビ",
    "street": null,
    "office_name": null,
    "office_name_kana": null
  },
  "0392": {
    "postcode": "9250392",
    "prefecture": "石川県",
    "prefecture_kana": "イシカワケン",
    "prefecture_code": 17,
    "city": "羽咋郡志賀町",
    "city_kana": "ハクイグンシカマチ",
    "town": "富来牛下",
    "town_kana": "トギウシオロシ",
    "street": "ル−１−１",
    "office_name": "株式会社　能登金剛センター",
    "office_name_kana": "カブシキガイシヤ ノトコンゴウセンタ-"
  },
  "0421": {
    "postcode": "9250421",
    "prefecture": "石川県",
    "prefecture_kana": "イシカワケン",
    "prefecture_code": 17,
    "city": "羽咋郡志賀町",
    "city_kana": "ハクイグンシカマチ",
    "town": "切留",
    "town_kana": "キリドメ",
    "street": null,
    "office_name": null,
    "office_name_kana": null
  },
  "0422": {
    "postcode": "9250422",
    "prefecture": "石川県",
    "prefecture_kana": "イシカワケン",
    "prefecture_code": 17,
    "city": "羽咋郡志賀町",
    "city_kana": "ハクイグンシカマチ",
    "town": "地保",
    "town_kana": "ジホ",
    "street": null,
    "office_name": null,
    "office_name_kana": null
  },
  "0423": {
    "postcode": "9250423",
    "prefecture": "石川県",
    "prefecture_kana": "イシカワケン",
    "prefecture_code": 17,
    "city": "羽咋郡志賀町",
    "city_kana": "ハクイグンシカマチ",
    "town": "鵜野屋",
    "town_kana": "ウノヤ",
    "street": null,
    "office_name": null,
    "office_name_kana": null
  },
  "0424": {
    "postcode": "9250424",
    "prefecture": "石川県",
    "prefecture_kana": "イシカワケン",
    "prefecture_code": 17,
    "city": "羽咋郡志賀町",
    "city_kana": "ハクイグンシカマチ",
    "town": "入釜",
    "town_kana": "イリガマ",
    "street": null,
    "office_name": null,
    "office_name_kana": null
  },
  "0425": {
    "postcode": "9250425",
    "prefecture": "石川県",
    "prefecture_kana": "イシカワケン",
    "prefecture_code": 17,
    "city": "羽咋郡志賀町",
    "city_kana": "ハクイグンシカマチ",
    "town": "灯",
    "town_kana": "トボシ",
    "street": null,
    "office_name": null,
    "office_name_kana": null
  },
  "0426": {
    "postcode": "9250426",
    "prefecture": "石川県",
    "prefecture_kana": "イシカワケン",
    "prefecture_code": 17,
    "city": "羽咋郡志賀町",
    "city_kana": "ハクイグンシカマチ",
    "town": "阿川",
    "town_kana": "アコウ",
    "street": null,
    "office_name": null,
    "office_name_kana": null
  },
  "0427": {
    "postcode": "9250427",
    "prefecture": "石川県",
    "prefecture_kana": "イシカワケン",
    "prefecture_code": 17,
    "city": "羽咋郡志賀町",
    "city_kana": "ハクイグンシカマチ",
    "town": "楚和",
    "town_kana": "ソワ",
    "street": null,
    "office_name": null,
    "office_name_kana": null
  },
  "0431": {
    "postcode": "9250431",
    "prefecture": "石川県",
    "prefecture_kana": "イシカワケン",
    "prefecture_code": 17,
    "city": "羽咋郡志賀町",
    "city_kana": "ハクイグンシカマチ",
    "town": "尊保",
    "town_kana": "ソンボ",
    "street": null,
    "office_name": null,
    "office_name_kana": null
  },
  "0432": {
    "postcode": "9250432",
    "prefecture": "石川県",
    "prefecture_kana": "イシカワケン",
    "prefecture_code": 17,
    "city": "羽咋郡志賀町",
    "city_kana": "ハクイグンシカマチ",
    "town": "今田",
    "town_kana": "イマダ",
    "street": null,
    "office_name": null,
    "office_name_kana": null
  },
  "0433": {
    "postcode": "9250433",
    "prefecture": "石川県",
    "prefecture_kana": "イシカワケン",
    "prefecture_code": 17,
    "city": "羽咋郡志賀町",
    "city_kana": "ハクイグンシカマチ",
    "town": "和田",
    "town_kana": "ワダ",
    "street": null,
    "office_name": null,
    "office_name_kana": null
  },
  "0434": {
    "postcode": "9250434",
    "prefecture": "石川県",
    "prefecture_kana": "イシカワケン",
    "prefecture_code": 17,
    "city": "羽咋郡志賀町",
    "city_kana": "ハクイグンシカマチ",
    "town": "大西",
    "town_kana": "オオニシ",
    "street": null,
    "office_name": null,
    "office_name_kana": null
  },
  "0435": {
    "postcode": "9250435",
    "prefecture": "石川県",
    "prefecture_kana": "イシカワケン",
    "prefecture_code": 17,
    "city": "羽咋郡志賀町",
    "city_kana": "ハクイグンシカマチ",
    "town": "江添",
    "town_kana": "エゾエ",
    "street": null,
    "office_name": null,
    "office_name_kana": null
  },
  "0436": {
    "postcode": "9250436",
    "prefecture": "石川県",
    "prefecture_kana": "イシカワケン",
    "prefecture_code": 17,
    "city": "羽咋郡志賀町",
    "city_kana": "ハクイグンシカマチ",
    "town": "貝田",
    "town_kana": "カイダ",
    "street": null,
    "office_name": null,
    "office_name_kana": null
  },
  "0437": {
    "postcode": "9250437",
    "prefecture": "石川県",
    "prefecture_kana": "イシカワケン",
    "prefecture_code": 17,
    "city": "羽咋郡志賀町",
    "city_kana": "ハクイグンシカマチ",
    "town": "田中",
    "town_kana": "タナカ",
    "street": null,
    "office_name": null,
    "office_name_kana": null
  },
  "0438": {
    "postcode": "9250438",
    "prefecture": "石川県",
    "prefecture_kana": "イシカワケン",
    "prefecture_code": 17,
    "city": "羽咋郡志賀町",
    "city_kana": "ハクイグンシカマチ",
    "town": "八千代",
    "town_kana": "ヤチヨ",
    "street": null,
    "office_name": null,
    "office_name_kana": null
  },
  "0441": {
    "postcode": "9250441",
    "prefecture": "石川県",
    "prefecture_kana": "イシカワケン",
    "prefecture_code": 17,
    "city": "羽咋郡志賀町",
    "city_kana": "ハクイグンシカマチ",
    "town": "広地",
    "town_kana": "ヒロヂ",
    "street": null,
    "office_name": null,
    "office_name_kana": null
  },
  "0442": {
    "postcode": "9250442",
    "prefecture": "石川県",
    "prefecture_kana": "イシカワケン",
    "prefecture_code": 17,
    "city": "羽咋郡志賀町",
    "city_kana": "ハクイグンシカマチ",
    "town": "東小室",
    "town_kana": "ヒガシオモロ",
    "street": null,
    "office_name": null,
    "office_name_kana": null
  },
  "0443": {
    "postcode": "9250443",
    "prefecture": "石川県",
    "prefecture_kana": "イシカワケン",
    "prefecture_code": 17,
    "city": "羽咋郡志賀町",
    "city_kana": "ハクイグンシカマチ",
    "town": "富来七海",
    "town_kana": "トギシツミ",
    "street": null,
    "office_name": null,
    "office_name_kana": null
  },
  "0444": {
    "postcode": "9250444",
    "prefecture": "石川県",
    "prefecture_kana": "イシカワケン",
    "prefecture_code": 17,
    "city": "羽咋郡志賀町",
    "city_kana": "ハクイグンシカマチ",
    "town": "富来生神",
    "town_kana": "トギウルカミ",
    "street": null,
    "office_name": null,
    "office_name_kana": null
  },
  "0445": {
    "postcode": "9250445",
    "prefecture": "石川県",
    "prefecture_kana": "イシカワケン",
    "prefecture_code": 17,
    "city": "羽咋郡志賀町",
    "city_kana": "ハクイグンシカマチ",
    "town": "富来牛下",
    "town_kana": "トギウシオロシ",
    "street": null,
    "office_name": null,
    "office_name_kana": null
  },
  "0446": {
    "postcode": "9250446",
    "prefecture": "石川県",
    "prefecture_kana": "イシカワケン",
    "prefecture_code": 17,
    "city": "羽咋郡志賀町",
    "city_kana": "ハクイグンシカマチ",
    "town": "富来地頭町",
    "town_kana": "トギジトウマチ",
    "street": null,
    "office_name": null,
    "office_name_kana": null
  },
  "0447": {
    "postcode": "9250447",
    "prefecture": "石川県",
    "prefecture_kana": "イシカワケン",
    "prefecture_code": 17,
    "city": "羽咋郡志賀町",
    "city_kana": "ハクイグンシカマチ",
    "town": "富来領家町",
    "town_kana": "トギリョウケマチ",
    "street": null,
    "office_name": null,
    "office_name_kana": null
  },
  "0448": {
    "postcode": "9250448",
    "prefecture": "石川県",
    "prefecture_kana": "イシカワケン",
    "prefecture_code": 17,
    "city": "羽咋郡志賀町",
    "city_kana": "ハクイグンシカマチ",
    "town": "富来高田",
    "town_kana": "トギタカタ",
    "street": null,
    "office_name": null,
    "office_name_kana": null
  },
  "0451": {
    "postcode": "9250451",
    "prefecture": "石川県",
    "prefecture_kana": "イシカワケン",
    "prefecture_code": 17,
    "city": "羽咋郡志賀町",
    "city_kana": "ハクイグンシカマチ",
    "town": "八幡",
    "town_kana": "ヤワタ",
    "street": null,
    "office_name": null,
    "office_name_kana": null
  },
  "0452": [
    {
      "postcode": "9250452",
      "prefecture": "石川県",
      "prefecture_kana": "イシカワケン",
      "prefecture_code": 17,
      "city": "羽咋郡志賀町",
      "city_kana": "ハクイグンシカマチ",
      "town": "中泉",
      "town_kana": "ナカイズミ",
      "street": null,
      "office_name": null,
      "office_name_kana": null
    },
    {
      "postcode": "9250452",
      "prefecture": "石川県",
      "prefecture_kana": "イシカワケン",
      "prefecture_code": 17,
      "city": "羽咋郡志賀町",
      "city_kana": "ハクイグンシカマチ",
      "town": "八幡座主",
      "town_kana": "ヤワタザス",
      "street": null,
      "office_name": null,
      "office_name_kana": null
    }
  ],
  "0453": {
    "postcode": "9250453",
    "prefecture": "石川県",
    "prefecture_kana": "イシカワケン",
    "prefecture_code": 17,
    "city": "羽咋郡志賀町",
    "city_kana": "ハクイグンシカマチ",
    "town": "里本江",
    "town_kana": "サトホンゴ",
    "street": null,
    "office_name": null,
    "office_name_kana": null
  },
  "0454": {
    "postcode": "9250454",
    "prefecture": "石川県",
    "prefecture_kana": "イシカワケン",
    "prefecture_code": 17,
    "city": "羽咋郡志賀町",
    "city_kana": "ハクイグンシカマチ",
    "town": "相神",
    "town_kana": "アイカミ",
    "street": null,
    "office_name": null,
    "office_name_kana": null
  },
  "0455": {
    "postcode": "9250455",
    "prefecture": "石川県",
    "prefecture_kana": "イシカワケン",
    "prefecture_code": 17,
    "city": "羽咋郡志賀町",
    "city_kana": "ハクイグンシカマチ",
    "town": "中浜",
    "town_kana": "ナカハマ",
    "street": null,
    "office_name": null,
    "office_name_kana": null
  },
  "0456": {
    "postcode": "9250456",
    "prefecture": "石川県",
    "prefecture_kana": "イシカワケン",
    "prefecture_code": 17,
    "city": "羽咋郡志賀町",
    "city_kana": "ハクイグンシカマチ",
    "town": "草江",
    "town_kana": "ソウゴ",
    "street": null,
    "office_name": null,
    "office_name_kana": null
  },
  "0457": {
    "postcode": "9250457",
    "prefecture": "石川県",
    "prefecture_kana": "イシカワケン",
    "prefecture_code": 17,
    "city": "羽咋郡志賀町",
    "city_kana": "ハクイグンシカマチ",
    "town": "給分",
    "town_kana": "キュウブン",
    "street": null,
    "office_name": null,
    "office_name_kana": null
  },
  "0498": {
    "postcode": "9250498",
    "prefecture": "石川県",
    "prefecture_kana": "イシカワケン",
    "prefecture_code": 17,
    "city": "羽咋郡志賀町",
    "city_kana": "ハクイグンシカマチ",
    "town": "富来領家町",
    "town_kana": "トギリョウケマチ",
    "street": "甲１０",
    "office_name": "志賀町役場富来支所",
    "office_name_kana": "シカマチヤクバトギシシヨ"
  },
  "0561": {
    "postcode": "9250561",
    "prefecture": "石川県",
    "prefecture_kana": "イシカワケン",
    "prefecture_code": 17,
    "city": "羽咋郡志賀町",
    "city_kana": "ハクイグンシカマチ",
    "town": "大福寺",
    "town_kana": "ダイフクジ",
    "street": null,
    "office_name": null,
    "office_name_kana": null
  },
  "0562": {
    "postcode": "9250562",
    "prefecture": "石川県",
    "prefecture_kana": "イシカワケン",
    "prefecture_code": 17,
    "city": "羽咋郡志賀町",
    "city_kana": "ハクイグンシカマチ",
    "town": "栢木",
    "town_kana": "カイノキ",
    "street": null,
    "office_name": null,
    "office_name_kana": null
  },
  "0563": {
    "postcode": "9250563",
    "prefecture": "石川県",
    "prefecture_kana": "イシカワケン",
    "prefecture_code": 17,
    "city": "羽咋郡志賀町",
    "city_kana": "ハクイグンシカマチ",
    "town": "稲敷",
    "town_kana": "イナシキ",
    "street": null,
    "office_name": null,
    "office_name_kana": null
  },
  "0564": {
    "postcode": "9250564",
    "prefecture": "石川県",
    "prefecture_kana": "イシカワケン",
    "prefecture_code": 17,
    "city": "羽咋郡志賀町",
    "city_kana": "ハクイグンシカマチ",
    "town": "酒見",
    "town_kana": "サカミ",
    "street": null,
    "office_name": null,
    "office_name_kana": null
  },
  "0565": {
    "postcode": "9250565",
    "prefecture": "石川県",
    "prefecture_kana": "イシカワケン",
    "prefecture_code": 17,
    "city": "羽咋郡志賀町",
    "city_kana": "ハクイグンシカマチ",
    "town": "香能",
    "town_kana": "カノウ",
    "street": null,
    "office_name": null,
    "office_name_kana": null
  },
  "0566": {
    "postcode": "9250566",
    "prefecture": "石川県",
    "prefecture_kana": "イシカワケン",
    "prefecture_code": 17,
    "city": "羽咋郡志賀町",
    "city_kana": "ハクイグンシカマチ",
    "town": "西海風戸",
    "town_kana": "サイカイフト",
    "street": null,
    "office_name": null,
    "office_name_kana": null
  },
  "0571": {
    "postcode": "9250571",
    "prefecture": "石川県",
    "prefecture_kana": "イシカワケン",
    "prefecture_code": 17,
    "city": "羽咋郡志賀町",
    "city_kana": "ハクイグンシカマチ",
    "town": "西海風無",
    "town_kana": "サイカイカザナシ",
    "street": null,
    "office_name": null,
    "office_name_kana": null
  },
  "0572": {
    "postcode": "9250572",
    "prefecture": "石川県",
    "prefecture_kana": "イシカワケン",
    "prefecture_code": 17,
    "city": "羽咋郡志賀町",
    "city_kana": "ハクイグンシカマチ",
    "town": "西海千ノ浦",
    "town_kana": "サイカイチノウラ",
    "street": null,
    "office_name": null,
    "office_name_kana": null
  },
  "0573": {
    "postcode": "9250573",
    "prefecture": "石川県",
    "prefecture_kana": "イシカワケン",
    "prefecture_code": 17,
    "city": "羽咋郡志賀町",
    "city_kana": "ハクイグンシカマチ",
    "town": "西海久喜",
    "town_kana": "サイカイヒサキ",
    "street": null,
    "office_name": null,
    "office_name_kana": null
  },
  "0574": {
    "postcode": "9250574",
    "prefecture": "石川県",
    "prefecture_kana": "イシカワケン",
    "prefecture_code": 17,
    "city": "羽咋郡志賀町",
    "city_kana": "ハクイグンシカマチ",
    "town": "赤崎",
    "town_kana": "アカサキ",
    "street": null,
    "office_name": null,
    "office_name_kana": null
  },
  "0575": {
    "postcode": "9250575",
    "prefecture": "石川県",
    "prefecture_kana": "イシカワケン",
    "prefecture_code": 17,
    "city": "羽咋郡志賀町",
    "city_kana": "ハクイグンシカマチ",
    "town": "小窪",
    "town_kana": "オクボ",
    "street": null,
    "office_name": null,
    "office_name_kana": null
  },
  "0576": {
    "postcode": "9250576",
    "prefecture": "石川県",
    "prefecture_kana": "イシカワケン",
    "prefecture_code": 17,
    "city": "羽咋郡志賀町",
    "city_kana": "ハクイグンシカマチ",
    "town": "鹿頭",
    "town_kana": "シシズ",
    "street": null,
    "office_name": null,
    "office_name_kana": null
  },
  "0577": {
    "postcode": "9250577",
    "prefecture": "石川県",
    "prefecture_kana": "イシカワケン",
    "prefecture_code": 17,
    "city": "羽咋郡志賀町",
    "city_kana": "ハクイグンシカマチ",
    "town": "笹波",
    "town_kana": "ササナミ",
    "street": null,
    "office_name": null,
    "office_name_kana": null
  },
  "0578": {
    "postcode": "9250578",
    "prefecture": "石川県",
    "prefecture_kana": "イシカワケン",
    "prefecture_code": 17,
    "city": "羽咋郡志賀町",
    "city_kana": "ハクイグンシカマチ",
    "town": "前浜",
    "town_kana": "マエハマ",
    "street": null,
    "office_name": null,
    "office_name_kana": null
  },
  "0601": {
    "postcode": "9250601",
    "prefecture": "石川県",
    "prefecture_kana": "イシカワケン",
    "prefecture_code": 17,
    "city": "羽咋市",
    "city_kana": "ハクイシ",
    "town": "菅池町",
    "town_kana": "スガイケマチ",
    "street": null,
    "office_name": null,
    "office_name_kana": null
  },
  "0602": {
    "postcode": "9250602",
    "prefecture": "石川県",
    "prefecture_kana": "イシカワケン",
    "prefecture_code": 17,
    "city": "羽咋市",
    "city_kana": "ハクイシ",
    "town": "千石町",
    "town_kana": "センゴクマチ",
    "street": null,
    "office_name": null,
    "office_name_kana": null
  },
  "0603": {
    "postcode": "9250603",
    "prefecture": "石川県",
    "prefecture_kana": "イシカワケン",
    "prefecture_code": 17,
    "city": "羽咋市",
    "city_kana": "ハクイシ",
    "town": "福水町",
    "town_kana": "フクミズマチ",
    "street": null,
    "office_name": null,
    "office_name_kana": null
  },
  "0604": {
    "postcode": "9250604",
    "prefecture": "石川県",
    "prefecture_kana": "イシカワケン",
    "prefecture_code": 17,
    "city": "羽咋市",
    "city_kana": "ハクイシ",
    "town": "白石町",
    "town_kana": "シロイシマチ",
    "street": null,
    "office_name": null,
    "office_name_kana": null
  },
  "0605": {
    "postcode": "9250605",
    "prefecture": "石川県",
    "prefecture_kana": "イシカワケン",
    "prefecture_code": 17,
    "city": "羽咋市",
    "city_kana": "ハクイシ",
    "town": "宇土野町",
    "town_kana": "ウドノマチ",
    "street": null,
    "office_name": null,
    "office_name_kana": null
  },
  "0606": {
    "postcode": "9250606",
    "prefecture": "石川県",
    "prefecture_kana": "イシカワケン",
    "prefecture_code": 17,
    "city": "羽咋市",
    "city_kana": "ハクイシ",
    "town": "白瀬町",
    "town_kana": "シロセマチ",
    "street": null,
    "office_name": null,
    "office_name_kana": null
  },
  "0607": {
    "postcode": "9250607",
    "prefecture": "石川県",
    "prefecture_kana": "イシカワケン",
    "prefecture_code": 17,
    "city": "羽咋市",
    "city_kana": "ハクイシ",
    "town": "上白瀬町",
    "town_kana": "カミシロセマチ",
    "street": null,
    "office_name": null,
    "office_name_kana": null
  },
  "0608": {
    "postcode": "9250608",
    "prefecture": "石川県",
    "prefecture_kana": "イシカワケン",
    "prefecture_code": 17,
    "city": "羽咋市",
    "city_kana": "ハクイシ",
    "town": "神子原町",
    "town_kana": "ミコハラマチ",
    "street": null,
    "office_name": null,
    "office_name_kana": null
  },
  "0611": {
    "postcode": "9250611",
    "prefecture": "石川県",
    "prefecture_kana": "イシカワケン",
    "prefecture_code": 17,
    "city": "羽咋市",
    "city_kana": "ハクイシ",
    "town": "上江町",
    "town_kana": "ウワエマチ",
    "street": null,
    "office_name": null,
    "office_name_kana": null
  },
  "0612": {
    "postcode": "9250612",
    "prefecture": "石川県",
    "prefecture_kana": "イシカワケン",
    "prefecture_code": 17,
    "city": "羽咋市",
    "city_kana": "ハクイシ",
    "town": "垣内田町",
    "town_kana": "カクッタマチ",
    "street": null,
    "office_name": null,
    "office_name_kana": null
  },
  "0613": {
    "postcode": "9250613",
    "prefecture": "石川県",
    "prefecture_kana": "イシカワケン",
    "prefecture_code": 17,
    "city": "羽咋市",
    "city_kana": "ハクイシ",
    "town": "飯山町",
    "town_kana": "イノヤママチ",
    "street": null,
    "office_name": null,
    "office_name_kana": null
  },
  "0614": {
    "postcode": "9250614",
    "prefecture": "石川県",
    "prefecture_kana": "イシカワケン",
    "prefecture_code": 17,
    "city": "羽咋市",
    "city_kana": "ハクイシ",
    "town": "中川町",
    "town_kana": "ナカガワマチ",
    "street": null,
    "office_name": null,
    "office_name_kana": null
  },
  "0615": {
    "postcode": "9250615",
    "prefecture": "石川県",
    "prefecture_kana": "イシカワケン",
    "prefecture_code": 17,
    "city": "羽咋市",
    "city_kana": "ハクイシ",
    "town": "千代町",
    "town_kana": "チヨマチ",
    "street": null,
    "office_name": null,
    "office_name_kana": null
  },
  "0616": {
    "postcode": "9250616",
    "prefecture": "石川県",
    "prefecture_kana": "イシカワケン",
    "prefecture_code": 17,
    "city": "羽咋市",
    "city_kana": "ハクイシ",
    "town": "四町",
    "town_kana": "シチョウ",
    "street": null,
    "office_name": null,
    "office_name_kana": null
  },
  "0617": {
    "postcode": "9250617",
    "prefecture": "石川県",
    "prefecture_kana": "イシカワケン",
    "prefecture_code": 17,
    "city": "羽咋市",
    "city_kana": "ハクイシ",
    "town": "円井町",
    "town_kana": "ツムライマチ",
    "street": null,
    "office_name": null,
    "office_name_kana": null
  },
  "0621": {
    "postcode": "9250621",
    "prefecture": "石川県",
    "prefecture_kana": "イシカワケン",
    "prefecture_code": 17,
    "city": "羽咋市",
    "city_kana": "ハクイシ",
    "town": "菱分町",
    "town_kana": "ヒシワケマチ",
    "street": null,
    "office_name": null,
    "office_name_kana": null
  },
  "0622": {
    "postcode": "9250622",
    "prefecture": "石川県",
    "prefecture_kana": "イシカワケン",
    "prefecture_code": 17,
    "city": "羽咋市",
    "city_kana": "ハクイシ",
    "town": "堀替新町",
    "town_kana": "ホリカエシンマチ",
    "street": null,
    "office_name": null,
    "office_name_kana": null
  },
  "0623": {
    "postcode": "9250623",
    "prefecture": "石川県",
    "prefecture_kana": "イシカワケン",
    "prefecture_code": 17,
    "city": "羽咋市",
    "city_kana": "ハクイシ",
    "town": "本江町",
    "town_kana": "ホンゴウマチ",
    "street": null,
    "office_name": null,
    "office_name_kana": null
  },
  "0624": {
    "postcode": "9250624",
    "prefecture": "石川県",
    "prefecture_kana": "イシカワケン",
    "prefecture_code": 17,
    "city": "羽咋市",
    "city_kana": "ハクイシ",
    "town": "志々見町",
    "town_kana": "シジミマチ",
    "street": null,
    "office_name": null,
    "office_name_kana": null
  },
  "0625": {
    "postcode": "9250625",
    "prefecture": "石川県",
    "prefecture_kana": "イシカワケン",
    "prefecture_code": 17,
    "city": "羽咋市",
    "city_kana": "ハクイシ",
    "town": "尾長町",
    "town_kana": "オナガマチ",
    "street": null,
    "office_name": null,
    "office_name_kana": null
  },
  "0626": {
    "postcode": "9250626",
    "prefecture": "石川県",
    "prefecture_kana": "イシカワケン",
    "prefecture_code": 17,
    "city": "羽咋市",
    "city_kana": "ハクイシ",
    "town": "千田町",
    "town_kana": "センダマチ",
    "street": null,
    "office_name": null,
    "office_name_kana": null
  },
  "0697": {
    "postcode": "9250697",
    "prefecture": "石川県",
    "prefecture_kana": "イシカワケン",
    "prefecture_code": 17,
    "city": "羽咋市",
    "city_kana": "ハクイシ",
    "town": "千代町",
    "town_kana": "チヨマチ",
    "street": "い８０",
    "office_name": "平鍛造　株式会社",
    "office_name_kana": "タイラタンゾウ カブシキガイシヤ"
  },
  "8501": {
    "postcode": "9258501",
    "prefecture": "石川県",
    "prefecture_kana": "イシカワケン",
    "prefecture_code": 17,
    "city": "羽咋市",
    "city_kana": "ハクイシ",
    "town": "旭町",
    "town_kana": "アサヒマチ",
    "street": "ア２００",
    "office_name": "羽咋市役所",
    "office_name_kana": "ハクイシヤクシヨ"
  },
  "8502": {
    "postcode": "9258502",
    "prefecture": "石川県",
    "prefecture_kana": "イシカワケン",
    "prefecture_code": 17,
    "city": "羽咋市",
    "city_kana": "ハクイシ",
    "town": "的場町",
    "town_kana": "マトバマチ",
    "street": "松崎２４",
    "office_name": "公立羽咋病院",
    "office_name_kana": "コウリツハクイビヨウイン"
  },
  "8505": {
    "postcode": "9258505",
    "prefecture": "石川県",
    "prefecture_kana": "イシカワケン",
    "prefecture_code": 17,
    "city": "羽咋市",
    "city_kana": "ハクイシ",
    "town": "中央町",
    "town_kana": "チュウオウマチ",
    "street": "ア１８５番地",
    "office_name": "羽咋郡市広域圏事務組合",
    "office_name_kana": "ハクイグンシコウイキケンジムクミアイ"
  },
  "8506": {
    "postcode": "9258506",
    "prefecture": "石川県",
    "prefecture_kana": "イシカワケン",
    "prefecture_code": 17,
    "city": "羽咋市",
    "city_kana": "ハクイシ",
    "town": "鶴多町",
    "town_kana": "ツルタマチ",
    "street": "亀田１７",
    "office_name": "社会福祉法人　羽咋市社会福祉協議会",
    "office_name_kana": "シヤカイフクシホウジン ハクイシシヤカイフクシキヨウギカイ"
  },
  "8508": {
    "postcode": "9258508",
    "prefecture": "石川県",
    "prefecture_kana": "イシカワケン",
    "prefecture_code": 17,
    "city": "羽咋市",
    "city_kana": "ハクイシ",
    "town": "千里浜町",
    "town_kana": "チリハママチ",
    "street": "タ４−１",
    "office_name": "千里浜観光開発　株式会社　千里浜レストハウス",
    "office_name_kana": "チリハマカンコウカイハツ カブシキガイシヤ チリハマレストハウス"
  },
  "8511": {
    "postcode": "9258511",
    "prefecture": "石川県",
    "prefecture_kana": "イシカワケン",
    "prefecture_code": 17,
    "city": "羽咋市",
    "city_kana": "ハクイシ",
    "town": "中央町",
    "town_kana": "チュウオウマチ",
    "street": "ア１８５番地",
    "office_name": "羽咋郡市広域圏事務組合消防本部",
    "office_name_kana": "ハクイグンシコウイキケンジムクミアイシヨウボウホンブ"
  },
  "8521": {
    "postcode": "9258521",
    "prefecture": "石川県",
    "prefecture_kana": "イシカワケン",
    "prefecture_code": 17,
    "city": "羽咋市",
    "city_kana": "ハクイシ",
    "town": "西釜屋町",
    "town_kana": "ニシカマヤマチ",
    "street": "ク２１",
    "office_name": "石川県立　羽咋工業高等学校",
    "office_name_kana": "イシカワケンリツ ハクイコウギヨウコウトウガツコウ"
  },
  "8525": {
    "postcode": "9258525",
    "prefecture": "石川県",
    "prefecture_kana": "イシカワケン",
    "prefecture_code": 17,
    "city": "羽咋市",
    "city_kana": "ハクイシ",
    "town": "羽咋町",
    "town_kana": "ハクイマチ",
    "street": "オ７０",
    "office_name": "能登千里浜国民休暇村",
    "office_name_kana": "ノトチリハマコクミンキユウカムラ"
  },
  "8530": {
    "postcode": "9258530",
    "prefecture": "石川県",
    "prefecture_kana": "イシカワケン",
    "prefecture_code": 17,
    "city": "羽咋市",
    "city_kana": "ハクイシ",
    "town": "柴垣町",
    "town_kana": "シバガキマチ",
    "street": "１４字５番６",
    "office_name": "独立行政法人　国立青少年教育振興機構　国立能登青少年交流の家",
    "office_name_kana": "ドクリツギヨウセイホウジン コクリツセイシヨウネンキヨウイクシンコウキコウ コクリツノトセイシヨウネンコウリユウノイエ"
  },
  "8550": {
    "postcode": "9258550",
    "prefecture": "石川県",
    "prefecture_kana": "イシカワケン",
    "prefecture_code": 17,
    "city": "羽咋市",
    "city_kana": "ハクイシ",
    "town": "柳橋町",
    "town_kana": "ヤナギバシマチ",
    "street": "柳橋１",
    "office_name": "石川県立　羽咋高等学校",
    "office_name_kana": "イシカワケンリツ ハクイコウトウガツコウ"
  },
  "8555": {
    "postcode": "9258555",
    "prefecture": "石川県",
    "prefecture_kana": "イシカワケン",
    "prefecture_code": 17,
    "city": "羽咋市",
    "city_kana": "ハクイシ",
    "town": "柳橋町",
    "town_kana": "ヤナギバシマチ",
    "street": "柳橋５２番地",
    "office_name": "株式会社　ハクイ村田製作所",
    "office_name_kana": "カブシキガイシヤ ハクイムラタセイサクシヨ"
  },
  "8566": {
    "postcode": "9258566",
    "prefecture": "石川県",
    "prefecture_kana": "イシカワケン",
    "prefecture_code": 17,
    "city": "羽咋市",
    "city_kana": "ハクイシ",
    "town": "寺家町",
    "town_kana": "ジケマチ",
    "street": "レ３７−９",
    "office_name": "エイゾーナナオエムエス　株式会社",
    "office_name_kana": "エイゾ-ナナオエムエス カブシキガイシヤ"
  },
  "8567": {
    "postcode": "9258567",
    "prefecture": "石川県",
    "prefecture_kana": "イシカワケン",
    "prefecture_code": 17,
    "city": "羽咋市",
    "city_kana": "ハクイシ",
    "town": "旭町",
    "town_kana": "アサヒマチ",
    "street": "ユ２０",
    "office_name": "羽咋警察署",
    "office_name_kana": "ハクイケイサツシヨ"
  },
  "8585": {
    "postcode": "9258585",
    "prefecture": "石川県",
    "prefecture_kana": "イシカワケン",
    "prefecture_code": 17,
    "city": "羽咋市",
    "city_kana": "ハクイシ",
    "town": "旭町",
    "town_kana": "アサヒマチ",
    "street": "ア１３９",
    "office_name": "羽咋市商工会",
    "office_name_kana": "ハクイシシヨウコウカイ"
  },
  "8609": {
    "postcode": "9258609",
    "prefecture": "石川県",
    "prefecture_kana": "イシカワケン",
    "prefecture_code": 17,
    "city": "羽咋市",
    "city_kana": "ハクイシ",
    "town": "南中央町",
    "town_kana": "ミナミチュウオウマチ",
    "street": "キ１０５−６",
    "office_name": "羽咋公共職業安定所（ハローワーク羽咋）",
    "office_name_kana": "ハクイコウキヨウシヨクギヨウアンテイシヨ(ハロ-ワ-クハクイ)"
  },
  "8610": {
    "postcode": "9258610",
    "prefecture": "石川県",
    "prefecture_kana": "イシカワケン",
    "prefecture_code": 17,
    "city": "羽咋市",
    "city_kana": "ハクイシ",
    "town": "中央町",
    "town_kana": "チュウオウマチ",
    "street": "ア２１−２",
    "office_name": "株式会社　北陸銀行　羽咋支店",
    "office_name_kana": "カブシキガイシヤ ホクリクギンコウ ハクイシテン"
  },
  "8620": {
    "postcode": "9258620",
    "prefecture": "石川県",
    "prefecture_kana": "イシカワケン",
    "prefecture_code": 17,
    "city": "羽咋市",
    "city_kana": "ハクイシ",
    "town": "川原町",
    "town_kana": "カワラマチ",
    "street": "テ１（羽咋郵便局私書箱第２０号）",
    "office_name": "株式会社　北國銀行　羽咋支店",
    "office_name_kana": "カブシキガイシヤ ホツコクギンコウ ハクイシテン"
  },
  "8688": {
    "postcode": "9258688",
    "prefecture": "石川県",
    "prefecture_kana": "イシカワケン",
    "prefecture_code": 17,
    "city": "羽咋市",
    "city_kana": "ハクイシ",
    "town": "柳田町",
    "town_kana": "ヤナイダマチ",
    "street": "８−８（羽咋郵便局私書箱第１０号）",
    "office_name": "株式会社　朱鷺の台カントリー",
    "office_name_kana": "カブシキガイシヤ トキノダイカントリ-"
  }
}