{
  "0000": {
    "postcode": "9270000",
    "prefecture": "石川県",
    "prefecture_kana": "イシカワケン",
    "prefecture_code": 17,
    "city": "鳳珠郡穴水町",
    "city_kana": "ホウスグンアナミズマチ",
    "town": "",
    "town_kana": "",
    "street": null,
    "office_name": null,
    "office_name_kana": null
  },
  "0001": {
    "postcode": "9270001",
    "prefecture": "石川県",
    "prefecture_kana": "イシカワケン",
    "prefecture_code": 17,
    "city": "鳳珠郡穴水町",
    "city_kana": "ホウスグンアナミズマチ",
    "town": "樟谷",
    "town_kana": "クノギタニ",
    "street": null,
    "office_name": null,
    "office_name_kana": null
  },
  "0002": {
    "postcode": "9270002",
    "prefecture": "石川県",
    "prefecture_kana": "イシカワケン",
    "prefecture_code": 17,
    "city": "鳳珠郡穴水町",
    "city_kana": "ホウスグンアナミズマチ",
    "town": "菅谷",
    "town_kana": "スゲンタニ",
    "street": null,
    "office_name": null,
    "office_name_kana": null
  },
  "0003": {
    "postcode": "9270003",
    "prefecture": "石川県",
    "prefecture_kana": "イシカワケン",
    "prefecture_code": 17,
    "city": "鳳珠郡穴水町",
    "city_kana": "ホウスグンアナミズマチ",
    "town": "伊久留",
    "town_kana": "イクロ",
    "street": null,
    "office_name": null,
    "office_name_kana": null
  },
  "0004": {
    "postcode": "9270004",
    "prefecture": "石川県",
    "prefecture_kana": "イシカワケン",
    "prefecture_code": 17,
    "city": "鳳珠郡穴水町",
    "city_kana": "ホウスグンアナミズマチ",
    "town": "曽山",
    "town_kana": "ソヤマ",
    "street": null,
    "office_name": null,
    "office_name_kana": null
  },
  "0005": {
    "postcode": "9270005",
    "prefecture": "石川県",
    "prefecture_kana": "イシカワケン",
    "prefecture_code": 17,
    "city": "鳳珠郡穴水町",
    "city_kana": "ホウスグンアナミズマチ",
    "town": "東中谷",
    "town_kana": "ヒガシナカンタニ",
    "street": null,
    "office_name": null,
    "office_name_kana": null
  },
  "0006": {
    "postcode": "9270006",
    "prefecture": "石川県",
    "prefecture_kana": "イシカワケン",
    "prefecture_code": 17,
    "city": "鳳珠郡穴水町",
    "city_kana": "ホウスグンアナミズマチ",
    "town": "旭ケ丘",
    "town_kana": "アサヒガオカ",
    "street": null,
    "office_name": null,
    "office_name_kana": null
  },
  "0007": {
    "postcode": "9270007",
    "prefecture": "石川県",
    "prefecture_kana": "イシカワケン",
    "prefecture_code": 17,
    "city": "鳳珠郡穴水町",
    "city_kana": "ホウスグンアナミズマチ",
    "town": "岩車",
    "town_kana": "イワグルマ",
    "street": null,
    "office_name": null,
    "office_name_kana": null
  },
  "0008": {
    "postcode": "9270008",
    "prefecture": "石川県",
    "prefecture_kana": "イシカワケン",
    "prefecture_code": 17,
    "city": "鳳珠郡穴水町",
    "city_kana": "ホウスグンアナミズマチ",
    "town": "川尻",
    "town_kana": "カワシリ",
    "street": null,
    "office_name": null,
    "office_name_kana": null
  },
  "0009": {
    "postcode": "9270009",
    "prefecture": "石川県",
    "prefecture_kana": "イシカワケン",
    "prefecture_code": 17,
    "city": "鳳珠郡穴水町",
    "city_kana": "ホウスグンアナミズマチ",
    "town": "比良",
    "town_kana": "ビラ",
    "street": null,
    "office_name": null,
    "office_name_kana": null
  },
  "0011": {
    "postcode": "9270011",
    "prefecture": "石川県",
    "prefecture_kana": "イシカワケン",
    "prefecture_code": 17,
    "city": "鳳珠郡穴水町",
    "city_kana": "ホウスグンアナミズマチ",
    "town": "木原",
    "town_kana": "キハラ",
    "street": null,
    "office_name": null,
    "office_name_kana": null
  },
  "0012": {
    "postcode": "9270012",
    "prefecture": "石川県",
    "prefecture_kana": "イシカワケン",
    "prefecture_code": 17,
    "city": "鳳珠郡穴水町",
    "city_kana": "ホウスグンアナミズマチ",
    "town": "藤巻",
    "town_kana": "フジマキ",
    "street": null,
    "office_name": null,
    "office_name_kana": null
  },
  "0013": {
    "postcode": "9270013",
    "prefecture": "石川県",
    "prefecture_kana": "イシカワケン",
    "prefecture_code": 17,
    "city": "鳳珠郡穴水町",
    "city_kana": "ホウスグンアナミズマチ",
    "town": "瑞鳳",
    "town_kana": "ズイホウ",
    "street": null,
    "office_name": null,
    "office_name_kana": null
  },
  "0014": {
    "postcode": "9270014",
    "prefecture": "石川県",
    "prefecture_kana": "イシカワケン",
    "prefecture_code": 17,
    "city": "鳳珠郡穴水町",
    "city_kana": "ホウスグンアナミズマチ",
    "town": "梶",
    "town_kana": "カジ",
    "street": null,
    "office_name": null,
    "office_name_kana": null
  },
  "0015": {
    "postcode": "9270015",
    "prefecture": "石川県",
    "prefecture_kana": "イシカワケン",
    "prefecture_code": 17,
    "city": "鳳珠郡穴水町",
    "city_kana": "ホウスグンアナミズマチ",
    "town": "中居",
    "town_kana": "ナカイ",
    "street": null,
    "office_name": null,
    "office_name_kana": null
  },
  "0016": {
    "postcode": "9270016",
    "prefecture": "石川県",
    "prefecture_kana": "イシカワケン",
    "prefecture_code": 17,
    "city": "鳳珠郡穴水町",
    "city_kana": "ホウスグンアナミズマチ",
    "town": "中居南",
    "town_kana": "ナカイミナミ",
    "street": null,
    "office_name": null,
    "office_name_kana": null
  },
  "0017": {
    "postcode": "9270017",
    "prefecture": "石川県",
    "prefecture_kana": "イシカワケン",
    "prefecture_code": 17,
    "city": "鳳珠郡穴水町",
    "city_kana": "ホウスグンアナミズマチ",
    "town": "波志借",
    "town_kana": "ハジカシ",
    "street": null,
    "office_name": null,
    "office_name_kana": null
  },
  "0021": {
    "postcode": "9270021",
    "prefecture": "石川県",
    "prefecture_kana": "イシカワケン",
    "prefecture_code": 17,
    "city": "鳳珠郡穴水町",
    "city_kana": "ホウスグンアナミズマチ",
    "town": "七海",
    "town_kana": "シツミ",
    "street": null,
    "office_name": null,
    "office_name_kana": null
  },
  "0022": {
    "postcode": "9270022",
    "prefecture": "石川県",
    "prefecture_kana": "イシカワケン",
    "prefecture_code": 17,
    "city": "鳳珠郡穴水町",
    "city_kana": "ホウスグンアナミズマチ",
    "town": "北七海",
    "town_kana": "キタシツミ",
    "street": null,
    "office_name": null,
    "office_name_kana": null
  },
  "0023": {
    "postcode": "9270023",
    "prefecture": "石川県",
    "prefecture_kana": "イシカワケン",
    "prefecture_code": 17,
    "city": "鳳珠郡穴水町",
    "city_kana": "ホウスグンアナミズマチ",
    "town": "麦ケ浦",
    "town_kana": "ムキガウラ",
    "street": null,
    "office_name": null,
    "office_name_kana": null
  },
  "0024": {
    "postcode": "9270024",
    "prefecture": "石川県",
    "prefecture_kana": "イシカワケン",
    "prefecture_code": 17,
    "city": "鳳珠郡穴水町",
    "city_kana": "ホウスグンアナミズマチ",
    "town": "由比ケ丘",
    "town_kana": "ユイガオカ",
    "street": null,
    "office_name": null,
    "office_name_kana": null
  },
  "0025": {
    "postcode": "9270025",
    "prefecture": "石川県",
    "prefecture_kana": "イシカワケン",
    "prefecture_code": 17,
    "city": "鳳珠郡穴水町",
    "city_kana": "ホウスグンアナミズマチ",
    "town": "内浦",
    "town_kana": "ウチウラ",
    "street": null,
    "office_name": null,
    "office_name_kana": null
  },
  "0026": {
    "postcode": "9270026",
    "prefecture": "石川県",
    "prefecture_kana": "イシカワケン",
    "prefecture_code": 17,
    "city": "鳳珠郡穴水町",
    "city_kana": "ホウスグンアナミズマチ",
    "town": "大町",
    "town_kana": "オオマチ",
    "street": null,
    "office_name": null,
    "office_name_kana": null
  },
  "0027": {
    "postcode": "9270027",
    "prefecture": "石川県",
    "prefecture_kana": "イシカワケン",
    "prefecture_code": 17,
    "city": "鳳珠郡穴水町",
    "city_kana": "ホウスグンアナミズマチ",
    "town": "川島",
    "town_kana": "カワジマ",
    "street": null,
    "office_name": null,
    "office_name_kana": null
  },
  "0031": {
    "postcode": "9270031",
    "prefecture": "石川県",
    "prefecture_kana": "イシカワケン",
    "prefecture_code": 17,
    "city": "鳳珠郡穴水町",
    "city_kana": "ホウスグンアナミズマチ",
    "town": "鵜島",
    "town_kana": "ウジマ",
    "street": null,
    "office_name": null,
    "office_name_kana": null
  },
  "0032": {
    "postcode": "9270032",
    "prefecture": "石川県",
    "prefecture_kana": "イシカワケン",
    "prefecture_code": 17,
    "city": "鳳珠郡穴水町",
    "city_kana": "ホウスグンアナミズマチ",
    "town": "乙ケ崎",
    "town_kana": "オトガサキ",
    "street": null,
    "office_name": null,
    "office_name_kana": null
  },
  "0033": {
    "postcode": "9270033",
    "prefecture": "石川県",
    "prefecture_kana": "イシカワケン",
    "prefecture_code": 17,
    "city": "鳳珠郡穴水町",
    "city_kana": "ホウスグンアナミズマチ",
    "town": "緑ケ丘",
    "town_kana": "ミドリガオカ",
    "street": null,
    "office_name": null,
    "office_name_kana": null
  },
  "0034": {
    "postcode": "9270034",
    "prefecture": "石川県",
    "prefecture_kana": "イシカワケン",
    "prefecture_code": 17,
    "city": "鳳珠郡穴水町",
    "city_kana": "ホウスグンアナミズマチ",
    "town": "新崎",
    "town_kana": "ニンザキ",
    "street": null,
    "office_name": null,
    "office_name_kana": null
  },
  "0035": {
    "postcode": "9270035",
    "prefecture": "石川県",
    "prefecture_kana": "イシカワケン",
    "prefecture_code": 17,
    "city": "鳳珠郡穴水町",
    "city_kana": "ホウスグンアナミズマチ",
    "town": "志ケ浦",
    "town_kana": "シガウラ",
    "street": null,
    "office_name": null,
    "office_name_kana": null
  },
  "0036": {
    "postcode": "9270036",
    "prefecture": "石川県",
    "prefecture_kana": "イシカワケン",
    "prefecture_code": 17,
    "city": "鳳珠郡穴水町",
    "city_kana": "ホウスグンアナミズマチ",
    "town": "望洋台",
    "town_kana": "ボウヨウダイ",
    "street": null,
    "office_name": null,
    "office_name_kana": null
  },
  "0037": {
    "postcode": "9270037",
    "prefecture": "石川県",
    "prefecture_kana": "イシカワケン",
    "prefecture_code": 17,
    "city": "鳳珠郡穴水町",
    "city_kana": "ホウスグンアナミズマチ",
    "town": "根木",
    "town_kana": "ネキ",
    "street": null,
    "office_name": null,
    "office_name_kana": null
  },
  "0038": {
    "postcode": "9270038",
    "prefecture": "石川県",
    "prefecture_kana": "イシカワケン",
    "prefecture_code": 17,
    "city": "鳳珠郡穴水町",
    "city_kana": "ホウスグンアナミズマチ",
    "town": "鹿島",
    "town_kana": "カシマ",
    "street": null,
    "office_name": null,
    "office_name_kana": null
  },
  "0039": {
    "postcode": "9270039",
    "prefecture": "石川県",
    "prefecture_kana": "イシカワケン",
    "prefecture_code": 17,
    "city": "鳳珠郡穴水町",
    "city_kana": "ホウスグンアナミズマチ",
    "town": "曽福",
    "town_kana": "ソブク",
    "street": null,
    "office_name": null,
    "office_name_kana": null
  },
  "0041": {
    "postcode": "9270041",
    "prefecture": "石川県",
    "prefecture_kana": "イシカワケン",
    "prefecture_code": 17,
    "city": "鳳珠郡穴水町",
    "city_kana": "ホウスグンアナミズマチ",
    "town": "天神谷",
    "town_kana": "テンジンダニ",
    "street": null,
    "office_name": null,
    "office_name_kana": null
  },
  "0042": {
    "postcode": "9270042",
    "prefecture": "石川県",
    "prefecture_kana": "イシカワケン",
    "prefecture_code": 17,
    "city": "鳳珠郡穴水町",
    "city_kana": "ホウスグンアナミズマチ",
    "town": "宇留地",
    "town_kana": "ウルチ",
    "street": null,
    "office_name": null,
    "office_name_kana": null
  },
  "0043": {
    "postcode": "9270043",
    "prefecture": "石川県",
    "prefecture_kana": "イシカワケン",
    "prefecture_code": 17,
    "city": "鳳珠郡穴水町",
    "city_kana": "ホウスグンアナミズマチ",
    "town": "越の原",
    "town_kana": "コシノハラ",
    "street": null,
    "office_name": null,
    "office_name_kana": null
  },
  "0044": {
    "postcode": "9270044",
    "prefecture": "石川県",
    "prefecture_kana": "イシカワケン",
    "prefecture_code": 17,
    "city": "鳳珠郡穴水町",
    "city_kana": "ホウスグンアナミズマチ",
    "town": "鹿路",
    "town_kana": "ロクロ",
    "street": null,
    "office_name": null,
    "office_name_kana": null
  },
  "0045": {
    "postcode": "9270045",
    "prefecture": "石川県",
    "prefecture_kana": "イシカワケン",
    "prefecture_code": 17,
    "city": "鳳珠郡穴水町",
    "city_kana": "ホウスグンアナミズマチ",
    "town": "河内",
    "town_kana": "カワチ",
    "street": null,
    "office_name": null,
    "office_name_kana": null
  },
  "0046": [
    {
      "postcode": "9270046",
      "prefecture": "石川県",
      "prefecture_kana": "イシカワケン",
      "prefecture_code": 17,
      "city": "鳳珠郡穴水町",
      "city_kana": "ホウスグンアナミズマチ",
      "town": "越渡",
      "town_kana": "コエト",
      "street": null,
      "office_name": null,
      "office_name_kana": null
    },
    {
      "postcode": "9270046",
      "prefecture": "石川県",
      "prefecture_kana": "イシカワケン",
      "prefecture_code": 17,
      "city": "鳳珠郡穴水町",
      "city_kana": "ホウスグンアナミズマチ",
      "town": "汁谷",
      "town_kana": "シルタニ",
      "street": null,
      "office_name": null,
      "office_name_kana": null
    }
  ],
  "0047": {
    "postcode": "9270047",
    "prefecture": "石川県",
    "prefecture_kana": "イシカワケン",
    "prefecture_code": 17,
    "city": "鳳珠郡穴水町",
    "city_kana": "ホウスグンアナミズマチ",
    "town": "上中",
    "town_kana": "カミナカ",
    "street": null,
    "office_name": null,
    "office_name_kana": null
  },
  "0048": {
    "postcode": "9270048",
    "prefecture": "石川県",
    "prefecture_kana": "イシカワケン",
    "prefecture_code": 17,
    "city": "鳳珠郡穴水町",
    "city_kana": "ホウスグンアナミズマチ",
    "town": "大角間",
    "town_kana": "オオカクマ",
    "street": null,
    "office_name": null,
    "office_name_kana": null
  },
  "0049": {
    "postcode": "9270049",
    "prefecture": "石川県",
    "prefecture_kana": "イシカワケン",
    "prefecture_code": 17,
    "city": "鳳珠郡穴水町",
    "city_kana": "ホウスグンアナミズマチ",
    "town": "桂谷",
    "town_kana": "カツラダニ",
    "street": null,
    "office_name": null,
    "office_name_kana": null
  },
  "0051": {
    "postcode": "9270051",
    "prefecture": "石川県",
    "prefecture_kana": "イシカワケン",
    "prefecture_code": 17,
    "city": "鳳珠郡穴水町",
    "city_kana": "ホウスグンアナミズマチ",
    "town": "小又",
    "town_kana": "オマタ",
    "street": null,
    "office_name": null,
    "office_name_kana": null
  },
  "0052": {
    "postcode": "9270052",
    "prefecture": "石川県",
    "prefecture_kana": "イシカワケン",
    "prefecture_code": 17,
    "city": "鳳珠郡穴水町",
    "city_kana": "ホウスグンアナミズマチ",
    "town": "平野",
    "town_kana": "ヒラノ",
    "street": null,
    "office_name": null,
    "office_name_kana": null
  },
  "0053": {
    "postcode": "9270053",
    "prefecture": "石川県",
    "prefecture_kana": "イシカワケン",
    "prefecture_code": 17,
    "city": "鳳珠郡穴水町",
    "city_kana": "ホウスグンアナミズマチ",
    "town": "此木",
    "town_kana": "クノギ",
    "street": null,
    "office_name": null,
    "office_name_kana": null
  },
  "0054": {
    "postcode": "9270054",
    "prefecture": "石川県",
    "prefecture_kana": "イシカワケン",
    "prefecture_code": 17,
    "city": "鳳珠郡穴水町",
    "city_kana": "ホウスグンアナミズマチ",
    "town": "上野",
    "town_kana": "ウワノ",
    "street": null,
    "office_name": null,
    "office_name_kana": null
  },
  "0055": {
    "postcode": "9270055",
    "prefecture": "石川県",
    "prefecture_kana": "イシカワケン",
    "prefecture_code": 17,
    "city": "鳳珠郡穴水町",
    "city_kana": "ホウスグンアナミズマチ",
    "town": "地蔵坊",
    "town_kana": "ジゾウボウ",
    "street": null,
    "office_name": null,
    "office_name_kana": null
  },
  "0056": {
    "postcode": "9270056",
    "prefecture": "石川県",
    "prefecture_kana": "イシカワケン",
    "prefecture_code": 17,
    "city": "鳳珠郡穴水町",
    "city_kana": "ホウスグンアナミズマチ",
    "town": "上唐川",
    "town_kana": "カミカラカワ",
    "street": null,
    "office_name": null,
    "office_name_kana": null
  },
  "0057": {
    "postcode": "9270057",
    "prefecture": "石川県",
    "prefecture_kana": "イシカワケン",
    "prefecture_code": 17,
    "city": "鳳珠郡穴水町",
    "city_kana": "ホウスグンアナミズマチ",
    "town": "下唐川",
    "town_kana": "シモカラカワ",
    "street": null,
    "office_name": null,
    "office_name_kana": null
  },
  "0058": {
    "postcode": "9270058",
    "prefecture": "石川県",
    "prefecture_kana": "イシカワケン",
    "prefecture_code": 17,
    "city": "鳳珠郡穴水町",
    "city_kana": "ホウスグンアナミズマチ",
    "town": "挾石",
    "town_kana": "ハサミシ",
    "street": null,
    "office_name": null,
    "office_name_kana": null
  },
  "0201": {
    "postcode": "9270201",
    "prefecture": "石川県",
    "prefecture_kana": "イシカワケン",
    "prefecture_code": 17,
    "city": "鳳珠郡穴水町",
    "city_kana": "ホウスグンアナミズマチ",
    "town": "竹太",
    "town_kana": "タケダ",
    "street": null,
    "office_name": null,
    "office_name_kana": null
  },
  "0202": {
    "postcode": "9270202",
    "prefecture": "石川県",
    "prefecture_kana": "イシカワケン",
    "prefecture_code": 17,
    "city": "鳳珠郡穴水町",
    "city_kana": "ホウスグンアナミズマチ",
    "town": "古君",
    "town_kana": "フルキミ",
    "street": null,
    "office_name": null,
    "office_name_kana": null
  },
  "0203": {
    "postcode": "9270203",
    "prefecture": "石川県",
    "prefecture_kana": "イシカワケン",
    "prefecture_code": 17,
    "city": "鳳珠郡穴水町",
    "city_kana": "ホウスグンアナミズマチ",
    "town": "花園",
    "town_kana": "ハナゾノ",
    "street": null,
    "office_name": null,
    "office_name_kana": null
  },
  "0204": {
    "postcode": "9270204",
    "prefecture": "石川県",
    "prefecture_kana": "イシカワケン",
    "prefecture_code": 17,
    "city": "鳳珠郡穴水町",
    "city_kana": "ホウスグンアナミズマチ",
    "town": "明千寺",
    "town_kana": "ミョウセンジ",
    "street": null,
    "office_name": null,
    "office_name_kana": null
  },
  "0205": {
    "postcode": "9270205",
    "prefecture": "石川県",
    "prefecture_kana": "イシカワケン",
    "prefecture_code": 17,
    "city": "鳳珠郡穴水町",
    "city_kana": "ホウスグンアナミズマチ",
    "town": "宇加川",
    "town_kana": "ウカガワ",
    "street": null,
    "office_name": null,
    "office_name_kana": null
  },
  "0206": {
    "postcode": "9270206",
    "prefecture": "石川県",
    "prefecture_kana": "イシカワケン",
    "prefecture_code": 17,
    "city": "鳳珠郡穴水町",
    "city_kana": "ホウスグンアナミズマチ",
    "town": "前波",
    "town_kana": "マエナミ",
    "street": null,
    "office_name": null,
    "office_name_kana": null
  },
  "0207": {
    "postcode": "9270207",
    "prefecture": "石川県",
    "prefecture_kana": "イシカワケン",
    "prefecture_code": 17,
    "city": "鳳珠郡穴水町",
    "city_kana": "ホウスグンアナミズマチ",
    "town": "沖波",
    "town_kana": "オキナミ",
    "street": null,
    "office_name": null,
    "office_name_kana": null
  },
  "0211": {
    "postcode": "9270211",
    "prefecture": "石川県",
    "prefecture_kana": "イシカワケン",
    "prefecture_code": 17,
    "city": "鳳珠郡穴水町",
    "city_kana": "ホウスグンアナミズマチ",
    "town": "甲",
    "town_kana": "カブト",
    "street": null,
    "office_name": null,
    "office_name_kana": null
  },
  "0212": {
    "postcode": "9270212",
    "prefecture": "石川県",
    "prefecture_kana": "イシカワケン",
    "prefecture_code": 17,
    "city": "鳳珠郡穴水町",
    "city_kana": "ホウスグンアナミズマチ",
    "town": "黒崎",
    "town_kana": "クロサキ",
    "street": null,
    "office_name": null,
    "office_name_kana": null
  },
  "0213": {
    "postcode": "9270213",
    "prefecture": "石川県",
    "prefecture_kana": "イシカワケン",
    "prefecture_code": 17,
    "city": "鳳珠郡穴水町",
    "city_kana": "ホウスグンアナミズマチ",
    "town": "至誠",
    "town_kana": "シセイ",
    "street": null,
    "office_name": null,
    "office_name_kana": null
  },
  "0214": {
    "postcode": "9270214",
    "prefecture": "石川県",
    "prefecture_kana": "イシカワケン",
    "prefecture_code": 17,
    "city": "鳳珠郡穴水町",
    "city_kana": "ホウスグンアナミズマチ",
    "town": "小甲",
    "town_kana": "コカブト",
    "street": null,
    "office_name": null,
    "office_name_kana": null
  },
  "0215": {
    "postcode": "9270215",
    "prefecture": "石川県",
    "prefecture_kana": "イシカワケン",
    "prefecture_code": 17,
    "city": "鳳珠郡穴水町",
    "city_kana": "ホウスグンアナミズマチ",
    "town": "大甲",
    "town_kana": "オオカブト",
    "street": null,
    "office_name": null,
    "office_name_kana": null
  },
  "0221": {
    "postcode": "9270221",
    "prefecture": "石川県",
    "prefecture_kana": "イシカワケン",
    "prefecture_code": 17,
    "city": "鳳珠郡穴水町",
    "city_kana": "ホウスグンアナミズマチ",
    "town": "曽良",
    "town_kana": "ソラ",
    "street": null,
    "office_name": null,
    "office_name_kana": null
  },
  "0222": {
    "postcode": "9270222",
    "prefecture": "石川県",
    "prefecture_kana": "イシカワケン",
    "prefecture_code": 17,
    "city": "鳳珠郡穴水町",
    "city_kana": "ホウスグンアナミズマチ",
    "town": "大郷",
    "town_kana": "ダイゴウ",
    "street": null,
    "office_name": null,
    "office_name_kana": null
  },
  "0223": {
    "postcode": "9270223",
    "prefecture": "石川県",
    "prefecture_kana": "イシカワケン",
    "prefecture_code": 17,
    "city": "鳳珠郡穴水町",
    "city_kana": "ホウスグンアナミズマチ",
    "town": "鹿波",
    "town_kana": "カナミ",
    "street": null,
    "office_name": null,
    "office_name_kana": null
  },
  "0224": {
    "postcode": "9270224",
    "prefecture": "石川県",
    "prefecture_kana": "イシカワケン",
    "prefecture_code": 17,
    "city": "鳳珠郡穴水町",
    "city_kana": "ホウスグンアナミズマチ",
    "town": "鹿上",
    "town_kana": "シカガミ",
    "street": null,
    "office_name": null,
    "office_name_kana": null
  },
  "0225": {
    "postcode": "9270225",
    "prefecture": "石川県",
    "prefecture_kana": "イシカワケン",
    "prefecture_code": 17,
    "city": "鳳珠郡穴水町",
    "city_kana": "ホウスグンアナミズマチ",
    "town": "野並",
    "town_kana": "ノナミ",
    "street": null,
    "office_name": null,
    "office_name_kana": null
  },
  "0231": {
    "postcode": "9270231",
    "prefecture": "石川県",
    "prefecture_kana": "イシカワケン",
    "prefecture_code": 17,
    "city": "鳳珠郡穴水町",
    "city_kana": "ホウスグンアナミズマチ",
    "town": "山中",
    "town_kana": "ヤマナカ",
    "street": null,
    "office_name": null,
    "office_name_kana": null
  },
  "0232": {
    "postcode": "9270232",
    "prefecture": "石川県",
    "prefecture_kana": "イシカワケン",
    "prefecture_code": 17,
    "city": "鳳珠郡穴水町",
    "city_kana": "ホウスグンアナミズマチ",
    "town": "東山",
    "town_kana": "ヒガシヤマ",
    "street": null,
    "office_name": null,
    "office_name_kana": null
  },
  "0233": {
    "postcode": "9270233",
    "prefecture": "石川県",
    "prefecture_kana": "イシカワケン",
    "prefecture_code": 17,
    "city": "鳳珠郡穴水町",
    "city_kana": "ホウスグンアナミズマチ",
    "town": "女良川",
    "town_kana": "メラガワ",
    "street": null,
    "office_name": null,
    "office_name_kana": null
  },
  "0234": [
    {
      "postcode": "9270234",
      "prefecture": "石川県",
      "prefecture_kana": "イシカワケン",
      "prefecture_code": 17,
      "city": "鳳珠郡穴水町",
      "city_kana": "ホウスグンアナミズマチ",
      "town": "小又",
      "town_kana": "コマタ",
      "street": null,
      "office_name": null,
      "office_name_kana": null
    },
    {
      "postcode": "9270234",
      "prefecture": "石川県",
      "prefecture_kana": "イシカワケン",
      "prefecture_code": 17,
      "city": "鳳珠郡穴水町",
      "city_kana": "ホウスグンアナミズマチ",
      "town": "小又山中",
      "town_kana": "コマタヤマナカ",
      "street": null,
      "office_name": null,
      "office_name_kana": null
    }
  ],
  "0235": {
    "postcode": "9270235",
    "prefecture": "石川県",
    "prefecture_kana": "イシカワケン",
    "prefecture_code": 17,
    "city": "鳳珠郡穴水町",
    "city_kana": "ホウスグンアナミズマチ",
    "town": "市ノ坂",
    "town_kana": "イチノサカ",
    "street": null,
    "office_name": null,
    "office_name_kana": null
  },
  "0292": {
    "postcode": "9270292",
    "prefecture": "石川県",
    "prefecture_kana": "イシカワケン",
    "prefecture_code": 17,
    "city": "鳳珠郡穴水町",
    "city_kana": "ホウスグンアナミズマチ",
    "town": "字鹿波",
    "town_kana": null,
    "street": "５４字３１−７",
    "office_name": "蔵谷工務店　株式会社",
    "office_name_kana": "クラヤコウムテン カブシキガイシヤ"
  },
  "0293": {
    "postcode": "9270293",
    "prefecture": "石川県",
    "prefecture_kana": "イシカワケン",
    "prefecture_code": 17,
    "city": "鳳珠郡穴水町",
    "city_kana": "ホウスグンアナミズマチ",
    "town": "字甲",
    "town_kana": null,
    "street": "レ２５６−１",
    "office_name": "坂上電機製作所",
    "office_name_kana": "サカガミデンキセイサクシヨ"
  },
  "0301": {
    "postcode": "9270301",
    "prefecture": "石川県",
    "prefecture_kana": "イシカワケン",
    "prefecture_code": 17,
    "city": "鳳珠郡能登町",
    "city_kana": "ホウスグンノトチョウ",
    "town": "七見",
    "town_kana": "シチミ",
    "street": null,
    "office_name": null,
    "office_name_kana": null
  },
  "0302": {
    "postcode": "9270302",
    "prefecture": "石川県",
    "prefecture_kana": "イシカワケン",
    "prefecture_code": 17,
    "city": "鳳珠郡能登町",
    "city_kana": "ホウスグンノトチョウ",
    "town": "鵜川",
    "town_kana": "ウカワ",
    "street": null,
    "office_name": null,
    "office_name_kana": null
  },
  "0303": {
    "postcode": "9270303",
    "prefecture": "石川県",
    "prefecture_kana": "イシカワケン",
    "prefecture_code": 17,
    "city": "鳳珠郡能登町",
    "city_kana": "ホウスグンノトチョウ",
    "town": "小垣",
    "town_kana": "オガキ",
    "street": null,
    "office_name": null,
    "office_name_kana": null
  },
  "0304": {
    "postcode": "9270304",
    "prefecture": "石川県",
    "prefecture_kana": "イシカワケン",
    "prefecture_code": 17,
    "city": "鳳珠郡能登町",
    "city_kana": "ホウスグンノトチョウ",
    "town": "柿生",
    "town_kana": "カキオ",
    "street": null,
    "office_name": null,
    "office_name_kana": null
  },
  "0305": {
    "postcode": "9270305",
    "prefecture": "石川県",
    "prefecture_kana": "イシカワケン",
    "prefecture_code": 17,
    "city": "鳳珠郡能登町",
    "city_kana": "ホウスグンノトチョウ",
    "town": "武連",
    "town_kana": "ムレ",
    "street": null,
    "office_name": null,
    "office_name_kana": null
  },
  "0311": {
    "postcode": "9270311",
    "prefecture": "石川県",
    "prefecture_kana": "イシカワケン",
    "prefecture_code": 17,
    "city": "鳳珠郡能登町",
    "city_kana": "ホウスグンノトチョウ",
    "town": "瑞穂",
    "town_kana": "ミズホ",
    "street": null,
    "office_name": null,
    "office_name_kana": null
  },
  "0312": {
    "postcode": "9270312",
    "prefecture": "石川県",
    "prefecture_kana": "イシカワケン",
    "prefecture_code": 17,
    "city": "鳳珠郡能登町",
    "city_kana": "ホウスグンノトチョウ",
    "town": "本木",
    "town_kana": "ホンキ",
    "street": null,
    "office_name": null,
    "office_name_kana": null
  },
  "0313": {
    "postcode": "9270313",
    "prefecture": "石川県",
    "prefecture_kana": "イシカワケン",
    "prefecture_code": 17,
    "city": "鳳珠郡能登町",
    "city_kana": "ホウスグンノトチョウ",
    "town": "木住",
    "town_kana": "キズミ",
    "street": null,
    "office_name": null,
    "office_name_kana": null
  },
  "0314": {
    "postcode": "9270314",
    "prefecture": "石川県",
    "prefecture_kana": "イシカワケン",
    "prefecture_code": 17,
    "city": "鳳珠郡能登町",
    "city_kana": "ホウスグンノトチョウ",
    "town": "山田",
    "town_kana": "ヤマダ",
    "street": null,
    "office_name": null,
    "office_name_kana": null
  },
  "0315": {
    "postcode": "9270315",
    "prefecture": "石川県",
    "prefecture_kana": "イシカワケン",
    "prefecture_code": 17,
    "city": "鳳珠郡能登町",
    "city_kana": "ホウスグンノトチョウ",
    "town": "豊ケ丘",
    "town_kana": "トヨガオカ",
    "street": null,
    "office_name": null,
    "office_name_kana": null
  },
  "0321": {
    "postcode": "9270321",
    "prefecture": "石川県",
    "prefecture_kana": "イシカワケン",
    "prefecture_code": 17,
    "city": "鳳珠郡能登町",
    "city_kana": "ホウスグンノトチョウ",
    "town": "爼倉",
    "town_kana": "マナイタグラ",
    "street": null,
    "office_name": null,
    "office_name_kana": null
  },
  "0322": {
    "postcode": "9270322",
    "prefecture": "石川県",
    "prefecture_kana": "イシカワケン",
    "prefecture_code": 17,
    "city": "鳳珠郡能登町",
    "city_kana": "ホウスグンノトチョウ",
    "town": "宮地",
    "town_kana": "ミヤチ",
    "street": null,
    "office_name": null,
    "office_name_kana": null
  },
  "0323": {
    "postcode": "9270323",
    "prefecture": "石川県",
    "prefecture_kana": "イシカワケン",
    "prefecture_code": 17,
    "city": "鳳珠郡能登町",
    "city_kana": "ホウスグンノトチョウ",
    "town": "鮭尾",
    "town_kana": "サケオ",
    "street": null,
    "office_name": null,
    "office_name_kana": null
  },
  "0324": {
    "postcode": "9270324",
    "prefecture": "石川県",
    "prefecture_kana": "イシカワケン",
    "prefecture_code": 17,
    "city": "鳳珠郡能登町",
    "city_kana": "ホウスグンノトチョウ",
    "town": "柏木",
    "town_kana": "カシワギ",
    "street": null,
    "office_name": null,
    "office_name_kana": null
  },
  "0325": {
    "postcode": "9270325",
    "prefecture": "石川県",
    "prefecture_kana": "イシカワケン",
    "prefecture_code": 17,
    "city": "鳳珠郡能登町",
    "city_kana": "ホウスグンノトチョウ",
    "town": "太田原",
    "town_kana": "オオダワラ",
    "street": null,
    "office_name": null,
    "office_name_kana": null
  },
  "0400": {
    "postcode": "9270400",
    "prefecture": "石川県",
    "prefecture_kana": "イシカワケン",
    "prefecture_code": 17,
    "city": "鳳珠郡能登町",
    "city_kana": "ホウスグンノトチョウ",
    "town": "",
    "town_kana": "",
    "street": null,
    "office_name": null,
    "office_name_kana": null
  },
  "0431": {
    "postcode": "9270431",
    "prefecture": "石川県",
    "prefecture_kana": "イシカワケン",
    "prefecture_code": 17,
    "city": "鳳珠郡能登町",
    "city_kana": "ホウスグンノトチョウ",
    "town": "宇出津山分",
    "town_kana": "ウシツヤマブン",
    "street": null,
    "office_name": null,
    "office_name_kana": null
  },
  "0432": {
    "postcode": "9270432",
    "prefecture": "石川県",
    "prefecture_kana": "イシカワケン",
    "prefecture_code": 17,
    "city": "鳳珠郡能登町",
    "city_kana": "ホウスグンノトチョウ",
    "town": "宇出津新",
    "town_kana": "ウシツシン",
    "street": null,
    "office_name": null,
    "office_name_kana": null
  },
  "0433": {
    "postcode": "9270433",
    "prefecture": "石川県",
    "prefecture_kana": "イシカワケン",
    "prefecture_code": 17,
    "city": "鳳珠郡能登町",
    "city_kana": "ホウスグンノトチョウ",
    "town": "宇出津",
    "town_kana": "ウシツ",
    "street": null,
    "office_name": null,
    "office_name_kana": null
  },
  "0434": {
    "postcode": "9270434",
    "prefecture": "石川県",
    "prefecture_kana": "イシカワケン",
    "prefecture_code": 17,
    "city": "鳳珠郡能登町",
    "city_kana": "ホウスグンノトチョウ",
    "town": "崎山",
    "town_kana": "サキヤマ",
    "street": null,
    "office_name": null,
    "office_name_kana": null
  },
  "0435": {
    "postcode": "9270435",
    "prefecture": "石川県",
    "prefecture_kana": "イシカワケン",
    "prefecture_code": 17,
    "city": "鳳珠郡能登町",
    "city_kana": "ホウスグンノトチョウ",
    "town": "宇出津新港",
    "town_kana": "ウシツシンコウ",
    "street": null,
    "office_name": null,
    "office_name_kana": null
  },
  "0441": {
    "postcode": "9270441",
    "prefecture": "石川県",
    "prefecture_kana": "イシカワケン",
    "prefecture_code": 17,
    "city": "鳳珠郡能登町",
    "city_kana": "ホウスグンノトチョウ",
    "town": "藤波",
    "town_kana": "フジナミ",
    "street": null,
    "office_name": null,
    "office_name_kana": null
  },
  "0442": {
    "postcode": "9270442",
    "prefecture": "石川県",
    "prefecture_kana": "イシカワケン",
    "prefecture_code": 17,
    "city": "鳳珠郡能登町",
    "city_kana": "ホウスグンノトチョウ",
    "town": "波並",
    "town_kana": "ハナミ",
    "street": null,
    "office_name": null,
    "office_name_kana": null
  },
  "0443": {
    "postcode": "9270443",
    "prefecture": "石川県",
    "prefecture_kana": "イシカワケン",
    "prefecture_code": 17,
    "city": "鳳珠郡能登町",
    "city_kana": "ホウスグンノトチョウ",
    "town": "矢波",
    "town_kana": "ヤナミ",
    "street": null,
    "office_name": null,
    "office_name_kana": null
  },
  "0444": {
    "postcode": "9270444",
    "prefecture": "石川県",
    "prefecture_kana": "イシカワケン",
    "prefecture_code": 17,
    "city": "鳳珠郡能登町",
    "city_kana": "ホウスグンノトチョウ",
    "town": "猪平",
    "town_kana": "イノヒラ",
    "street": null,
    "office_name": null,
    "office_name_kana": null
  },
  "0451": {
    "postcode": "9270451",
    "prefecture": "石川県",
    "prefecture_kana": "イシカワケン",
    "prefecture_code": 17,
    "city": "鳳珠郡能登町",
    "city_kana": "ホウスグンノトチョウ",
    "town": "藤ノ瀬",
    "town_kana": "フジノセ",
    "street": null,
    "office_name": null,
    "office_name_kana": null
  },
  "0452": {
    "postcode": "9270452",
    "prefecture": "石川県",
    "prefecture_kana": "イシカワケン",
    "prefecture_code": 17,
    "city": "鳳珠郡能登町",
    "city_kana": "ホウスグンノトチョウ",
    "town": "宇加塚",
    "town_kana": "ウカヅカ",
    "street": null,
    "office_name": null,
    "office_name_kana": null
  },
  "0453": {
    "postcode": "9270453",
    "prefecture": "石川県",
    "prefecture_kana": "イシカワケン",
    "prefecture_code": 17,
    "city": "鳳珠郡能登町",
    "city_kana": "ホウスグンノトチョウ",
    "town": "鶴町",
    "town_kana": "ツルマチ",
    "street": null,
    "office_name": null,
    "office_name_kana": null
  },
  "0454": {
    "postcode": "9270454",
    "prefecture": "石川県",
    "prefecture_kana": "イシカワケン",
    "prefecture_code": 17,
    "city": "鳳珠郡能登町",
    "city_kana": "ホウスグンノトチョウ",
    "town": "曽又",
    "town_kana": "ソマタ",
    "street": null,
    "office_name": null,
    "office_name_kana": null
  },
  "0492": {
    "postcode": "9270492",
    "prefecture": "石川県",
    "prefecture_kana": "イシカワケン",
    "prefecture_code": 17,
    "city": "鳳珠郡能登町",
    "city_kana": "ホウスグンノトチョウ",
    "town": "字宇出津",
    "town_kana": null,
    "street": "ト字５０番地１（能都郵便局私書箱第６号）",
    "office_name": "能登町役場",
    "office_name_kana": "ノトチヨウヤクバ"
  },
  "0493": {
    "postcode": "9270493",
    "prefecture": "石川県",
    "prefecture_kana": "イシカワケン",
    "prefecture_code": 17,
    "city": "鳳珠郡能登町",
    "city_kana": "ホウスグンノトチョウ",
    "town": "字宇出津",
    "town_kana": null,
    "street": "ム字４５−１（能都郵便局私書箱第２号）",
    "office_name": "興能信用金庫",
    "office_name_kana": "コウノウシンヨウキンコ"
  },
  "0495": {
    "postcode": "9270495",
    "prefecture": "石川県",
    "prefecture_kana": "イシカワケン",
    "prefecture_code": 17,
    "city": "鳳珠郡能登町",
    "city_kana": "ホウスグンノトチョウ",
    "town": "字宇出津",
    "town_kana": null,
    "street": "タ字９７",
    "office_name": "公立宇出津総合病院",
    "office_name_kana": "コウリツウシツソウゴウビヨウイン"
  },
  "0551": {
    "postcode": "9270551",
    "prefecture": "石川県",
    "prefecture_kana": "イシカワケン",
    "prefecture_code": 17,
    "city": "鳳珠郡能登町",
    "city_kana": "ホウスグンノトチョウ",
    "town": "明野",
    "town_kana": "アケノ",
    "street": null,
    "office_name": null,
    "office_name_kana": null
  },
  "0552": {
    "postcode": "9270552",
    "prefecture": "石川県",
    "prefecture_kana": "イシカワケン",
    "prefecture_code": 17,
    "city": "鳳珠郡能登町",
    "city_kana": "ホウスグンノトチョウ",
    "town": "越坂",
    "town_kana": "オッサカ",
    "street": null,
    "office_name": null,
    "office_name_kana": null
  },
  "0553": {
    "postcode": "9270553",
    "prefecture": "石川県",
    "prefecture_kana": "イシカワケン",
    "prefecture_code": 17,
    "city": "鳳珠郡能登町",
    "city_kana": "ホウスグンノトチョウ",
    "town": "小木",
    "town_kana": "オギ",
    "street": null,
    "office_name": null,
    "office_name_kana": null
  },
  "0554": {
    "postcode": "9270554",
    "prefecture": "石川県",
    "prefecture_kana": "イシカワケン",
    "prefecture_code": 17,
    "city": "鳳珠郡能登町",
    "city_kana": "ホウスグンノトチョウ",
    "town": "市之瀬",
    "town_kana": "イチノセ",
    "street": null,
    "office_name": null,
    "office_name_kana": null
  },
  "0555": [
    {
      "postcode": "9270555",
      "prefecture": "石川県",
      "prefecture_kana": "イシカワケン",
      "prefecture_code": 17,
      "city": "鳳珠郡能登町",
      "city_kana": "ホウスグンノトチョウ",
      "town": "羽生",
      "town_kana": "ハニュウ",
      "street": null,
      "office_name": null,
      "office_name_kana": null
    },
    {
      "postcode": "9270555",
      "prefecture": "石川県",
      "prefecture_kana": "イシカワケン",
      "prefecture_code": 17,
      "city": "鳳珠郡能登町",
      "city_kana": "ホウスグンノトチョウ",
      "town": "羽生ろ",
      "town_kana": "ハニュウロ",
      "street": null,
      "office_name": null,
      "office_name_kana": null
    }
  ],
  "0561": [
    {
      "postcode": "9270561",
      "prefecture": "石川県",
      "prefecture_kana": "イシカワケン",
      "prefecture_code": 17,
      "city": "鳳珠郡能登町",
      "city_kana": "ホウスグンノトチョウ",
      "town": "羽生",
      "town_kana": "ハニュウ",
      "street": null,
      "office_name": null,
      "office_name_kana": null
    },
    {
      "postcode": "9270561",
      "prefecture": "石川県",
      "prefecture_kana": "イシカワケン",
      "prefecture_code": 17,
      "city": "鳳珠郡能登町",
      "city_kana": "ホウスグンノトチョウ",
      "town": "羽生い",
      "town_kana": "ハニュウイ",
      "street": null,
      "office_name": null,
      "office_name_kana": null
    }
  ],
  "0562": {
    "postcode": "9270562",
    "prefecture": "石川県",
    "prefecture_kana": "イシカワケン",
    "prefecture_code": 17,
    "city": "鳳珠郡能登町",
    "city_kana": "ホウスグンノトチョウ",
    "town": "真脇",
    "town_kana": "マワキ",
    "street": null,
    "office_name": null,
    "office_name_kana": null
  },
  "0563": {
    "postcode": "9270563",
    "prefecture": "石川県",
    "prefecture_kana": "イシカワケン",
    "prefecture_code": 17,
    "city": "鳳珠郡能登町",
    "city_kana": "ホウスグンノトチョウ",
    "town": "姫",
    "town_kana": "ヒメ",
    "street": null,
    "office_name": null,
    "office_name_kana": null
  },
  "0564": {
    "postcode": "9270564",
    "prefecture": "石川県",
    "prefecture_kana": "イシカワケン",
    "prefecture_code": 17,
    "city": "鳳珠郡能登町",
    "city_kana": "ホウスグンノトチョウ",
    "town": "小浦",
    "town_kana": "オウラ",
    "street": null,
    "office_name": null,
    "office_name_kana": null
  },
  "0565": {
    "postcode": "9270565",
    "prefecture": "石川県",
    "prefecture_kana": "イシカワケン",
    "prefecture_code": 17,
    "city": "鳳珠郡能登町",
    "city_kana": "ホウスグンノトチョウ",
    "town": "羽根",
    "town_kana": "ハネ",
    "street": null,
    "office_name": null,
    "office_name_kana": null
  },
  "0601": {
    "postcode": "9270601",
    "prefecture": "石川県",
    "prefecture_kana": "イシカワケン",
    "prefecture_code": 17,
    "city": "鳳珠郡能登町",
    "city_kana": "ホウスグンノトチョウ",
    "town": "恋路",
    "town_kana": "コイジ",
    "street": null,
    "office_name": null,
    "office_name_kana": null
  },
  "0602": [
    {
      "postcode": "9270602",
      "prefecture": "石川県",
      "prefecture_kana": "イシカワケン",
      "prefecture_code": 17,
      "city": "鳳珠郡能登町",
      "city_kana": "ホウスグンノトチョウ",
      "town": "松波",
      "town_kana": "マツナミ",
      "street": null,
      "office_name": null,
      "office_name_kana": null
    },
    {
      "postcode": "9270602",
      "prefecture": "石川県",
      "prefecture_kana": "イシカワケン",
      "prefecture_code": 17,
      "city": "鳳珠郡能登町",
      "city_kana": "ホウスグンノトチョウ",
      "town": "明生",
      "town_kana": "ミョウジョウ",
      "street": null,
      "office_name": null,
      "office_name_kana": null
    }
  ],
  "0603": {
    "postcode": "9270603",
    "prefecture": "石川県",
    "prefecture_kana": "イシカワケン",
    "prefecture_code": 17,
    "city": "鳳珠郡能登町",
    "city_kana": "ホウスグンノトチョウ",
    "town": "布浦",
    "town_kana": "ヌノウラ",
    "street": null,
    "office_name": null,
    "office_name_kana": null
  },
  "0604": {
    "postcode": "9270604",
    "prefecture": "石川県",
    "prefecture_kana": "イシカワケン",
    "prefecture_code": 17,
    "city": "鳳珠郡能登町",
    "city_kana": "ホウスグンノトチョウ",
    "town": "九里川尻",
    "town_kana": "クリカワシリ",
    "street": null,
    "office_name": null,
    "office_name_kana": null
  },
  "0605": {
    "postcode": "9270605",
    "prefecture": "石川県",
    "prefecture_kana": "イシカワケン",
    "prefecture_code": 17,
    "city": "鳳珠郡能登町",
    "city_kana": "ホウスグンノトチョウ",
    "town": "立壁",
    "town_kana": "タテカベ",
    "street": null,
    "office_name": null,
    "office_name_kana": null
  },
  "0606": {
    "postcode": "9270606",
    "prefecture": "石川県",
    "prefecture_kana": "イシカワケン",
    "prefecture_code": 17,
    "city": "鳳珠郡能登町",
    "city_kana": "ホウスグンノトチョウ",
    "town": "四方山",
    "town_kana": "ヨモヤマ",
    "street": null,
    "office_name": null,
    "office_name_kana": null
  },
  "0607": {
    "postcode": "9270607",
    "prefecture": "石川県",
    "prefecture_kana": "イシカワケン",
    "prefecture_code": 17,
    "city": "鳳珠郡能登町",
    "city_kana": "ホウスグンノトチョウ",
    "town": "白丸",
    "town_kana": "シロマル",
    "street": null,
    "office_name": null,
    "office_name_kana": null
  },
  "0608": {
    "postcode": "9270608",
    "prefecture": "石川県",
    "prefecture_kana": "イシカワケン",
    "prefecture_code": 17,
    "city": "鳳珠郡能登町",
    "city_kana": "ホウスグンノトチョウ",
    "town": "内浦長尾",
    "town_kana": "ウチウラナゴ",
    "street": null,
    "office_name": null,
    "office_name_kana": null
  },
  "0609": {
    "postcode": "9270609",
    "prefecture": "石川県",
    "prefecture_kana": "イシカワケン",
    "prefecture_code": 17,
    "city": "鳳珠郡能登町",
    "city_kana": "ホウスグンノトチョウ",
    "town": "新保",
    "town_kana": "シンボ",
    "street": null,
    "office_name": null,
    "office_name_kana": null
  },
  "0611": {
    "postcode": "9270611",
    "prefecture": "石川県",
    "prefecture_kana": "イシカワケン",
    "prefecture_code": 17,
    "city": "鳳珠郡能登町",
    "city_kana": "ホウスグンノトチョウ",
    "town": "清真",
    "town_kana": "キヨザネ",
    "street": null,
    "office_name": null,
    "office_name_kana": null
  },
  "0612": {
    "postcode": "9270612",
    "prefecture": "石川県",
    "prefecture_kana": "イシカワケン",
    "prefecture_code": 17,
    "city": "鳳珠郡能登町",
    "city_kana": "ホウスグンノトチョウ",
    "town": "秋吉",
    "town_kana": "アキヨシ",
    "street": null,
    "office_name": null,
    "office_name_kana": null
  },
  "0613": {
    "postcode": "9270613",
    "prefecture": "石川県",
    "prefecture_kana": "イシカワケン",
    "prefecture_code": 17,
    "city": "鳳珠郡能登町",
    "city_kana": "ホウスグンノトチョウ",
    "town": "河ケ谷",
    "town_kana": "カガタニ",
    "street": null,
    "office_name": null,
    "office_name_kana": null
  },
  "0614": [
    {
      "postcode": "9270614",
      "prefecture": "石川県",
      "prefecture_kana": "イシカワケン",
      "prefecture_code": 17,
      "city": "鳳珠郡能登町",
      "city_kana": "ホウスグンノトチョウ",
      "town": "満泉寺",
      "town_kana": "マンセンジ",
      "street": null,
      "office_name": null,
      "office_name_kana": null
    },
    {
      "postcode": "9270614",
      "prefecture": "石川県",
      "prefecture_kana": "イシカワケン",
      "prefecture_code": 17,
      "city": "鳳珠郡能登町",
      "city_kana": "ホウスグンノトチョウ",
      "town": "山中",
      "town_kana": "ヤマナカ",
      "street": null,
      "office_name": null,
      "office_name_kana": null
    }
  ],
  "0615": {
    "postcode": "9270615",
    "prefecture": "石川県",
    "prefecture_kana": "イシカワケン",
    "prefecture_code": 17,
    "city": "鳳珠郡能登町",
    "city_kana": "ホウスグンノトチョウ",
    "town": "宮犬",
    "town_kana": "ミヤイヌ",
    "street": null,
    "office_name": null,
    "office_name_kana": null
  },
  "0621": {
    "postcode": "9270621",
    "prefecture": "石川県",
    "prefecture_kana": "イシカワケン",
    "prefecture_code": 17,
    "city": "鳳珠郡能登町",
    "city_kana": "ホウスグンノトチョウ",
    "town": "上",
    "town_kana": "カミ",
    "street": null,
    "office_name": null,
    "office_name_kana": null
  },
  "0622": {
    "postcode": "9270622",
    "prefecture": "石川県",
    "prefecture_kana": "イシカワケン",
    "prefecture_code": 17,
    "city": "鳳珠郡能登町",
    "city_kana": "ホウスグンノトチョウ",
    "town": "不動寺",
    "town_kana": "フドウジ",
    "street": null,
    "office_name": null,
    "office_name_kana": null
  },
  "0623": {
    "postcode": "9270623",
    "prefecture": "石川県",
    "prefecture_kana": "イシカワケン",
    "prefecture_code": 17,
    "city": "鳳珠郡能登町",
    "city_kana": "ホウスグンノトチョウ",
    "town": "行延",
    "town_kana": "ユキノベ",
    "street": null,
    "office_name": null,
    "office_name_kana": null
  },
  "0624": {
    "postcode": "9270624",
    "prefecture": "石川県",
    "prefecture_kana": "イシカワケン",
    "prefecture_code": 17,
    "city": "鳳珠郡能登町",
    "city_kana": "ホウスグンノトチョウ",
    "town": "時長",
    "town_kana": "トキナガ",
    "street": null,
    "office_name": null,
    "office_name_kana": null
  },
  "0625": {
    "postcode": "9270625",
    "prefecture": "石川県",
    "prefecture_kana": "イシカワケン",
    "prefecture_code": 17,
    "city": "鳳珠郡能登町",
    "city_kana": "ホウスグンノトチョウ",
    "town": "国重",
    "town_kana": "クニシゲ",
    "street": null,
    "office_name": null,
    "office_name_kana": null
  },
  "0626": [
    {
      "postcode": "9270626",
      "prefecture": "石川県",
      "prefecture_kana": "イシカワケン",
      "prefecture_code": 17,
      "city": "鳳珠郡能登町",
      "city_kana": "ホウスグンノトチョウ",
      "town": "泉",
      "town_kana": "イズミ",
      "street": null,
      "office_name": null,
      "office_name_kana": null
    },
    {
      "postcode": "9270626",
      "prefecture": "石川県",
      "prefecture_kana": "イシカワケン",
      "prefecture_code": 17,
      "city": "鳳珠郡能登町",
      "city_kana": "ホウスグンノトチョウ",
      "town": "駒渡",
      "town_kana": "コマワタリ",
      "street": null,
      "office_name": null,
      "office_name_kana": null
    },
    {
      "postcode": "9270626",
      "prefecture": "石川県",
      "prefecture_kana": "イシカワケン",
      "prefecture_code": 17,
      "city": "鳳珠郡能登町",
      "city_kana": "ホウスグンノトチョウ",
      "town": "田代",
      "town_kana": "タシロ",
      "street": null,
      "office_name": null,
      "office_name_kana": null
    }
  ],
  "0627": [
    {
      "postcode": "9270627",
      "prefecture": "石川県",
      "prefecture_kana": "イシカワケン",
      "prefecture_code": 17,
      "city": "鳳珠郡能登町",
      "city_kana": "ホウスグンノトチョウ",
      "town": "滝之坊",
      "town_kana": "タキノボ",
      "street": null,
      "office_name": null,
      "office_name_kana": null
    },
    {
      "postcode": "9270627",
      "prefecture": "石川県",
      "prefecture_kana": "イシカワケン",
      "prefecture_code": 17,
      "city": "鳳珠郡能登町",
      "city_kana": "ホウスグンノトチョウ",
      "town": "福光",
      "town_kana": "フクミツ",
      "street": null,
      "office_name": null,
      "office_name_kana": null
    }
  ],
  "0695": {
    "postcode": "9270695",
    "prefecture": "石川県",
    "prefecture_kana": "イシカワケン",
    "prefecture_code": 17,
    "city": "鳳珠郡能登町",
    "city_kana": "ホウスグンノトチョウ",
    "town": "字松波",
    "town_kana": null,
    "street": "１３字７５番地１（松波郵便局私書箱第１号）",
    "office_name": "能登町役場　内浦総合支所",
    "office_name_kana": "ノトチヨウヤクバ ウチウラソウゴウシシヨ"
  },
  "1200": {
    "postcode": "9271200",
    "prefecture": "石川県",
    "prefecture_kana": "イシカワケン",
    "prefecture_code": 17,
    "city": "珠洲市",
    "city_kana": "スズシ",
    "town": "",
    "town_kana": "",
    "street": null,
    "office_name": null,
    "office_name_kana": null
  },
  "1201": {
    "postcode": "9271201",
    "prefecture": "石川県",
    "prefecture_kana": "イシカワケン",
    "prefecture_code": 17,
    "city": "珠洲市",
    "city_kana": "スズシ",
    "town": "正院町岡田",
    "town_kana": "ショウインマチオカタ",
    "street": null,
    "office_name": null,
    "office_name_kana": null
  },
  "1202": {
    "postcode": "9271202",
    "prefecture": "石川県",
    "prefecture_kana": "イシカワケン",
    "prefecture_code": 17,
    "city": "珠洲市",
    "city_kana": "スズシ",
    "town": "正院町飯塚",
    "town_kana": "ショウインマチイイヅカ",
    "street": null,
    "office_name": null,
    "office_name_kana": null
  },
  "1203": {
    "postcode": "9271203",
    "prefecture": "石川県",
    "prefecture_kana": "イシカワケン",
    "prefecture_code": 17,
    "city": "珠洲市",
    "city_kana": "スズシ",
    "town": "正院町平床",
    "town_kana": "ショウインマチヒラトコ",
    "street": null,
    "office_name": null,
    "office_name_kana": null
  },
  "1204": {
    "postcode": "9271204",
    "prefecture": "石川県",
    "prefecture_kana": "イシカワケン",
    "prefecture_code": 17,
    "city": "珠洲市",
    "city_kana": "スズシ",
    "town": "蛸島町",
    "town_kana": "タコジママチ",
    "street": null,
    "office_name": null,
    "office_name_kana": null
  },
  "1205": {
    "postcode": "9271205",
    "prefecture": "石川県",
    "prefecture_kana": "イシカワケン",
    "prefecture_code": 17,
    "city": "珠洲市",
    "city_kana": "スズシ",
    "town": "正院町川尻",
    "town_kana": "ショウインマチカワシリ",
    "street": null,
    "office_name": null,
    "office_name_kana": null
  },
  "1206": {
    "postcode": "9271206",
    "prefecture": "石川県",
    "prefecture_kana": "イシカワケン",
    "prefecture_code": 17,
    "city": "珠洲市",
    "city_kana": "スズシ",
    "town": "正院町正院",
    "town_kana": "ショウインマチショウイン",
    "street": null,
    "office_name": null,
    "office_name_kana": null
  },
  "1207": {
    "postcode": "9271207",
    "prefecture": "石川県",
    "prefecture_kana": "イシカワケン",
    "prefecture_code": 17,
    "city": "珠洲市",
    "city_kana": "スズシ",
    "town": "正院町小路",
    "town_kana": "ショウインマチコウジ",
    "street": null,
    "office_name": null,
    "office_name_kana": null
  },
  "1211": {
    "postcode": "9271211",
    "prefecture": "石川県",
    "prefecture_kana": "イシカワケン",
    "prefecture_code": 17,
    "city": "珠洲市",
    "city_kana": "スズシ",
    "town": "岩坂町",
    "town_kana": "イワサカマチ",
    "street": null,
    "office_name": null,
    "office_name_kana": null
  },
  "1212": {
    "postcode": "9271212",
    "prefecture": "石川県",
    "prefecture_kana": "イシカワケン",
    "prefecture_code": 17,
    "city": "珠洲市",
    "city_kana": "スズシ",
    "town": "熊谷町",
    "town_kana": "クマンタニマチ",
    "street": null,
    "office_name": null,
    "office_name_kana": null
  },
  "1213": {
    "postcode": "9271213",
    "prefecture": "石川県",
    "prefecture_kana": "イシカワケン",
    "prefecture_code": 17,
    "city": "珠洲市",
    "city_kana": "スズシ",
    "town": "野々江町",
    "town_kana": "ノノエマチ",
    "street": null,
    "office_name": null,
    "office_name_kana": null
  },
  "1214": {
    "postcode": "9271214",
    "prefecture": "石川県",
    "prefecture_kana": "イシカワケン",
    "prefecture_code": 17,
    "city": "珠洲市",
    "city_kana": "スズシ",
    "town": "飯田町",
    "town_kana": "イイダマチ",
    "street": null,
    "office_name": null,
    "office_name_kana": null
  },
  "1215": {
    "postcode": "9271215",
    "prefecture": "石川県",
    "prefecture_kana": "イシカワケン",
    "prefecture_code": 17,
    "city": "珠洲市",
    "city_kana": "スズシ",
    "town": "上戸町北方",
    "town_kana": "ウエドマチキタガタ",
    "street": null,
    "office_name": null,
    "office_name_kana": null
  },
  "1216": {
    "postcode": "9271216",
    "prefecture": "石川県",
    "prefecture_kana": "イシカワケン",
    "prefecture_code": 17,
    "city": "珠洲市",
    "city_kana": "スズシ",
    "town": "上戸町寺社",
    "town_kana": "ウエドマチジシャ",
    "street": null,
    "office_name": null,
    "office_name_kana": null
  },
  "1217": {
    "postcode": "9271217",
    "prefecture": "石川県",
    "prefecture_kana": "イシカワケン",
    "prefecture_code": 17,
    "city": "珠洲市",
    "city_kana": "スズシ",
    "town": "上戸町南方",
    "town_kana": "ウエドマチミナミガタ",
    "street": null,
    "office_name": null,
    "office_name_kana": null
  },
  "1221": [
    {
      "postcode": "9271221",
      "prefecture": "石川県",
      "prefecture_kana": "イシカワケン",
      "prefecture_code": 17,
      "city": "珠洲市",
      "city_kana": "スズシ",
      "town": "宝立町春日野",
      "town_kana": "ホウリュウマチカスガノ",
      "street": null,
      "office_name": null,
      "office_name_kana": null
    },
    {
      "postcode": "9271221",
      "prefecture": "石川県",
      "prefecture_kana": "イシカワケン",
      "prefecture_code": 17,
      "city": "珠洲市",
      "city_kana": "スズシ",
      "town": "宝立町金峰寺",
      "town_kana": "ホウリュウマチコンポウジ",
      "street": null,
      "office_name": null,
      "office_name_kana": null
    }
  ],
  "1222": {
    "postcode": "9271222",
    "prefecture": "石川県",
    "prefecture_kana": "イシカワケン",
    "prefecture_code": 17,
    "city": "珠洲市",
    "city_kana": "スズシ",
    "town": "宝立町鵜飼",
    "town_kana": "ホウリュウマチウカイ",
    "street": null,
    "office_name": null,
    "office_name_kana": null
  },
  "1223": {
    "postcode": "9271223",
    "prefecture": "石川県",
    "prefecture_kana": "イシカワケン",
    "prefecture_code": 17,
    "city": "珠洲市",
    "city_kana": "スズシ",
    "town": "宝立町鵜島",
    "town_kana": "ホウリュウマチウシマ",
    "street": null,
    "office_name": null,
    "office_name_kana": null
  },
  "1224": {
    "postcode": "9271224",
    "prefecture": "石川県",
    "prefecture_kana": "イシカワケン",
    "prefecture_code": 17,
    "city": "珠洲市",
    "city_kana": "スズシ",
    "town": "宝立町南黒丸",
    "town_kana": "ホウリュウマチミナミクロマル",
    "street": null,
    "office_name": null,
    "office_name_kana": null
  },
  "1225": {
    "postcode": "9271225",
    "prefecture": "石川県",
    "prefecture_kana": "イシカワケン",
    "prefecture_code": 17,
    "city": "珠洲市",
    "city_kana": "スズシ",
    "town": "宝立町宗玄",
    "town_kana": "ホウリュウマチソウゲン",
    "street": null,
    "office_name": null,
    "office_name_kana": null
  },
  "1226": {
    "postcode": "9271226",
    "prefecture": "石川県",
    "prefecture_kana": "イシカワケン",
    "prefecture_code": 17,
    "city": "珠洲市",
    "city_kana": "スズシ",
    "town": "宝立町馬渡",
    "town_kana": "ホウリュウマチマワタリ",
    "street": null,
    "office_name": null,
    "office_name_kana": null
  },
  "1227": [
    {
      "postcode": "9271227",
      "prefecture": "石川県",
      "prefecture_kana": "イシカワケン",
      "prefecture_code": 17,
      "city": "珠洲市",
      "city_kana": "スズシ",
      "town": "宝立町大町泥木",
      "town_kana": "ホウリュウマチオオマチドロノキ",
      "street": null,
      "office_name": null,
      "office_name_kana": null
    },
    {
      "postcode": "9271227",
      "prefecture": "石川県",
      "prefecture_kana": "イシカワケン",
      "prefecture_code": 17,
      "city": "珠洲市",
      "city_kana": "スズシ",
      "town": "宝立町二艘丹",
      "town_kana": "ホウリュウマチニソウフネ",
      "street": null,
      "office_name": null,
      "office_name_kana": null
    }
  ],
  "1228": [
    {
      "postcode": "9271228",
      "prefecture": "石川県",
      "prefecture_kana": "イシカワケン",
      "prefecture_code": 17,
      "city": "珠洲市",
      "city_kana": "スズシ",
      "town": "宝立町柏原",
      "town_kana": "ホウリュウマチカシハラ",
      "street": null,
      "office_name": null,
      "office_name_kana": null
    },
    {
      "postcode": "9271228",
      "prefecture": "石川県",
      "prefecture_kana": "イシカワケン",
      "prefecture_code": 17,
      "city": "珠洲市",
      "city_kana": "スズシ",
      "town": "宝立町黒峰",
      "town_kana": "ホウリュウマチクロミネ",
      "street": null,
      "office_name": null,
      "office_name_kana": null
    }
  ],
  "1231": {
    "postcode": "9271231",
    "prefecture": "石川県",
    "prefecture_kana": "イシカワケン",
    "prefecture_code": 17,
    "city": "珠洲市",
    "city_kana": "スズシ",
    "town": "若山町鈴内",
    "town_kana": "ワカヤママチスズナイ",
    "street": null,
    "office_name": null,
    "office_name_kana": null
  },
  "1232": {
    "postcode": "9271232",
    "prefecture": "石川県",
    "prefecture_kana": "イシカワケン",
    "prefecture_code": 17,
    "city": "珠洲市",
    "city_kana": "スズシ",
    "town": "若山町広栗",
    "town_kana": "ワカヤママチヒログリ",
    "street": null,
    "office_name": null,
    "office_name_kana": null
  },
  "1233": {
    "postcode": "9271233",
    "prefecture": "石川県",
    "prefecture_kana": "イシカワケン",
    "prefecture_code": 17,
    "city": "珠洲市",
    "city_kana": "スズシ",
    "town": "若山町出田",
    "town_kana": "ワカヤママチスッタ",
    "street": null,
    "office_name": null,
    "office_name_kana": null
  },
  "1234": {
    "postcode": "9271234",
    "prefecture": "石川県",
    "prefecture_kana": "イシカワケン",
    "prefecture_code": 17,
    "city": "珠洲市",
    "city_kana": "スズシ",
    "town": "若山町経念",
    "town_kana": "ワカヤママチキョウネン",
    "street": null,
    "office_name": null,
    "office_name_kana": null
  },
  "1235": [
    {
      "postcode": "9271235",
      "prefecture": "石川県",
      "prefecture_kana": "イシカワケン",
      "prefecture_code": 17,
      "city": "珠洲市",
      "city_kana": "スズシ",
      "town": "若山町中田",
      "town_kana": "ワカヤママチナカダ",
      "street": null,
      "office_name": null,
      "office_name_kana": null
    },
    {
      "postcode": "9271235",
      "prefecture": "石川県",
      "prefecture_kana": "イシカワケン",
      "prefecture_code": 17,
      "city": "珠洲市",
      "city_kana": "スズシ",
      "town": "若山町向",
      "town_kana": "ワカヤママチムカイ",
      "street": null,
      "office_name": null,
      "office_name_kana": null
    }
  ],
  "1236": {
    "postcode": "9271236",
    "prefecture": "石川県",
    "prefecture_kana": "イシカワケン",
    "prefecture_code": 17,
    "city": "珠洲市",
    "city_kana": "スズシ",
    "town": "若山町中",
    "town_kana": "ワカヤママチナカ",
    "street": null,
    "office_name": null,
    "office_name_kana": null
  },
  "1237": [
    {
      "postcode": "9271237",
      "prefecture": "石川県",
      "prefecture_kana": "イシカワケン",
      "prefecture_code": 17,
      "city": "珠洲市",
      "city_kana": "スズシ",
      "town": "若山町宇都山",
      "town_kana": "ワカヤママチウツヤマ",
      "street": null,
      "office_name": null,
      "office_name_kana": null
    },
    {
      "postcode": "9271237",
      "prefecture": "石川県",
      "prefecture_kana": "イシカワケン",
      "prefecture_code": 17,
      "city": "珠洲市",
      "city_kana": "スズシ",
      "town": "若山町大坊",
      "town_kana": "ワカヤママチダイボウ",
      "street": null,
      "office_name": null,
      "office_name_kana": null
    }
  ],
  "1238": [
    {
      "postcode": "9271238",
      "prefecture": "石川県",
      "prefecture_kana": "イシカワケン",
      "prefecture_code": 17,
      "city": "珠洲市",
      "city_kana": "スズシ",
      "town": "若山町延武",
      "town_kana": "ワカヤママチノブタケ",
      "street": null,
      "office_name": null,
      "office_name_kana": null
    },
    {
      "postcode": "9271238",
      "prefecture": "石川県",
      "prefecture_kana": "イシカワケン",
      "prefecture_code": 17,
      "city": "珠洲市",
      "city_kana": "スズシ",
      "town": "若山町火宮",
      "town_kana": "ワカヤママチヒミヤ",
      "street": null,
      "office_name": null,
      "office_name_kana": null
    }
  ],
  "1239": {
    "postcode": "9271239",
    "prefecture": "石川県",
    "prefecture_kana": "イシカワケン",
    "prefecture_code": 17,
    "city": "珠洲市",
    "city_kana": "スズシ",
    "town": "若山町古蔵",
    "town_kana": "ワカヤママチフルクラ",
    "street": null,
    "office_name": null,
    "office_name_kana": null
  },
  "1295": {
    "postcode": "9271295",
    "prefecture": "石川県",
    "prefecture_kana": "イシカワケン",
    "prefecture_code": 17,
    "city": "珠洲市",
    "city_kana": "スズシ",
    "town": "上戸町北方",
    "town_kana": "ウエドマチキタガタ",
    "street": "１−６−２（珠洲郵便局私書箱第５号）",
    "office_name": "珠洲市役所",
    "office_name_kana": "スズシヤクシヨ"
  },
  "1297": {
    "postcode": "9271297",
    "prefecture": "石川県",
    "prefecture_kana": "イシカワケン",
    "prefecture_code": 17,
    "city": "珠洲市",
    "city_kana": "スズシ",
    "town": "上戸町北方",
    "town_kana": "ウエドマチキタガタ",
    "street": "い４６番３",
    "office_name": "珠洲簡易裁判所　金沢家庭裁判所　珠洲出張所",
    "office_name_kana": "スズカンイサイバンシヨ カナザワカテイサイバンシヨ スズシユツチヨウシヨ"
  },
  "1301": {
    "postcode": "9271301",
    "prefecture": "石川県",
    "prefecture_kana": "イシカワケン",
    "prefecture_code": 17,
    "city": "珠洲市",
    "city_kana": "スズシ",
    "town": "高屋町",
    "town_kana": "タカヤマチ",
    "street": null,
    "office_name": null,
    "office_name_kana": null
  },
  "1302": {
    "postcode": "9271302",
    "prefecture": "石川県",
    "prefecture_kana": "イシカワケン",
    "prefecture_code": 17,
    "city": "珠洲市",
    "city_kana": "スズシ",
    "town": "笹波町",
    "town_kana": "ササナミマチ",
    "street": null,
    "office_name": null,
    "office_name_kana": null
  },
  "1303": {
    "postcode": "9271303",
    "prefecture": "石川県",
    "prefecture_kana": "イシカワケン",
    "prefecture_code": 17,
    "city": "珠洲市",
    "city_kana": "スズシ",
    "town": "石神町",
    "town_kana": "イシガミマチ",
    "street": null,
    "office_name": null,
    "office_name_kana": null
  },
  "1304": {
    "postcode": "9271304",
    "prefecture": "石川県",
    "prefecture_kana": "イシカワケン",
    "prefecture_code": 17,
    "city": "珠洲市",
    "city_kana": "スズシ",
    "town": "馬緤町",
    "town_kana": "マツナギマチ",
    "street": null,
    "office_name": null,
    "office_name_kana": null
  },
  "1311": {
    "postcode": "9271311",
    "prefecture": "石川県",
    "prefecture_kana": "イシカワケン",
    "prefecture_code": 17,
    "city": "珠洲市",
    "city_kana": "スズシ",
    "town": "若山町上正力",
    "town_kana": "ワカヤママチカミショウリキ",
    "street": null,
    "office_name": null,
    "office_name_kana": null
  },
  "1312": {
    "postcode": "9271312",
    "prefecture": "石川県",
    "prefecture_kana": "イシカワケン",
    "prefecture_code": 17,
    "city": "珠洲市",
    "city_kana": "スズシ",
    "town": "若山町二子",
    "town_kana": "ワカヤママチフタゴ",
    "street": null,
    "office_name": null,
    "office_name_kana": null
  },
  "1313": {
    "postcode": "9271313",
    "prefecture": "石川県",
    "prefecture_kana": "イシカワケン",
    "prefecture_code": 17,
    "city": "珠洲市",
    "city_kana": "スズシ",
    "town": "若山町宗末",
    "town_kana": "ワカヤママチムネスエ",
    "street": null,
    "office_name": null,
    "office_name_kana": null
  },
  "1314": {
    "postcode": "9271314",
    "prefecture": "石川県",
    "prefecture_kana": "イシカワケン",
    "prefecture_code": 17,
    "city": "珠洲市",
    "city_kana": "スズシ",
    "town": "若山町上黒丸",
    "town_kana": "ワカヤママチカミクロマル",
    "street": null,
    "office_name": null,
    "office_name_kana": null
  },
  "1315": [
    {
      "postcode": "9271315",
      "prefecture": "石川県",
      "prefecture_kana": "イシカワケン",
      "prefecture_code": 17,
      "city": "珠洲市",
      "city_kana": "スズシ",
      "town": "若山町白滝",
      "town_kana": "ワカヤママチシラタキ",
      "street": null,
      "office_name": null,
      "office_name_kana": null
    },
    {
      "postcode": "9271315",
      "prefecture": "石川県",
      "prefecture_kana": "イシカワケン",
      "prefecture_code": 17,
      "city": "珠洲市",
      "city_kana": "スズシ",
      "town": "若山町南山",
      "town_kana": "ワカヤママチミナミヤマ",
      "street": null,
      "office_name": null,
      "office_name_kana": null
    }
  ],
  "1316": {
    "postcode": "9271316",
    "prefecture": "石川県",
    "prefecture_kana": "イシカワケン",
    "prefecture_code": 17,
    "city": "珠洲市",
    "city_kana": "スズシ",
    "town": "若山町洲巻",
    "town_kana": "ワカヤママチスマキ",
    "street": null,
    "office_name": null,
    "office_name_kana": null
  },
  "1317": {
    "postcode": "9271317",
    "prefecture": "石川県",
    "prefecture_kana": "イシカワケン",
    "prefecture_code": 17,
    "city": "珠洲市",
    "city_kana": "スズシ",
    "town": "若山町上山",
    "town_kana": "ワカヤママチカミヤマ",
    "street": null,
    "office_name": null,
    "office_name_kana": null
  },
  "1318": {
    "postcode": "9271318",
    "prefecture": "石川県",
    "prefecture_kana": "イシカワケン",
    "prefecture_code": 17,
    "city": "珠洲市",
    "city_kana": "スズシ",
    "town": "若山町北山",
    "town_kana": "ワカヤママチキタヤマ",
    "street": null,
    "office_name": null,
    "office_name_kana": null
  },
  "1319": {
    "postcode": "9271319",
    "prefecture": "石川県",
    "prefecture_kana": "イシカワケン",
    "prefecture_code": 17,
    "city": "珠洲市",
    "city_kana": "スズシ",
    "town": "若山町吉ケ池",
    "town_kana": "ワカヤママチヨシガイケ",
    "street": null,
    "office_name": null,
    "office_name_kana": null
  },
  "1321": {
    "postcode": "9271321",
    "prefecture": "石川県",
    "prefecture_kana": "イシカワケン",
    "prefecture_code": 17,
    "city": "珠洲市",
    "city_kana": "スズシ",
    "town": "大谷町",
    "town_kana": "オオタニマチ",
    "street": null,
    "office_name": null,
    "office_name_kana": null
  },
  "1322": {
    "postcode": "9271322",
    "prefecture": "石川県",
    "prefecture_kana": "イシカワケン",
    "prefecture_code": 17,
    "city": "珠洲市",
    "city_kana": "スズシ",
    "town": "長橋町",
    "town_kana": "ナガハシマチ",
    "street": null,
    "office_name": null,
    "office_name_kana": null
  },
  "1323": {
    "postcode": "9271323",
    "prefecture": "石川県",
    "prefecture_kana": "イシカワケン",
    "prefecture_code": 17,
    "city": "珠洲市",
    "city_kana": "スズシ",
    "town": "片岩町",
    "town_kana": "カタイワマチ",
    "street": null,
    "office_name": null,
    "office_name_kana": null
  },
  "1324": {
    "postcode": "9271324",
    "prefecture": "石川県",
    "prefecture_kana": "イシカワケン",
    "prefecture_code": 17,
    "city": "珠洲市",
    "city_kana": "スズシ",
    "town": "清水町",
    "town_kana": "シミズマチ",
    "street": null,
    "office_name": null,
    "office_name_kana": null
  },
  "1325": {
    "postcode": "9271325",
    "prefecture": "石川県",
    "prefecture_kana": "イシカワケン",
    "prefecture_code": 17,
    "city": "珠洲市",
    "city_kana": "スズシ",
    "town": "仁江町",
    "town_kana": "ニエマチ",
    "street": null,
    "office_name": null,
    "office_name_kana": null
  },
  "1326": {
    "postcode": "9271326",
    "prefecture": "石川県",
    "prefecture_kana": "イシカワケン",
    "prefecture_code": 17,
    "city": "珠洲市",
    "city_kana": "スズシ",
    "town": "真浦町",
    "town_kana": "マウラマチ",
    "street": null,
    "office_name": null,
    "office_name_kana": null
  },
  "1441": {
    "postcode": "9271441",
    "prefecture": "石川県",
    "prefecture_kana": "イシカワケン",
    "prefecture_code": 17,
    "city": "珠洲市",
    "city_kana": "スズシ",
    "town": "狼煙町",
    "town_kana": "ノロシマチ",
    "street": null,
    "office_name": null,
    "office_name_kana": null
  },
  "1442": {
    "postcode": "9271442",
    "prefecture": "石川県",
    "prefecture_kana": "イシカワケン",
    "prefecture_code": 17,
    "city": "珠洲市",
    "city_kana": "スズシ",
    "town": "狼煙新町",
    "town_kana": "ノロシシンマチ",
    "street": null,
    "office_name": null,
    "office_name_kana": null
  },
  "1443": {
    "postcode": "9271443",
    "prefecture": "石川県",
    "prefecture_kana": "イシカワケン",
    "prefecture_code": 17,
    "city": "珠洲市",
    "city_kana": "スズシ",
    "town": "東山中町",
    "town_kana": "ヒガシヤマナカマチ",
    "street": null,
    "office_name": null,
    "office_name_kana": null
  },
  "1444": {
    "postcode": "9271444",
    "prefecture": "石川県",
    "prefecture_kana": "イシカワケン",
    "prefecture_code": 17,
    "city": "珠洲市",
    "city_kana": "スズシ",
    "town": "唐笠町八ケ山",
    "town_kana": "カラカサマチハッカヤマ",
    "street": null,
    "office_name": null,
    "office_name_kana": null
  },
  "1445": {
    "postcode": "9271445",
    "prefecture": "石川県",
    "prefecture_kana": "イシカワケン",
    "prefecture_code": 17,
    "city": "珠洲市",
    "city_kana": "スズシ",
    "town": "唐笠町",
    "town_kana": "カラカサマチ",
    "street": null,
    "office_name": null,
    "office_name_kana": null
  },
  "1446": {
    "postcode": "9271446",
    "prefecture": "石川県",
    "prefecture_kana": "イシカワケン",
    "prefecture_code": 17,
    "city": "珠洲市",
    "city_kana": "スズシ",
    "town": "折戸町",
    "town_kana": "オリトマチ",
    "street": null,
    "office_name": null,
    "office_name_kana": null
  },
  "1447": {
    "postcode": "9271447",
    "prefecture": "石川県",
    "prefecture_kana": "イシカワケン",
    "prefecture_code": 17,
    "city": "珠洲市",
    "city_kana": "スズシ",
    "town": "川浦町",
    "town_kana": "カワウラマチ",
    "street": null,
    "office_name": null,
    "office_name_kana": null
  },
  "1451": {
    "postcode": "9271451",
    "prefecture": "石川県",
    "prefecture_kana": "イシカワケン",
    "prefecture_code": 17,
    "city": "珠洲市",
    "city_kana": "スズシ",
    "town": "三崎町寺家",
    "town_kana": "ミサキマチジケ",
    "street": null,
    "office_name": null,
    "office_name_kana": null
  },
  "1452": {
    "postcode": "9271452",
    "prefecture": "石川県",
    "prefecture_kana": "イシカワケン",
    "prefecture_code": 17,
    "city": "珠洲市",
    "city_kana": "スズシ",
    "town": "三崎町粟津",
    "town_kana": "ミサキマチアワヅ",
    "street": null,
    "office_name": null,
    "office_name_kana": null
  },
  "1453": {
    "postcode": "9271453",
    "prefecture": "石川県",
    "prefecture_kana": "イシカワケン",
    "prefecture_code": 17,
    "city": "珠洲市",
    "city_kana": "スズシ",
    "town": "三崎町森腰",
    "town_kana": "ミサキマチモリコシ",
    "street": null,
    "office_name": null,
    "office_name_kana": null
  },
  "1454": {
    "postcode": "9271454",
    "prefecture": "石川県",
    "prefecture_kana": "イシカワケン",
    "prefecture_code": 17,
    "city": "珠洲市",
    "city_kana": "スズシ",
    "town": "三崎町宇治",
    "town_kana": "ミサキマチウジ",
    "street": null,
    "office_name": null,
    "office_name_kana": null
  },
  "1455": {
    "postcode": "9271455",
    "prefecture": "石川県",
    "prefecture_kana": "イシカワケン",
    "prefecture_code": 17,
    "city": "珠洲市",
    "city_kana": "スズシ",
    "town": "三崎町引砂",
    "town_kana": "ミサキマチヒキスナ",
    "street": null,
    "office_name": null,
    "office_name_kana": null
  },
  "1456": {
    "postcode": "9271456",
    "prefecture": "石川県",
    "prefecture_kana": "イシカワケン",
    "prefecture_code": 17,
    "city": "珠洲市",
    "city_kana": "スズシ",
    "town": "三崎町高波",
    "town_kana": "ミサキマチコウナミ",
    "street": null,
    "office_name": null,
    "office_name_kana": null
  },
  "1457": {
    "postcode": "9271457",
    "prefecture": "石川県",
    "prefecture_kana": "イシカワケン",
    "prefecture_code": 17,
    "city": "珠洲市",
    "city_kana": "スズシ",
    "town": "三崎町大屋",
    "town_kana": "ミサキマチオオヤ",
    "street": null,
    "office_name": null,
    "office_name_kana": null
  },
  "1461": {
    "postcode": "9271461",
    "prefecture": "石川県",
    "prefecture_kana": "イシカワケン",
    "prefecture_code": 17,
    "city": "珠洲市",
    "city_kana": "スズシ",
    "town": "三崎町伏見",
    "town_kana": "ミサキマチフシミ",
    "street": null,
    "office_name": null,
    "office_name_kana": null
  },
  "1462": {
    "postcode": "9271462",
    "prefecture": "石川県",
    "prefecture_kana": "イシカワケン",
    "prefecture_code": 17,
    "city": "珠洲市",
    "city_kana": "スズシ",
    "town": "三崎町小泊",
    "town_kana": "ミサキマチコドマリ",
    "street": null,
    "office_name": null,
    "office_name_kana": null
  },
  "1463": {
    "postcode": "9271463",
    "prefecture": "石川県",
    "prefecture_kana": "イシカワケン",
    "prefecture_code": 17,
    "city": "珠洲市",
    "city_kana": "スズシ",
    "town": "三崎町雲津",
    "town_kana": "ミサキマチモヅ",
    "street": null,
    "office_name": null,
    "office_name_kana": null
  },
  "1464": {
    "postcode": "9271464",
    "prefecture": "石川県",
    "prefecture_kana": "イシカワケン",
    "prefecture_code": 17,
    "city": "珠洲市",
    "city_kana": "スズシ",
    "town": "三崎町細屋",
    "town_kana": "ミサキマチホソヤ",
    "street": null,
    "office_name": null,
    "office_name_kana": null
  },
  "1465": {
    "postcode": "9271465",
    "prefecture": "石川県",
    "prefecture_kana": "イシカワケン",
    "prefecture_code": 17,
    "city": "珠洲市",
    "city_kana": "スズシ",
    "town": "三崎町二本松",
    "town_kana": "ミサキマチニホンマツ",
    "street": null,
    "office_name": null,
    "office_name_kana": null
  },
  "1466": {
    "postcode": "9271466",
    "prefecture": "石川県",
    "prefecture_kana": "イシカワケン",
    "prefecture_code": 17,
    "city": "珠洲市",
    "city_kana": "スズシ",
    "town": "三崎町杉山",
    "town_kana": "ミサキマチスギヤマ",
    "street": null,
    "office_name": null,
    "office_name_kana": null
  },
  "1467": {
    "postcode": "9271467",
    "prefecture": "石川県",
    "prefecture_kana": "イシカワケン",
    "prefecture_code": 17,
    "city": "珠洲市",
    "city_kana": "スズシ",
    "town": "三崎町本",
    "town_kana": "ミサキマチホン",
    "street": null,
    "office_name": null,
    "office_name_kana": null
  },
  "1468": {
    "postcode": "9271468",
    "prefecture": "石川県",
    "prefecture_kana": "イシカワケン",
    "prefecture_code": 17,
    "city": "珠洲市",
    "city_kana": "スズシ",
    "town": "三崎町内方",
    "town_kana": "ミサキマチナイホウ",
    "street": null,
    "office_name": null,
    "office_name_kana": null
  },
  "2101": {
    "postcode": "9272101",
    "prefecture": "石川県",
    "prefecture_kana": "イシカワケン",
    "prefecture_code": 17,
    "city": "輪島市",
    "city_kana": "ワジマシ",
    "town": "門前町西円山",
    "town_kana": "モンゼンマチニシマルヤマ",
    "street": null,
    "office_name": null,
    "office_name_kana": null
  },
  "2102": [
    {
      "postcode": "9272102",
      "prefecture": "石川県",
      "prefecture_kana": "イシカワケン",
      "prefecture_code": 17,
      "city": "輪島市",
      "city_kana": "ワジマシ",
      "town": "門前町浦上",
      "town_kana": "モンゼンマチウラカミ",
      "street": null,
      "office_name": null,
      "office_name_kana": null
    },
    {
      "postcode": "9272102",
      "prefecture": "石川県",
      "prefecture_kana": "イシカワケン",
      "prefecture_code": 17,
      "city": "輪島市",
      "city_kana": "ワジマシ",
      "town": "門前町八幡",
      "town_kana": "モンゼンマチヤワタ",
      "street": null,
      "office_name": null,
      "office_name_kana": null
    }
  ],
  "2103": {
    "postcode": "9272103",
    "prefecture": "石川県",
    "prefecture_kana": "イシカワケン",
    "prefecture_code": 17,
    "city": "輪島市",
    "city_kana": "ワジマシ",
    "town": "門前町宮古場",
    "town_kana": "モンゼンマチミヤコバ",
    "street": null,
    "office_name": null,
    "office_name_kana": null
  },
  "2104": {
    "postcode": "9272104",
    "prefecture": "石川県",
    "prefecture_kana": "イシカワケン",
    "prefecture_code": 17,
    "city": "輪島市",
    "city_kana": "ワジマシ",
    "town": "門前町山辺",
    "town_kana": "モンゼンマチヤマベ",
    "street": null,
    "office_name": null,
    "office_name_kana": null
  },
  "2105": {
    "postcode": "9272105",
    "prefecture": "石川県",
    "prefecture_kana": "イシカワケン",
    "prefecture_code": 17,
    "city": "輪島市",
    "city_kana": "ワジマシ",
    "town": "門前町田村",
    "town_kana": "モンゼンマチタムラ",
    "street": null,
    "office_name": null,
    "office_name_kana": null
  },
  "2106": {
    "postcode": "9272106",
    "prefecture": "石川県",
    "prefecture_kana": "イシカワケン",
    "prefecture_code": 17,
    "city": "輪島市",
    "city_kana": "ワジマシ",
    "town": "門前町浅生田",
    "town_kana": "モンゼンマチアソダ",
    "street": null,
    "office_name": null,
    "office_name_kana": null
  },
  "2107": {
    "postcode": "9272107",
    "prefecture": "石川県",
    "prefecture_kana": "イシカワケン",
    "prefecture_code": 17,
    "city": "輪島市",
    "city_kana": "ワジマシ",
    "town": "門前町安代原",
    "town_kana": "モンゼンマチアンダイハラ",
    "street": null,
    "office_name": null,
    "office_name_kana": null
  },
  "2108": {
    "postcode": "9272108",
    "prefecture": "石川県",
    "prefecture_kana": "イシカワケン",
    "prefecture_code": 17,
    "city": "輪島市",
    "city_kana": "ワジマシ",
    "town": "門前町中野屋",
    "town_kana": "モンゼンマチナカノヤ",
    "street": null,
    "office_name": null,
    "office_name_kana": null
  },
  "2111": {
    "postcode": "9272111",
    "prefecture": "石川県",
    "prefecture_kana": "イシカワケン",
    "prefecture_code": 17,
    "city": "輪島市",
    "city_kana": "ワジマシ",
    "town": "門前町滝上",
    "town_kana": "モンゼンマチタキノウエ",
    "street": null,
    "office_name": null,
    "office_name_kana": null
  },
  "2112": {
    "postcode": "9272112",
    "prefecture": "石川県",
    "prefecture_kana": "イシカワケン",
    "prefecture_code": 17,
    "city": "輪島市",
    "city_kana": "ワジマシ",
    "town": "門前町四位",
    "town_kana": "モンゼンマチシイ",
    "street": null,
    "office_name": null,
    "office_name_kana": null
  },
  "2113": [
    {
      "postcode": "9272113",
      "prefecture": "石川県",
      "prefecture_kana": "イシカワケン",
      "prefecture_code": 17,
      "city": "輪島市",
      "city_kana": "ワジマシ",
      "town": "門前町俊兼",
      "town_kana": "モンゼンマチトシカネ",
      "street": null,
      "office_name": null,
      "office_name_kana": null
    },
    {
      "postcode": "9272113",
      "prefecture": "石川県",
      "prefecture_kana": "イシカワケン",
      "prefecture_code": 17,
      "city": "輪島市",
      "city_kana": "ワジマシ",
      "town": "門前町嶺",
      "town_kana": "モンゼンマチミネ",
      "street": null,
      "office_name": null,
      "office_name_kana": null
    }
  ],
  "2114": {
    "postcode": "9272114",
    "prefecture": "石川県",
    "prefecture_kana": "イシカワケン",
    "prefecture_code": 17,
    "city": "輪島市",
    "city_kana": "ワジマシ",
    "town": "門前町谷口",
    "town_kana": "モンゼンマチタニグチ",
    "street": null,
    "office_name": null,
    "office_name_kana": null
  },
  "2115": {
    "postcode": "9272115",
    "prefecture": "石川県",
    "prefecture_kana": "イシカワケン",
    "prefecture_code": 17,
    "city": "輪島市",
    "city_kana": "ワジマシ",
    "town": "門前町本内",
    "town_kana": "モンゼンマチモトウチ",
    "street": null,
    "office_name": null,
    "office_name_kana": null
  },
  "2121": {
    "postcode": "9272121",
    "prefecture": "石川県",
    "prefecture_kana": "イシカワケン",
    "prefecture_code": 17,
    "city": "輪島市",
    "city_kana": "ワジマシ",
    "town": "門前町貝吹",
    "town_kana": "モンゼンマチカイフキ",
    "street": null,
    "office_name": null,
    "office_name_kana": null
  },
  "2122": {
    "postcode": "9272122",
    "prefecture": "石川県",
    "prefecture_kana": "イシカワケン",
    "prefecture_code": 17,
    "city": "輪島市",
    "city_kana": "ワジマシ",
    "town": "門前町原",
    "town_kana": "モンゼンマチハラ",
    "street": null,
    "office_name": null,
    "office_name_kana": null
  },
  "2123": {
    "postcode": "9272123",
    "prefecture": "石川県",
    "prefecture_kana": "イシカワケン",
    "prefecture_code": 17,
    "city": "輪島市",
    "city_kana": "ワジマシ",
    "town": "門前町荒屋",
    "town_kana": "モンゼンマチアラヤ",
    "street": null,
    "office_name": null,
    "office_name_kana": null
  },
  "2124": {
    "postcode": "9272124",
    "prefecture": "石川県",
    "prefecture_kana": "イシカワケン",
    "prefecture_code": 17,
    "city": "輪島市",
    "city_kana": "ワジマシ",
    "town": "門前町東大町",
    "town_kana": "モンゼンマチヒガシオオマチ",
    "street": null,
    "office_name": null,
    "office_name_kana": null
  },
  "2125": {
    "postcode": "9272125",
    "prefecture": "石川県",
    "prefecture_kana": "イシカワケン",
    "prefecture_code": 17,
    "city": "輪島市",
    "city_kana": "ワジマシ",
    "town": "門前町別所",
    "town_kana": "モンゼンマチベッショ",
    "street": null,
    "office_name": null,
    "office_name_kana": null
  },
  "2126": {
    "postcode": "9272126",
    "prefecture": "石川県",
    "prefecture_kana": "イシカワケン",
    "prefecture_code": 17,
    "city": "輪島市",
    "city_kana": "ワジマシ",
    "town": "門前町能納屋",
    "town_kana": "モンゼンマチノウノヤ",
    "street": null,
    "office_name": null,
    "office_name_kana": null
  },
  "2127": {
    "postcode": "9272127",
    "prefecture": "石川県",
    "prefecture_kana": "イシカワケン",
    "prefecture_code": 17,
    "city": "輪島市",
    "city_kana": "ワジマシ",
    "town": "門前町二又川",
    "town_kana": "モンゼンマチフタマタガワ",
    "street": null,
    "office_name": null,
    "office_name_kana": null
  },
  "2131": {
    "postcode": "9272131",
    "prefecture": "石川県",
    "prefecture_kana": "イシカワケン",
    "prefecture_code": 17,
    "city": "輪島市",
    "city_kana": "ワジマシ",
    "town": "門前町平",
    "town_kana": "モンゼンマチタイラ",
    "street": null,
    "office_name": null,
    "office_name_kana": null
  },
  "2132": {
    "postcode": "9272132",
    "prefecture": "石川県",
    "prefecture_kana": "イシカワケン",
    "prefecture_code": 17,
    "city": "輪島市",
    "city_kana": "ワジマシ",
    "town": "門前町長井坂",
    "town_kana": "モンゼンマチナガイザカ",
    "street": null,
    "office_name": null,
    "office_name_kana": null
  },
  "2133": {
    "postcode": "9272133",
    "prefecture": "石川県",
    "prefecture_kana": "イシカワケン",
    "prefecture_code": 17,
    "city": "輪島市",
    "city_kana": "ワジマシ",
    "town": "門前町定広",
    "town_kana": "モンゼンマチサダヒロ",
    "street": null,
    "office_name": null,
    "office_name_kana": null
  },
  "2134": {
    "postcode": "9272134",
    "prefecture": "石川県",
    "prefecture_kana": "イシカワケン",
    "prefecture_code": 17,
    "city": "輪島市",
    "city_kana": "ワジマシ",
    "town": "門前町地原",
    "town_kana": "モンゼンマチチハラ",
    "street": null,
    "office_name": null,
    "office_name_kana": null
  },
  "2135": {
    "postcode": "9272135",
    "prefecture": "石川県",
    "prefecture_kana": "イシカワケン",
    "prefecture_code": 17,
    "city": "輪島市",
    "city_kana": "ワジマシ",
    "town": "門前町百成",
    "town_kana": "モンゼンマチドウミキ",
    "street": null,
    "office_name": null,
    "office_name_kana": null
  },
  "2136": {
    "postcode": "9272136",
    "prefecture": "石川県",
    "prefecture_kana": "イシカワケン",
    "prefecture_code": 17,
    "city": "輪島市",
    "city_kana": "ワジマシ",
    "town": "門前町鑓川",
    "town_kana": "モンゼンマチヤリカワ",
    "street": null,
    "office_name": null,
    "office_name_kana": null
  },
  "2137": {
    "postcode": "9272137",
    "prefecture": "石川県",
    "prefecture_kana": "イシカワケン",
    "prefecture_code": 17,
    "city": "輪島市",
    "city_kana": "ワジマシ",
    "town": "門前町内保",
    "town_kana": "モンゼンマチウチボ",
    "street": null,
    "office_name": null,
    "office_name_kana": null
  },
  "2138": {
    "postcode": "9272138",
    "prefecture": "石川県",
    "prefecture_kana": "イシカワケン",
    "prefecture_code": 17,
    "city": "輪島市",
    "city_kana": "ワジマシ",
    "town": "門前町堀腰",
    "town_kana": "モンゼンマチホリコシ",
    "street": null,
    "office_name": null,
    "office_name_kana": null
  },
  "2141": {
    "postcode": "9272141",
    "prefecture": "石川県",
    "prefecture_kana": "イシカワケン",
    "prefecture_code": 17,
    "city": "輪島市",
    "city_kana": "ワジマシ",
    "town": "門前町小石",
    "town_kana": "モンゼンマチオイシ",
    "street": null,
    "office_name": null,
    "office_name_kana": null
  },
  "2142": {
    "postcode": "9272142",
    "prefecture": "石川県",
    "prefecture_kana": "イシカワケン",
    "prefecture_code": 17,
    "city": "輪島市",
    "city_kana": "ワジマシ",
    "town": "門前町上河内",
    "town_kana": "モンゼンマチカミガワチ",
    "street": null,
    "office_name": null,
    "office_name_kana": null
  },
  "2143": {
    "postcode": "9272143",
    "prefecture": "石川県",
    "prefecture_kana": "イシカワケン",
    "prefecture_code": 17,
    "city": "輪島市",
    "city_kana": "ワジマシ",
    "town": "門前町風原",
    "town_kana": "モンゼンマチカザハラ",
    "street": null,
    "office_name": null,
    "office_name_kana": null
  },
  "2144": {
    "postcode": "9272144",
    "prefecture": "石川県",
    "prefecture_kana": "イシカワケン",
    "prefecture_code": 17,
    "city": "輪島市",
    "city_kana": "ワジマシ",
    "town": "門前町猿橋",
    "town_kana": "モンゼンマチサルハシ",
    "street": null,
    "office_name": null,
    "office_name_kana": null
  },
  "2145": {
    "postcode": "9272145",
    "prefecture": "石川県",
    "prefecture_kana": "イシカワケン",
    "prefecture_code": 17,
    "city": "輪島市",
    "city_kana": "ワジマシ",
    "town": "門前町小滝",
    "town_kana": "モンゼンマチコダキ",
    "street": null,
    "office_name": null,
    "office_name_kana": null
  },
  "2146": {
    "postcode": "9272146",
    "prefecture": "石川県",
    "prefecture_kana": "イシカワケン",
    "prefecture_code": 17,
    "city": "輪島市",
    "city_kana": "ワジマシ",
    "town": "門前町西中尾",
    "town_kana": "モンゼンマチニシナカオ",
    "street": null,
    "office_name": null,
    "office_name_kana": null
  },
  "2147": {
    "postcode": "9272147",
    "prefecture": "石川県",
    "prefecture_kana": "イシカワケン",
    "prefecture_code": 17,
    "city": "輪島市",
    "city_kana": "ワジマシ",
    "town": "門前町鬼屋",
    "town_kana": "モンゼンマチオニヤ",
    "street": null,
    "office_name": null,
    "office_name_kana": null
  },
  "2151": {
    "postcode": "9272151",
    "prefecture": "石川県",
    "prefecture_kana": "イシカワケン",
    "prefecture_code": 17,
    "city": "輪島市",
    "city_kana": "ワジマシ",
    "town": "門前町走出",
    "town_kana": "モンゼンマチハシリデ",
    "street": null,
    "office_name": null,
    "office_name_kana": null
  },
  "2152": {
    "postcode": "9272152",
    "prefecture": "石川県",
    "prefecture_kana": "イシカワケン",
    "prefecture_code": 17,
    "city": "輪島市",
    "city_kana": "ワジマシ",
    "town": "門前町広瀬",
    "town_kana": "モンゼンマチヒロセ",
    "street": null,
    "office_name": null,
    "office_name_kana": null
  },
  "2153": {
    "postcode": "9272153",
    "prefecture": "石川県",
    "prefecture_kana": "イシカワケン",
    "prefecture_code": 17,
    "city": "輪島市",
    "city_kana": "ワジマシ",
    "town": "門前町深田",
    "town_kana": "モンゼンマチフカダ",
    "street": null,
    "office_name": null,
    "office_name_kana": null
  },
  "2154": {
    "postcode": "9272154",
    "prefecture": "石川県",
    "prefecture_kana": "イシカワケン",
    "prefecture_code": 17,
    "city": "輪島市",
    "city_kana": "ワジマシ",
    "town": "門前町栃木",
    "town_kana": "モンゼンマチトチノキ",
    "street": null,
    "office_name": null,
    "office_name_kana": null
  },
  "2155": {
    "postcode": "9272155",
    "prefecture": "石川県",
    "prefecture_kana": "イシカワケン",
    "prefecture_code": 17,
    "city": "輪島市",
    "city_kana": "ワジマシ",
    "town": "門前町日野尾",
    "town_kana": "モンゼンマチヒノオ",
    "street": null,
    "office_name": null,
    "office_name_kana": null
  },
  "2156": {
    "postcode": "9272156",
    "prefecture": "石川県",
    "prefecture_kana": "イシカワケン",
    "prefecture_code": 17,
    "city": "輪島市",
    "city_kana": "ワジマシ",
    "town": "門前町門前",
    "town_kana": "モンゼンマチモンゼン",
    "street": null,
    "office_name": null,
    "office_name_kana": null
  },
  "2161": {
    "postcode": "9272161",
    "prefecture": "石川県",
    "prefecture_kana": "イシカワケン",
    "prefecture_code": 17,
    "city": "輪島市",
    "city_kana": "ワジマシ",
    "town": "門前町六郎木",
    "town_kana": "モンゼンマチロクロギ",
    "street": null,
    "office_name": null,
    "office_name_kana": null
  },
  "2162": {
    "postcode": "9272162",
    "prefecture": "石川県",
    "prefecture_kana": "イシカワケン",
    "prefecture_code": 17,
    "city": "輪島市",
    "city_kana": "ワジマシ",
    "town": "門前町勝田",
    "town_kana": "モンゼンマチカツタ",
    "street": null,
    "office_name": null,
    "office_name_kana": null
  },
  "2163": {
    "postcode": "9272163",
    "prefecture": "石川県",
    "prefecture_kana": "イシカワケン",
    "prefecture_code": 17,
    "city": "輪島市",
    "city_kana": "ワジマシ",
    "town": "門前町大生",
    "town_kana": "モンゼンマチオハエ",
    "street": null,
    "office_name": null,
    "office_name_kana": null
  },
  "2164": {
    "postcode": "9272164",
    "prefecture": "石川県",
    "prefecture_kana": "イシカワケン",
    "prefecture_code": 17,
    "city": "輪島市",
    "city_kana": "ワジマシ",
    "town": "門前町道下",
    "town_kana": "モンゼンマチトウゲ",
    "street": null,
    "office_name": null,
    "office_name_kana": null
  },
  "2165": {
    "postcode": "9272165",
    "prefecture": "石川県",
    "prefecture_kana": "イシカワケン",
    "prefecture_code": 17,
    "city": "輪島市",
    "city_kana": "ワジマシ",
    "town": "門前町黒島町",
    "town_kana": "モンゼンマチクロシママチ",
    "street": null,
    "office_name": null,
    "office_name_kana": null
  },
  "2166": {
    "postcode": "9272166",
    "prefecture": "石川県",
    "prefecture_kana": "イシカワケン",
    "prefecture_code": 17,
    "city": "輪島市",
    "city_kana": "ワジマシ",
    "town": "門前町鹿磯",
    "town_kana": "モンゼンマチカイソ",
    "street": null,
    "office_name": null,
    "office_name_kana": null
  },
  "2167": {
    "postcode": "9272167",
    "prefecture": "石川県",
    "prefecture_kana": "イシカワケン",
    "prefecture_code": 17,
    "city": "輪島市",
    "city_kana": "ワジマシ",
    "town": "門前町深見",
    "town_kana": "モンゼンマチフカミ",
    "street": null,
    "office_name": null,
    "office_name_kana": null
  },
  "2171": {
    "postcode": "9272171",
    "prefecture": "石川県",
    "prefecture_kana": "イシカワケン",
    "prefecture_code": 17,
    "city": "輪島市",
    "city_kana": "ワジマシ",
    "town": "門前町本市",
    "town_kana": "モンゼンマチモトイチ",
    "street": null,
    "office_name": null,
    "office_name_kana": null
  },
  "2172": {
    "postcode": "9272172",
    "prefecture": "石川県",
    "prefecture_kana": "イシカワケン",
    "prefecture_code": 17,
    "city": "輪島市",
    "city_kana": "ワジマシ",
    "town": "門前町高根尾",
    "town_kana": "モンゼンマチタカネオ",
    "street": null,
    "office_name": null,
    "office_name_kana": null
  },
  "2173": {
    "postcode": "9272173",
    "prefecture": "石川県",
    "prefecture_kana": "イシカワケン",
    "prefecture_code": 17,
    "city": "輪島市",
    "city_kana": "ワジマシ",
    "town": "門前町舘",
    "town_kana": "モンゼンマチタチ",
    "street": null,
    "office_name": null,
    "office_name_kana": null
  },
  "2174": {
    "postcode": "9272174",
    "prefecture": "石川県",
    "prefecture_kana": "イシカワケン",
    "prefecture_code": 17,
    "city": "輪島市",
    "city_kana": "ワジマシ",
    "town": "門前町広岡",
    "town_kana": "モンゼンマチヒロオカ",
    "street": null,
    "office_name": null,
    "office_name_kana": null
  },
  "2175": {
    "postcode": "9272175",
    "prefecture": "石川県",
    "prefecture_kana": "イシカワケン",
    "prefecture_code": 17,
    "city": "輪島市",
    "city_kana": "ワジマシ",
    "town": "門前町清水",
    "town_kana": "モンゼンマチシミズ",
    "street": null,
    "office_name": null,
    "office_name_kana": null
  },
  "2176": {
    "postcode": "9272176",
    "prefecture": "石川県",
    "prefecture_kana": "イシカワケン",
    "prefecture_code": 17,
    "city": "輪島市",
    "city_kana": "ワジマシ",
    "town": "門前町和田",
    "town_kana": "モンゼンマチワダ",
    "street": null,
    "office_name": null,
    "office_name_kana": null
  },
  "2192": {
    "postcode": "9272192",
    "prefecture": "石川県",
    "prefecture_kana": "イシカワケン",
    "prefecture_code": 17,
    "city": "輪島市",
    "city_kana": "ワジマシ",
    "town": "門前町走出",
    "town_kana": "モンゼンマチハシリデ",
    "street": "６−６９",
    "office_name": "輪島市役所　門前総合支所",
    "office_name_kana": "ワジマシヤクシヨ モンゼンソウゴウシシヨ"
  },
  "2193": {
    "postcode": "9272193",
    "prefecture": "石川県",
    "prefecture_kana": "イシカワケン",
    "prefecture_code": 17,
    "city": "輪島市",
    "city_kana": "ワジマシ",
    "town": "門前町広岡",
    "town_kana": "モンゼンマチヒロオカ",
    "street": "５−３",
    "office_name": "石川県立　門前高等学校",
    "office_name_kana": "イシカワケンリツ モンゼンコウトウガツコウ"
  },
  "2271": {
    "postcode": "9272271",
    "prefecture": "石川県",
    "prefecture_kana": "イシカワケン",
    "prefecture_code": 17,
    "city": "輪島市",
    "city_kana": "ワジマシ",
    "town": "門前町皆月",
    "town_kana": "モンゼンマチミナヅキ",
    "street": null,
    "office_name": null,
    "office_name_kana": null
  },
  "2272": {
    "postcode": "9272272",
    "prefecture": "石川県",
    "prefecture_kana": "イシカワケン",
    "prefecture_code": 17,
    "city": "輪島市",
    "city_kana": "ワジマシ",
    "town": "門前町樽見",
    "town_kana": "モンゼンマチタルミ",
    "street": null,
    "office_name": null,
    "office_name_kana": null
  },
  "2273": {
    "postcode": "9272273",
    "prefecture": "石川県",
    "prefecture_kana": "イシカワケン",
    "prefecture_code": 17,
    "city": "輪島市",
    "city_kana": "ワジマシ",
    "town": "門前町暮坂",
    "town_kana": "モンゼンマチクレサカ",
    "street": null,
    "office_name": null,
    "office_name_kana": null
  },
  "2274": {
    "postcode": "9272274",
    "prefecture": "石川県",
    "prefecture_kana": "イシカワケン",
    "prefecture_code": 17,
    "city": "輪島市",
    "city_kana": "ワジマシ",
    "town": "門前町井守上坂",
    "town_kana": "モンゼンマチイモリアゲサカ",
    "street": null,
    "office_name": null,
    "office_name_kana": null
  },
  "2275": {
    "postcode": "9272275",
    "prefecture": "石川県",
    "prefecture_kana": "イシカワケン",
    "prefecture_code": 17,
    "city": "輪島市",
    "city_kana": "ワジマシ",
    "town": "門前町薄野",
    "town_kana": "モンゼンマチススキノ",
    "street": null,
    "office_name": null,
    "office_name_kana": null
  },
  "2276": {
    "postcode": "9272276",
    "prefecture": "石川県",
    "prefecture_kana": "イシカワケン",
    "prefecture_code": 17,
    "city": "輪島市",
    "city_kana": "ワジマシ",
    "town": "門前町百成大角間",
    "town_kana": "モンゼンマチドウミキオオカクマ",
    "street": null,
    "office_name": null,
    "office_name_kana": null
  },
  "2277": {
    "postcode": "9272277",
    "prefecture": "石川県",
    "prefecture_kana": "イシカワケン",
    "prefecture_code": 17,
    "city": "輪島市",
    "city_kana": "ワジマシ",
    "town": "門前町餅田",
    "town_kana": "モンゼンマチモチダ",
    "street": null,
    "office_name": null,
    "office_name_kana": null
  },
  "2281": {
    "postcode": "9272281",
    "prefecture": "石川県",
    "prefecture_kana": "イシカワケン",
    "prefecture_code": 17,
    "city": "輪島市",
    "city_kana": "ワジマシ",
    "town": "門前町鵜山",
    "town_kana": "モンゼンマチウヤマ",
    "street": null,
    "office_name": null,
    "office_name_kana": null
  },
  "2282": {
    "postcode": "9272282",
    "prefecture": "石川県",
    "prefecture_kana": "イシカワケン",
    "prefecture_code": 17,
    "city": "輪島市",
    "city_kana": "ワジマシ",
    "town": "門前町大滝",
    "town_kana": "モンゼンマチオオタキ",
    "street": null,
    "office_name": null,
    "office_name_kana": null
  },
  "2283": {
    "postcode": "9272283",
    "prefecture": "石川県",
    "prefecture_kana": "イシカワケン",
    "prefecture_code": 17,
    "city": "輪島市",
    "city_kana": "ワジマシ",
    "town": "門前町中谷内",
    "town_kana": "モンゼンマチナカヤチ",
    "street": null,
    "office_name": null,
    "office_name_kana": null
  },
  "2284": {
    "postcode": "9272284",
    "prefecture": "石川県",
    "prefecture_kana": "イシカワケン",
    "prefecture_code": 17,
    "city": "輪島市",
    "city_kana": "ワジマシ",
    "town": "門前町矢徳",
    "town_kana": "モンゼンマチヤトク",
    "street": null,
    "office_name": null,
    "office_name_kana": null
  },
  "2285": {
    "postcode": "9272285",
    "prefecture": "石川県",
    "prefecture_kana": "イシカワケン",
    "prefecture_code": 17,
    "city": "輪島市",
    "city_kana": "ワジマシ",
    "town": "門前町吉浦",
    "town_kana": "モンゼンマチヨシウラ",
    "street": null,
    "office_name": null,
    "office_name_kana": null
  },
  "2286": {
    "postcode": "9272286",
    "prefecture": "石川県",
    "prefecture_kana": "イシカワケン",
    "prefecture_code": 17,
    "city": "輪島市",
    "city_kana": "ワジマシ",
    "town": "門前町五十洲",
    "town_kana": "モンゼンマチイギス",
    "street": null,
    "office_name": null,
    "office_name_kana": null
  },
  "2301": {
    "postcode": "9272301",
    "prefecture": "石川県",
    "prefecture_kana": "イシカワケン",
    "prefecture_code": 17,
    "city": "輪島市",
    "city_kana": "ワジマシ",
    "town": "門前町二又",
    "town_kana": "モンゼンマチフタマタ",
    "street": null,
    "office_name": null,
    "office_name_kana": null
  },
  "2302": {
    "postcode": "9272302",
    "prefecture": "石川県",
    "prefecture_kana": "イシカワケン",
    "prefecture_code": 17,
    "city": "輪島市",
    "city_kana": "ワジマシ",
    "town": "門前町山是清",
    "town_kana": "モンゼンマチヤマコレキヨ",
    "street": null,
    "office_name": null,
    "office_name_kana": null
  },
  "2303": {
    "postcode": "9272303",
    "prefecture": "石川県",
    "prefecture_kana": "イシカワケン",
    "prefecture_code": 17,
    "city": "輪島市",
    "city_kana": "ワジマシ",
    "town": "門前町江崎",
    "town_kana": "モンゼンマチエサキ",
    "street": null,
    "office_name": null,
    "office_name_kana": null
  },
  "2304": {
    "postcode": "9272304",
    "prefecture": "石川県",
    "prefecture_kana": "イシカワケン",
    "prefecture_code": 17,
    "city": "輪島市",
    "city_kana": "ワジマシ",
    "town": "門前町白禿",
    "town_kana": "モンゼンマチシラハゲ",
    "street": null,
    "office_name": null,
    "office_name_kana": null
  },
  "2305": {
    "postcode": "9272305",
    "prefecture": "石川県",
    "prefecture_kana": "イシカワケン",
    "prefecture_code": 17,
    "city": "輪島市",
    "city_kana": "ワジマシ",
    "town": "門前町大切",
    "town_kana": "モンゼンマチオオギリ",
    "street": null,
    "office_name": null,
    "office_name_kana": null
  },
  "2311": {
    "postcode": "9272311",
    "prefecture": "石川県",
    "prefecture_kana": "イシカワケン",
    "prefecture_code": 17,
    "city": "輪島市",
    "city_kana": "ワジマシ",
    "town": "門前町切狭",
    "town_kana": "モンゼンマチキリバサミ",
    "street": null,
    "office_name": null,
    "office_name_kana": null
  },
  "2312": {
    "postcode": "9272312",
    "prefecture": "石川県",
    "prefecture_kana": "イシカワケン",
    "prefecture_code": 17,
    "city": "輪島市",
    "city_kana": "ワジマシ",
    "town": "門前町西中谷",
    "town_kana": "モンゼンマチニシナカタニ",
    "street": null,
    "office_name": null,
    "office_name_kana": null
  },
  "2313": {
    "postcode": "9272313",
    "prefecture": "石川県",
    "prefecture_kana": "イシカワケン",
    "prefecture_code": 17,
    "city": "輪島市",
    "city_kana": "ワジマシ",
    "town": "門前町清沢",
    "town_kana": "モンゼンマチセイザワ",
    "street": null,
    "office_name": null,
    "office_name_kana": null
  },
  "2314": {
    "postcode": "9272314",
    "prefecture": "石川県",
    "prefecture_kana": "イシカワケン",
    "prefecture_code": 17,
    "city": "輪島市",
    "city_kana": "ワジマシ",
    "town": "門前町飯川谷",
    "town_kana": "モンゼンマチイガワダニ",
    "street": null,
    "office_name": null,
    "office_name_kana": null
  },
  "2321": {
    "postcode": "9272321",
    "prefecture": "石川県",
    "prefecture_kana": "イシカワケン",
    "prefecture_code": 17,
    "city": "輪島市",
    "city_kana": "ワジマシ",
    "town": "門前町久川",
    "town_kana": "モンゼンマチキュウカワ",
    "street": null,
    "office_name": null,
    "office_name_kana": null
  },
  "2322": {
    "postcode": "9272322",
    "prefecture": "石川県",
    "prefecture_kana": "イシカワケン",
    "prefecture_code": 17,
    "city": "輪島市",
    "city_kana": "ワジマシ",
    "town": "門前町窕",
    "town_kana": "モンゼンマチウツロ",
    "street": null,
    "office_name": null,
    "office_name_kana": null
  },
  "2323": {
    "postcode": "9272323",
    "prefecture": "石川県",
    "prefecture_kana": "イシカワケン",
    "prefecture_code": 17,
    "city": "輪島市",
    "city_kana": "ワジマシ",
    "town": "門前町神明原",
    "town_kana": "モンゼンマチシメハラ",
    "street": null,
    "office_name": null,
    "office_name_kana": null
  },
  "2324": {
    "postcode": "9272324",
    "prefecture": "石川県",
    "prefecture_kana": "イシカワケン",
    "prefecture_code": 17,
    "city": "輪島市",
    "city_kana": "ワジマシ",
    "town": "門前町馬渡",
    "town_kana": "モンゼンマチマワタリ",
    "street": null,
    "office_name": null,
    "office_name_kana": null
  },
  "2325": {
    "postcode": "9272325",
    "prefecture": "石川県",
    "prefecture_kana": "イシカワケン",
    "prefecture_code": 17,
    "city": "輪島市",
    "city_kana": "ワジマシ",
    "town": "門前町滝町",
    "town_kana": "モンゼンマチタキマチ",
    "street": null,
    "office_name": null,
    "office_name_kana": null
  },
  "2331": {
    "postcode": "9272331",
    "prefecture": "石川県",
    "prefecture_kana": "イシカワケン",
    "prefecture_code": 17,
    "city": "輪島市",
    "city_kana": "ワジマシ",
    "town": "門前町渡瀬",
    "town_kana": "モンゼンマチワタセ",
    "street": null,
    "office_name": null,
    "office_name_kana": null
  },
  "2332": {
    "postcode": "9272332",
    "prefecture": "石川県",
    "prefecture_kana": "イシカワケン",
    "prefecture_code": 17,
    "city": "輪島市",
    "city_kana": "ワジマシ",
    "town": "門前町木原月",
    "town_kana": "モンゼンマチキハラヅキ",
    "street": null,
    "office_name": null,
    "office_name_kana": null
  },
  "2333": [
    {
      "postcode": "9272333",
      "prefecture": "石川県",
      "prefecture_kana": "イシカワケン",
      "prefecture_code": 17,
      "city": "輪島市",
      "city_kana": "ワジマシ",
      "town": "門前町館分",
      "town_kana": "モンゼンマチタチブン",
      "street": null,
      "office_name": null,
      "office_name_kana": null
    },
    {
      "postcode": "9272333",
      "prefecture": "石川県",
      "prefecture_kana": "イシカワケン",
      "prefecture_code": 17,
      "city": "輪島市",
      "city_kana": "ワジマシ",
      "town": "門前町馬場",
      "town_kana": "モンゼンマチバンバ",
      "street": null,
      "office_name": null,
      "office_name_kana": null
    }
  ],
  "2334": {
    "postcode": "9272334",
    "prefecture": "石川県",
    "prefecture_kana": "イシカワケン",
    "prefecture_code": 17,
    "city": "輪島市",
    "city_kana": "ワジマシ",
    "town": "門前町上代",
    "town_kana": "モンゼンマチウワダイ",
    "street": null,
    "office_name": null,
    "office_name_kana": null
  },
  "2335": {
    "postcode": "9272335",
    "prefecture": "石川県",
    "prefecture_kana": "イシカワケン",
    "prefecture_code": 17,
    "city": "輪島市",
    "city_kana": "ワジマシ",
    "town": "門前町黒岩",
    "town_kana": "モンゼンマチクロイワ",
    "street": null,
    "office_name": null,
    "office_name_kana": null
  },
  "2336": {
    "postcode": "9272336",
    "prefecture": "石川県",
    "prefecture_kana": "イシカワケン",
    "prefecture_code": 17,
    "city": "輪島市",
    "city_kana": "ワジマシ",
    "town": "門前町入山",
    "town_kana": "モンゼンマチイリヤマ",
    "street": null,
    "office_name": null,
    "office_name_kana": null
  },
  "2341": {
    "postcode": "9272341",
    "prefecture": "石川県",
    "prefecture_kana": "イシカワケン",
    "prefecture_code": 17,
    "city": "輪島市",
    "city_kana": "ワジマシ",
    "town": "門前町大釜",
    "town_kana": "モンゼンマチオオガマ",
    "street": null,
    "office_name": null,
    "office_name_kana": null
  },
  "2342": {
    "postcode": "9272342",
    "prefecture": "石川県",
    "prefecture_kana": "イシカワケン",
    "prefecture_code": 17,
    "city": "輪島市",
    "city_kana": "ワジマシ",
    "town": "門前町剱地",
    "town_kana": "モンゼンマチツルギヂ",
    "street": null,
    "office_name": null,
    "office_name_kana": null
  },
  "2343": {
    "postcode": "9272343",
    "prefecture": "石川県",
    "prefecture_kana": "イシカワケン",
    "prefecture_code": 17,
    "city": "輪島市",
    "city_kana": "ワジマシ",
    "town": "門前町大泊",
    "town_kana": "モンゼンマチオオドマリ",
    "street": null,
    "office_name": null,
    "office_name_kana": null
  },
  "2344": {
    "postcode": "9272344",
    "prefecture": "石川県",
    "prefecture_kana": "イシカワケン",
    "prefecture_code": 17,
    "city": "輪島市",
    "city_kana": "ワジマシ",
    "town": "門前町腰細",
    "town_kana": "モンゼンマチコシボソ",
    "street": null,
    "office_name": null,
    "office_name_kana": null
  },
  "2345": {
    "postcode": "9272345",
    "prefecture": "石川県",
    "prefecture_kana": "イシカワケン",
    "prefecture_code": 17,
    "city": "輪島市",
    "city_kana": "ワジマシ",
    "town": "門前町赤神",
    "town_kana": "モンゼンマチアカカミ",
    "street": null,
    "office_name": null,
    "office_name_kana": null
  },
  "2351": {
    "postcode": "9272351",
    "prefecture": "石川県",
    "prefecture_kana": "イシカワケン",
    "prefecture_code": 17,
    "city": "輪島市",
    "city_kana": "ワジマシ",
    "town": "門前町千代",
    "town_kana": "モンゼンマチセンダイ",
    "street": null,
    "office_name": null,
    "office_name_kana": null
  },
  "2352": {
    "postcode": "9272352",
    "prefecture": "石川県",
    "prefecture_kana": "イシカワケン",
    "prefecture_code": 17,
    "city": "輪島市",
    "city_kana": "ワジマシ",
    "town": "門前町北川",
    "town_kana": "モンゼンマチキタガワ",
    "street": null,
    "office_name": null,
    "office_name_kana": null
  },
  "2353": {
    "postcode": "9272353",
    "prefecture": "石川県",
    "prefecture_kana": "イシカワケン",
    "prefecture_code": 17,
    "city": "輪島市",
    "city_kana": "ワジマシ",
    "town": "門前町是清",
    "town_kana": "モンゼンマチコレキヨ",
    "street": null,
    "office_name": null,
    "office_name_kana": null
  },
  "2354": {
    "postcode": "9272354",
    "prefecture": "石川県",
    "prefecture_kana": "イシカワケン",
    "prefecture_code": 17,
    "city": "輪島市",
    "city_kana": "ワジマシ",
    "town": "門前町池田",
    "town_kana": "モンゼンマチイケダ",
    "street": null,
    "office_name": null,
    "office_name_kana": null
  },
  "2355": {
    "postcode": "9272355",
    "prefecture": "石川県",
    "prefecture_kana": "イシカワケン",
    "prefecture_code": 17,
    "city": "輪島市",
    "city_kana": "ワジマシ",
    "town": "門前町藤浜",
    "town_kana": "モンゼンマチフジノハマ",
    "street": null,
    "office_name": null,
    "office_name_kana": null
  },
  "2361": {
    "postcode": "9272361",
    "prefecture": "石川県",
    "prefecture_kana": "イシカワケン",
    "prefecture_code": 17,
    "city": "輪島市",
    "city_kana": "ワジマシ",
    "town": "門前町小山",
    "town_kana": "モンゼンマチコヤマ",
    "street": null,
    "office_name": null,
    "office_name_kana": null
  },
  "2362": {
    "postcode": "9272362",
    "prefecture": "石川県",
    "prefecture_kana": "イシカワケン",
    "prefecture_code": 17,
    "city": "輪島市",
    "city_kana": "ワジマシ",
    "town": "門前町椎木",
    "town_kana": "モンゼンマチシイノキ",
    "street": null,
    "office_name": null,
    "office_name_kana": null
  },
  "2363": {
    "postcode": "9272363",
    "prefecture": "石川県",
    "prefecture_kana": "イシカワケン",
    "prefecture_code": 17,
    "city": "輪島市",
    "city_kana": "ワジマシ",
    "town": "門前町新町分",
    "town_kana": "モンゼンマチシンマチブン",
    "street": null,
    "office_name": null,
    "office_name_kana": null
  },
  "2364": {
    "postcode": "9272364",
    "prefecture": "石川県",
    "prefecture_kana": "イシカワケン",
    "prefecture_code": 17,
    "city": "輪島市",
    "city_kana": "ワジマシ",
    "town": "門前町鍛治屋",
    "town_kana": "モンゼンマチカジヤ",
    "street": null,
    "office_name": null,
    "office_name_kana": null
  },
  "2365": {
    "postcode": "9272365",
    "prefecture": "石川県",
    "prefecture_kana": "イシカワケン",
    "prefecture_code": 17,
    "city": "輪島市",
    "city_kana": "ワジマシ",
    "town": "門前町南",
    "town_kana": "モンゼンマチミナミ",
    "street": null,
    "office_name": null,
    "office_name_kana": null
  },
  "2366": {
    "postcode": "9272366",
    "prefecture": "石川県",
    "prefecture_kana": "イシカワケン",
    "prefecture_code": 17,
    "city": "輪島市",
    "city_kana": "ワジマシ",
    "town": "門前町中田",
    "town_kana": "モンゼンマチナカタ",
    "street": null,
    "office_name": null,
    "office_name_kana": null
  },
  "8601": {
    "postcode": "9278601",
    "prefecture": "石川県",
    "prefecture_kana": "イシカワケン",
    "prefecture_code": 17,
    "city": "鳳珠郡穴水町",
    "city_kana": "ホウスグンアナミズマチ",
    "town": "字川島",
    "town_kana": null,
    "street": "ラ−１７４（穴水郵便局私書箱第３号）",
    "office_name": "穴水町役場",
    "office_name_kana": "アナミズマチヤクバ"
  }
}