{
  "0001": {
    "postcode": "9340001",
    "prefecture": "富山県",
    "prefecture_kana": "トヤマケン",
    "prefecture_code": 16,
    "city": "射水市",
    "city_kana": "イミズシ",
    "town": "庄西町",
    "town_kana": "ショウセイマチ",
    "street": null,
    "office_name": null,
    "office_name_kana": null
  },
  "0002": {
    "postcode": "9340002",
    "prefecture": "富山県",
    "prefecture_kana": "トヤマケン",
    "prefecture_code": 16,
    "city": "射水市",
    "city_kana": "イミズシ",
    "town": "港町",
    "town_kana": "ミナトマチ",
    "street": null,
    "office_name": null,
    "office_name_kana": null
  },
  "0003": {
    "postcode": "9340003",
    "prefecture": "富山県",
    "prefecture_kana": "トヤマケン",
    "prefecture_code": 16,
    "city": "射水市",
    "city_kana": "イミズシ",
    "town": "庄川本町",
    "town_kana": "ショウガワホンマチ",
    "street": null,
    "office_name": null,
    "office_name_kana": null
  },
  "0004": {
    "postcode": "9340004",
    "prefecture": "富山県",
    "prefecture_kana": "トヤマケン",
    "prefecture_code": 16,
    "city": "射水市",
    "city_kana": "イミズシ",
    "town": "西新湊",
    "town_kana": "ニシシンミナト",
    "street": null,
    "office_name": null,
    "office_name_kana": null
  },
  "0005": {
    "postcode": "9340005",
    "prefecture": "富山県",
    "prefecture_kana": "トヤマケン",
    "prefecture_code": 16,
    "city": "射水市",
    "city_kana": "イミズシ",
    "town": "善光寺",
    "town_kana": "ゼンコウジ",
    "street": null,
    "office_name": null,
    "office_name_kana": null
  },
  "0011": {
    "postcode": "9340011",
    "prefecture": "富山県",
    "prefecture_kana": "トヤマケン",
    "prefecture_code": 16,
    "city": "射水市",
    "city_kana": "イミズシ",
    "town": "本町",
    "town_kana": "ホンマチ",
    "street": null,
    "office_name": null,
    "office_name_kana": null
  },
  "0012": {
    "postcode": "9340012",
    "prefecture": "富山県",
    "prefecture_kana": "トヤマケン",
    "prefecture_code": 16,
    "city": "射水市",
    "city_kana": "イミズシ",
    "town": "中央町",
    "town_kana": "チュウオウマチ",
    "street": null,
    "office_name": null,
    "office_name_kana": null
  },
  "0013": {
    "postcode": "9340013",
    "prefecture": "富山県",
    "prefecture_kana": "トヤマケン",
    "prefecture_code": 16,
    "city": "射水市",
    "city_kana": "イミズシ",
    "town": "立町",
    "town_kana": "タテマチ",
    "street": null,
    "office_name": null,
    "office_name_kana": null
  },
  "0014": {
    "postcode": "9340014",
    "prefecture": "富山県",
    "prefecture_kana": "トヤマケン",
    "prefecture_code": 16,
    "city": "射水市",
    "city_kana": "イミズシ",
    "town": "緑町",
    "town_kana": "ミドリマチ",
    "street": null,
    "office_name": null,
    "office_name_kana": null
  },
  "0015": {
    "postcode": "9340015",
    "prefecture": "富山県",
    "prefecture_kana": "トヤマケン",
    "prefecture_code": 16,
    "city": "射水市",
    "city_kana": "イミズシ",
    "town": "桜町",
    "town_kana": "サクラマチ",
    "street": null,
    "office_name": null,
    "office_name_kana": null
  },
  "0016": {
    "postcode": "9340016",
    "prefecture": "富山県",
    "prefecture_kana": "トヤマケン",
    "prefecture_code": 16,
    "city": "射水市",
    "city_kana": "イミズシ",
    "town": "三日曽根",
    "town_kana": "ミッカソネ",
    "street": null,
    "office_name": null,
    "office_name_kana": null
  },
  "0021": [
    {
      "postcode": "9340021",
      "prefecture": "富山県",
      "prefecture_kana": "トヤマケン",
      "prefecture_code": 16,
      "city": "射水市",
      "city_kana": "イミズシ",
      "town": "堀岡新明神",
      "town_kana": "ホリオカシンミョウジン",
      "street": null,
      "office_name": null,
      "office_name_kana": null
    },
    {
      "postcode": "9340021",
      "prefecture": "富山県",
      "prefecture_kana": "トヤマケン",
      "prefecture_code": 16,
      "city": "射水市",
      "city_kana": "イミズシ",
      "town": "堀岡新明神西浜",
      "town_kana": "ホリオカシンミョウジンニシハマ",
      "street": null,
      "office_name": null,
      "office_name_kana": null
    }
  ],
  "0022": {
    "postcode": "9340022",
    "prefecture": "富山県",
    "prefecture_kana": "トヤマケン",
    "prefecture_code": 16,
    "city": "射水市",
    "city_kana": "イミズシ",
    "town": "放生津町",
    "town_kana": "ホウジョウヅマチ",
    "street": null,
    "office_name": null,
    "office_name_kana": null
  },
  "0023": {
    "postcode": "9340023",
    "prefecture": "富山県",
    "prefecture_kana": "トヤマケン",
    "prefecture_code": 16,
    "city": "射水市",
    "city_kana": "イミズシ",
    "town": "海王町",
    "town_kana": "カイオウマチ",
    "street": null,
    "office_name": null,
    "office_name_kana": null
  },
  "0024": {
    "postcode": "9340024",
    "prefecture": "富山県",
    "prefecture_kana": "トヤマケン",
    "prefecture_code": 16,
    "city": "射水市",
    "city_kana": "イミズシ",
    "town": "越の潟町",
    "town_kana": "コシノカタマチ",
    "street": null,
    "office_name": null,
    "office_name_kana": null
  },
  "0025": {
    "postcode": "9340025",
    "prefecture": "富山県",
    "prefecture_kana": "トヤマケン",
    "prefecture_code": 16,
    "city": "射水市",
    "city_kana": "イミズシ",
    "town": "八幡町",
    "town_kana": "ハチマンマチ",
    "street": null,
    "office_name": null,
    "office_name_kana": null
  },
  "0026": {
    "postcode": "9340026",
    "prefecture": "富山県",
    "prefecture_kana": "トヤマケン",
    "prefecture_code": 16,
    "city": "射水市",
    "city_kana": "イミズシ",
    "town": "二の丸町",
    "town_kana": "ニノマルマチ",
    "street": null,
    "office_name": null,
    "office_name_kana": null
  },
  "0027": {
    "postcode": "9340027",
    "prefecture": "富山県",
    "prefecture_kana": "トヤマケン",
    "prefecture_code": 16,
    "city": "射水市",
    "city_kana": "イミズシ",
    "town": "中新湊",
    "town_kana": "ナカシンミナト",
    "street": null,
    "office_name": null,
    "office_name_kana": null
  },
  "0031": {
    "postcode": "9340031",
    "prefecture": "富山県",
    "prefecture_kana": "トヤマケン",
    "prefecture_code": 16,
    "city": "射水市",
    "city_kana": "イミズシ",
    "town": "奈呉の江",
    "town_kana": "ナゴノエ",
    "street": null,
    "office_name": null,
    "office_name_kana": null
  },
  "0032": {
    "postcode": "9340032",
    "prefecture": "富山県",
    "prefecture_kana": "トヤマケン",
    "prefecture_code": 16,
    "city": "射水市",
    "city_kana": "イミズシ",
    "town": "片口",
    "town_kana": "カタグチ",
    "street": null,
    "office_name": null,
    "office_name_kana": null
  },
  "0033": {
    "postcode": "9340033",
    "prefecture": "富山県",
    "prefecture_kana": "トヤマケン",
    "prefecture_code": 16,
    "city": "射水市",
    "city_kana": "イミズシ",
    "town": "新片町",
    "town_kana": "シンカタマチ",
    "street": null,
    "office_name": null,
    "office_name_kana": null
  },
  "0034": {
    "postcode": "9340034",
    "prefecture": "富山県",
    "prefecture_kana": "トヤマケン",
    "prefecture_code": 16,
    "city": "射水市",
    "city_kana": "イミズシ",
    "town": "高場新町",
    "town_kana": "タカバシンマチ",
    "street": null,
    "office_name": null,
    "office_name_kana": null
  },
  "0035": {
    "postcode": "9340035",
    "prefecture": "富山県",
    "prefecture_kana": "トヤマケン",
    "prefecture_code": 16,
    "city": "射水市",
    "city_kana": "イミズシ",
    "town": "新堀",
    "town_kana": "シンボリ",
    "street": null,
    "office_name": null,
    "office_name_kana": null
  },
  "0036": {
    "postcode": "9340036",
    "prefecture": "富山県",
    "prefecture_kana": "トヤマケン",
    "prefecture_code": 16,
    "city": "射水市",
    "city_kana": "イミズシ",
    "town": "片口高場",
    "town_kana": "カタグチタカバ",
    "street": null,
    "office_name": null,
    "office_name_kana": null
  },
  "0037": {
    "postcode": "9340037",
    "prefecture": "富山県",
    "prefecture_kana": "トヤマケン",
    "prefecture_code": 16,
    "city": "射水市",
    "city_kana": "イミズシ",
    "town": "片口久々江",
    "town_kana": "カタグチクグエ",
    "street": null,
    "office_name": null,
    "office_name_kana": null
  },
  "0038": {
    "postcode": "9340038",
    "prefecture": "富山県",
    "prefecture_kana": "トヤマケン",
    "prefecture_code": 16,
    "city": "射水市",
    "city_kana": "イミズシ",
    "town": "津幡江",
    "town_kana": "ツバタエ",
    "street": null,
    "office_name": null,
    "office_name_kana": null
  },
  "0039": {
    "postcode": "9340039",
    "prefecture": "富山県",
    "prefecture_kana": "トヤマケン",
    "prefecture_code": 16,
    "city": "射水市",
    "city_kana": "イミズシ",
    "town": "久々湊",
    "town_kana": "クグミナト",
    "street": null,
    "office_name": null,
    "office_name_kana": null
  },
  "0040": {
    "postcode": "9340040",
    "prefecture": "富山県",
    "prefecture_kana": "トヤマケン",
    "prefecture_code": 16,
    "city": "射水市",
    "city_kana": "イミズシ",
    "town": "鏡宮弥生",
    "town_kana": "カガノミヤヤヨイ",
    "street": null,
    "office_name": null,
    "office_name_kana": null
  },
  "0041": [
    {
      "postcode": "9340041",
      "prefecture": "富山県",
      "prefecture_kana": "トヤマケン",
      "prefecture_code": 16,
      "city": "射水市",
      "city_kana": "イミズシ",
      "town": "作道",
      "town_kana": "ツクリミチ",
      "street": null,
      "office_name": null,
      "office_name_kana": null
    },
    {
      "postcode": "9340041",
      "prefecture": "富山県",
      "prefecture_kana": "トヤマケン",
      "prefecture_code": 16,
      "city": "射水市",
      "city_kana": "イミズシ",
      "town": "作道新生町",
      "town_kana": "ツクリミチシンセイチョウ",
      "street": null,
      "office_name": null,
      "office_name_kana": null
    }
  ],
  "0042": {
    "postcode": "9340042",
    "prefecture": "富山県",
    "prefecture_kana": "トヤマケン",
    "prefecture_code": 16,
    "city": "射水市",
    "city_kana": "イミズシ",
    "town": "作道",
    "town_kana": "ツクリミチ",
    "street": null,
    "office_name": null,
    "office_name_kana": null
  },
  "0043": {
    "postcode": "9340043",
    "prefecture": "富山県",
    "prefecture_kana": "トヤマケン",
    "prefecture_code": 16,
    "city": "射水市",
    "city_kana": "イミズシ",
    "town": "野村",
    "town_kana": "ノムラ",
    "street": null,
    "office_name": null,
    "office_name_kana": null
  },
  "0044": {
    "postcode": "9340044",
    "prefecture": "富山県",
    "prefecture_kana": "トヤマケン",
    "prefecture_code": 16,
    "city": "射水市",
    "city_kana": "イミズシ",
    "town": "殿村",
    "town_kana": "トノムラ",
    "street": null,
    "office_name": null,
    "office_name_kana": null
  },
  "0045": {
    "postcode": "9340045",
    "prefecture": "富山県",
    "prefecture_kana": "トヤマケン",
    "prefecture_code": 16,
    "city": "射水市",
    "city_kana": "イミズシ",
    "town": "沖",
    "town_kana": "オキ",
    "street": null,
    "office_name": null,
    "office_name_kana": null
  },
  "0046": {
    "postcode": "9340046",
    "prefecture": "富山県",
    "prefecture_kana": "トヤマケン",
    "prefecture_code": 16,
    "city": "射水市",
    "city_kana": "イミズシ",
    "town": "今井",
    "town_kana": "イマイ",
    "street": null,
    "office_name": null,
    "office_name_kana": null
  },
  "0047": {
    "postcode": "9340047",
    "prefecture": "富山県",
    "prefecture_kana": "トヤマケン",
    "prefecture_code": 16,
    "city": "射水市",
    "city_kana": "イミズシ",
    "town": "高木",
    "town_kana": "タカキ",
    "street": null,
    "office_name": null,
    "office_name_kana": null
  },
  "0048": {
    "postcode": "9340048",
    "prefecture": "富山県",
    "prefecture_kana": "トヤマケン",
    "prefecture_code": 16,
    "city": "射水市",
    "city_kana": "イミズシ",
    "town": "布目",
    "town_kana": "ヌノメ",
    "street": null,
    "office_name": null,
    "office_name_kana": null
  },
  "0049": {
    "postcode": "9340049",
    "prefecture": "富山県",
    "prefecture_kana": "トヤマケン",
    "prefecture_code": 16,
    "city": "射水市",
    "city_kana": "イミズシ",
    "town": "鏡宮",
    "town_kana": "カガノミヤ",
    "street": null,
    "office_name": null,
    "office_name_kana": null
  },
  "0051": {
    "postcode": "9340051",
    "prefecture": "富山県",
    "prefecture_kana": "トヤマケン",
    "prefecture_code": 16,
    "city": "射水市",
    "city_kana": "イミズシ",
    "town": "宮袋",
    "town_kana": "ミヤブクロ",
    "street": null,
    "office_name": null,
    "office_name_kana": null
  },
  "0052": {
    "postcode": "9340052",
    "prefecture": "富山県",
    "prefecture_kana": "トヤマケン",
    "prefecture_code": 16,
    "city": "射水市",
    "city_kana": "イミズシ",
    "town": "松木",
    "town_kana": "マツノキ",
    "street": null,
    "office_name": null,
    "office_name_kana": null
  },
  "0053": {
    "postcode": "9340053",
    "prefecture": "富山県",
    "prefecture_kana": "トヤマケン",
    "prefecture_code": 16,
    "city": "射水市",
    "city_kana": "イミズシ",
    "town": "朴木",
    "town_kana": "ホオノキ",
    "street": null,
    "office_name": null,
    "office_name_kana": null
  },
  "0054": {
    "postcode": "9340054",
    "prefecture": "富山県",
    "prefecture_kana": "トヤマケン",
    "prefecture_code": 16,
    "city": "射水市",
    "city_kana": "イミズシ",
    "town": "神楽町",
    "town_kana": "カグラマチ",
    "street": null,
    "office_name": null,
    "office_name_kana": null
  },
  "0055": {
    "postcode": "9340055",
    "prefecture": "富山県",
    "prefecture_kana": "トヤマケン",
    "prefecture_code": 16,
    "city": "射水市",
    "city_kana": "イミズシ",
    "town": "沖塚原",
    "town_kana": "オキツカハラ",
    "street": null,
    "office_name": null,
    "office_name_kana": null
  },
  "0056": {
    "postcode": "9340056",
    "prefecture": "富山県",
    "prefecture_kana": "トヤマケン",
    "prefecture_code": 16,
    "city": "射水市",
    "city_kana": "イミズシ",
    "town": "寺塚原",
    "town_kana": "テラツカハラ",
    "street": null,
    "office_name": null,
    "office_name_kana": null
  },
  "0057": {
    "postcode": "9340057",
    "prefecture": "富山県",
    "prefecture_kana": "トヤマケン",
    "prefecture_code": 16,
    "city": "射水市",
    "city_kana": "イミズシ",
    "town": "坂東",
    "town_kana": "バンドウ",
    "street": null,
    "office_name": null,
    "office_name_kana": null
  },
  "0058": {
    "postcode": "9340058",
    "prefecture": "富山県",
    "prefecture_kana": "トヤマケン",
    "prefecture_code": 16,
    "city": "射水市",
    "city_kana": "イミズシ",
    "town": "川口",
    "town_kana": "カワグチ",
    "street": null,
    "office_name": null,
    "office_name_kana": null
  },
  "0091": {
    "postcode": "9340091",
    "prefecture": "富山県",
    "prefecture_kana": "トヤマケン",
    "prefecture_code": 16,
    "city": "高岡市",
    "city_kana": "タカオカシ",
    "town": "下牧野",
    "town_kana": "シモマキノ",
    "street": null,
    "office_name": null,
    "office_name_kana": null
  },
  "0092": {
    "postcode": "9340092",
    "prefecture": "富山県",
    "prefecture_kana": "トヤマケン",
    "prefecture_code": 16,
    "city": "高岡市",
    "city_kana": "タカオカシ",
    "town": "中曽根",
    "town_kana": "ナカソネ",
    "street": null,
    "office_name": null,
    "office_name_kana": null
  },
  "0093": [
    {
      "postcode": "9340093",
      "prefecture": "富山県",
      "prefecture_kana": "トヤマケン",
      "prefecture_code": 16,
      "city": "高岡市",
      "city_kana": "タカオカシ",
      "town": "姫野",
      "town_kana": "ヒメノ",
      "street": null,
      "office_name": null,
      "office_name_kana": null
    },
    {
      "postcode": "9340093",
      "prefecture": "富山県",
      "prefecture_kana": "トヤマケン",
      "prefecture_code": 16,
      "city": "高岡市",
      "city_kana": "タカオカシ",
      "town": "放生津",
      "town_kana": "ホウジョウヅ",
      "street": null,
      "office_name": null,
      "office_name_kana": null
    }
  ],
  "0094": {
    "postcode": "9340094",
    "prefecture": "富山県",
    "prefecture_kana": "トヤマケン",
    "prefecture_code": 16,
    "city": "高岡市",
    "city_kana": "タカオカシ",
    "town": "堀岡又新",
    "town_kana": "ホリオカマタシン",
    "street": null,
    "office_name": null,
    "office_name_kana": null
  },
  "0095": {
    "postcode": "9340095",
    "prefecture": "富山県",
    "prefecture_kana": "トヤマケン",
    "prefecture_code": 16,
    "city": "高岡市",
    "city_kana": "タカオカシ",
    "town": "石丸",
    "town_kana": "イシマル",
    "street": null,
    "office_name": null,
    "office_name_kana": null
  },
  "0096": {
    "postcode": "9340096",
    "prefecture": "富山県",
    "prefecture_kana": "トヤマケン",
    "prefecture_code": 16,
    "city": "高岡市",
    "city_kana": "タカオカシ",
    "town": "金屋",
    "town_kana": "カナヤ",
    "street": null,
    "office_name": null,
    "office_name_kana": null
  },
  "0097": {
    "postcode": "9340097",
    "prefecture": "富山県",
    "prefecture_kana": "トヤマケン",
    "prefecture_code": 16,
    "city": "高岡市",
    "city_kana": "タカオカシ",
    "town": "牧野金屋",
    "town_kana": "マキノカナヤ",
    "street": null,
    "office_name": null,
    "office_name_kana": null
  },
  "0098": {
    "postcode": "9340098",
    "prefecture": "富山県",
    "prefecture_kana": "トヤマケン",
    "prefecture_code": 16,
    "city": "高岡市",
    "city_kana": "タカオカシ",
    "town": "上牧野",
    "town_kana": "カミマキノ",
    "street": null,
    "office_name": null,
    "office_name_kana": null
  },
  "0099": {
    "postcode": "9340099",
    "prefecture": "富山県",
    "prefecture_kana": "トヤマケン",
    "prefecture_code": 16,
    "city": "高岡市",
    "city_kana": "タカオカシ",
    "town": "若葉町",
    "town_kana": "ワカバチョウ",
    "street": null,
    "office_name": null,
    "office_name_kana": null
  },
  "8501": {
    "postcode": "9348501",
    "prefecture": "富山県",
    "prefecture_kana": "トヤマケン",
    "prefecture_code": 16,
    "city": "射水市",
    "city_kana": "イミズシ",
    "town": "奈呉の江",
    "town_kana": "ナゴノエ",
    "street": "１２−２",
    "office_name": "黒谷　株式会社",
    "office_name_kana": "クロタニ カブシキガイシヤ"
  },
  "8502": {
    "postcode": "9348502",
    "prefecture": "富山県",
    "prefecture_kana": "トヤマケン",
    "prefecture_code": 16,
    "city": "射水市",
    "city_kana": "イミズシ",
    "town": "八幡町",
    "town_kana": "ハチマンマチ",
    "street": "３丁目１０−１５",
    "office_name": "日本高周波鋼業　株式会社　富山製造所",
    "office_name_kana": "ニホンコウシユウハコウギヨウ カブシキガイシヤ トヤマセイゾウシヨ"
  },
  "8511": {
    "postcode": "9348511",
    "prefecture": "富山県",
    "prefecture_kana": "トヤマケン",
    "prefecture_code": 16,
    "city": "射水市",
    "city_kana": "イミズシ",
    "town": "新堀",
    "town_kana": "シンボリ",
    "street": "２３番１",
    "office_name": "三協立山　株式会社　新湊工場",
    "office_name_kana": "サンキヨウタテヤマ カブシキガイシヤ シンミナトコウジヨウ"
  },
  "8515": {
    "postcode": "9348515",
    "prefecture": "富山県",
    "prefecture_kana": "トヤマケン",
    "prefecture_code": 16,
    "city": "射水市",
    "city_kana": "イミズシ",
    "town": "奈呉の江",
    "town_kana": "ナゴノエ",
    "street": "８−３",
    "office_name": "富山合金　株式会社",
    "office_name_kana": "トヤマゴウキン カブシキガイシヤ"
  },
  "8522": {
    "postcode": "9348522",
    "prefecture": "富山県",
    "prefecture_kana": "トヤマケン",
    "prefecture_code": 16,
    "city": "射水市",
    "city_kana": "イミズシ",
    "town": "奈呉の江",
    "town_kana": "ナゴノエ",
    "street": "１０−２",
    "office_name": "富山住友電工　株式会社",
    "office_name_kana": "トヤマスミトモデンコウ カブシキガイシヤ"
  },
  "8531": {
    "postcode": "9348531",
    "prefecture": "富山県",
    "prefecture_kana": "トヤマケン",
    "prefecture_code": 16,
    "city": "射水市",
    "city_kana": "イミズシ",
    "town": "奈呉の江",
    "town_kana": "ナゴノエ",
    "street": "１３−８",
    "office_name": "三精工業　株式会社",
    "office_name_kana": "サンセイコウギヨウ カブシキガイシヤ"
  },
  "8534": {
    "postcode": "9348534",
    "prefecture": "富山県",
    "prefecture_kana": "トヤマケン",
    "prefecture_code": 16,
    "city": "射水市",
    "city_kana": "イミズシ",
    "town": "新堀",
    "town_kana": "シンボリ",
    "street": "３４",
    "office_name": "燐化学工業　株式会社",
    "office_name_kana": "リンカガクコウギヨウ カブシキガイシヤ"
  },
  "8550": {
    "postcode": "9348550",
    "prefecture": "富山県",
    "prefecture_kana": "トヤマケン",
    "prefecture_code": 16,
    "city": "射水市",
    "city_kana": "イミズシ",
    "town": "庄西町",
    "town_kana": "ショウセイマチ",
    "street": "２丁目９−３８",
    "office_name": "ＪＦＥマテリアル　株式会社",
    "office_name_kana": "ジエイエフイ-マテリアル カブシキガイシヤ"
  },
  "8558": {
    "postcode": "9348558",
    "prefecture": "富山県",
    "prefecture_kana": "トヤマケン",
    "prefecture_code": 16,
    "city": "射水市",
    "city_kana": "イミズシ",
    "town": "片口高場",
    "town_kana": "カタグチタカバ",
    "street": "１番地１",
    "office_name": "株式会社　ＴＡＮ−ＥＩ−ＳＹＡ",
    "office_name_kana": "カブシキガイシヤ タンエイシヤ"
  },
  "8567": {
    "postcode": "9348567",
    "prefecture": "富山県",
    "prefecture_kana": "トヤマケン",
    "prefecture_code": 16,
    "city": "射水市",
    "city_kana": "イミズシ",
    "town": "奈呉の江",
    "town_kana": "ナゴノエ",
    "street": "８−４",
    "office_name": "大谷製鉄　株式会社",
    "office_name_kana": "オオタニセイテツ カブシキガイシヤ"
  },
  "8568": {
    "postcode": "9348568",
    "prefecture": "富山県",
    "prefecture_kana": "トヤマケン",
    "prefecture_code": 16,
    "city": "射水市",
    "city_kana": "イミズシ",
    "town": "新堀",
    "town_kana": "シンボリ",
    "street": "３４",
    "office_name": "共栄コンクリート　株式会社",
    "office_name_kana": "キヨウエイコンクリ-ト カブシキガイシヤ"
  },
  "8577": {
    "postcode": "9348577",
    "prefecture": "富山県",
    "prefecture_kana": "トヤマケン",
    "prefecture_code": 16,
    "city": "射水市",
    "city_kana": "イミズシ",
    "town": "奈呉の江",
    "town_kana": "ナゴノエ",
    "street": "１３番地の３",
    "office_name": "三協立山　株式会社　射水工場",
    "office_name_kana": "サンキヨウタテヤマ カブシキガイシヤ イミズコウジヨウ"
  },
  "8580": {
    "postcode": "9348580",
    "prefecture": "富山県",
    "prefecture_kana": "トヤマケン",
    "prefecture_code": 16,
    "city": "射水市",
    "city_kana": "イミズシ",
    "town": "川口",
    "town_kana": "カワグチ",
    "street": "８００",
    "office_name": "株式会社　タカギセイコー",
    "office_name_kana": "カブシキガイシヤ タカギセイコ-"
  },
  "8585": {
    "postcode": "9348585",
    "prefecture": "富山県",
    "prefecture_kana": "トヤマケン",
    "prefecture_code": 16,
    "city": "射水市",
    "city_kana": "イミズシ",
    "town": "西新湊",
    "town_kana": "ニシシンミナト",
    "street": "２１−１０",
    "office_name": "富山県立　新湊高等学校",
    "office_name_kana": "トヤマケンリツ シンミナトコウトウガツコウ"
  },
  "8588": {
    "postcode": "9348588",
    "prefecture": "富山県",
    "prefecture_kana": "トヤマケン",
    "prefecture_code": 16,
    "city": "射水市",
    "city_kana": "イミズシ",
    "town": "奈呉の江",
    "town_kana": "ナゴノエ",
    "street": "１２−３",
    "office_name": "アイシン軽金属　株式会社",
    "office_name_kana": "アイシンケイキンゾク カブシキガイシヤ"
  },
  "8611": {
    "postcode": "9348611",
    "prefecture": "富山県",
    "prefecture_kana": "トヤマケン",
    "prefecture_code": 16,
    "city": "射水市",
    "city_kana": "イミズシ",
    "town": "中新湊",
    "town_kana": "ナカシンミナト",
    "street": "１２−２０",
    "office_name": "新湊信用金庫　本店",
    "office_name_kana": "シンミナトシンヨウキンコ ホンテン"
  },
  "8651": {
    "postcode": "9348651",
    "prefecture": "富山県",
    "prefecture_kana": "トヤマケン",
    "prefecture_code": 16,
    "city": "射水市",
    "city_kana": "イミズシ",
    "town": "中新湊",
    "town_kana": "ナカシンミナト",
    "street": "１３−５",
    "office_name": "株式会社　富山第一銀行　新湊支店",
    "office_name_kana": "カブシキガイシヤ トヤマダイイチギンコウ シンミナトシテン"
  },
  "8686": {
    "postcode": "9348686",
    "prefecture": "富山県",
    "prefecture_kana": "トヤマケン",
    "prefecture_code": 16,
    "city": "高岡市",
    "city_kana": "タカオカシ",
    "town": "下牧野",
    "town_kana": "シモマキノ",
    "street": "３６−２",
    "office_name": "石友ホーム　株式会社",
    "office_name_kana": "イシトモホ-ム カブシキガイシヤ"
  },
  "8688": {
    "postcode": "9348688",
    "prefecture": "富山県",
    "prefecture_kana": "トヤマケン",
    "prefecture_code": 16,
    "city": "射水市",
    "city_kana": "イミズシ",
    "town": "作道",
    "town_kana": "ツクリミチ",
    "street": "６８５−２",
    "office_name": "株式会社　四方組",
    "office_name_kana": "カブシキガイシヤ ヨカタグミ"
  }
}