{
  "0000": {
    "postcode": "9360000",
    "prefecture": "富山県",
    "prefecture_kana": "トヤマケン",
    "prefecture_code": 16,
    "city": "滑川市",
    "city_kana": "ナメリカワシ",
    "town": "",
    "town_kana": "",
    "street": null,
    "office_name": null,
    "office_name_kana": null
  },
  "0001": {
    "postcode": "9360001",
    "prefecture": "富山県",
    "prefecture_kana": "トヤマケン",
    "prefecture_code": 16,
    "city": "滑川市",
    "city_kana": "ナメリカワシ",
    "town": "三ケ",
    "town_kana": "サンガ",
    "street": null,
    "office_name": null,
    "office_name_kana": null
  },
  "0002": {
    "postcode": "9360002",
    "prefecture": "富山県",
    "prefecture_kana": "トヤマケン",
    "prefecture_code": 16,
    "city": "滑川市",
    "city_kana": "ナメリカワシ",
    "town": "中村",
    "town_kana": "ナカムラ",
    "street": null,
    "office_name": null,
    "office_name_kana": null
  },
  "0003": {
    "postcode": "9360003",
    "prefecture": "富山県",
    "prefecture_kana": "トヤマケン",
    "prefecture_code": 16,
    "city": "滑川市",
    "city_kana": "ナメリカワシ",
    "town": "吉浦",
    "town_kana": "ヨシウラ",
    "street": null,
    "office_name": null,
    "office_name_kana": null
  },
  "0004": {
    "postcode": "9360004",
    "prefecture": "富山県",
    "prefecture_kana": "トヤマケン",
    "prefecture_code": 16,
    "city": "滑川市",
    "city_kana": "ナメリカワシ",
    "town": "笠木",
    "town_kana": "カサギ",
    "street": null,
    "office_name": null,
    "office_name_kana": null
  },
  "0005": {
    "postcode": "9360005",
    "prefecture": "富山県",
    "prefecture_kana": "トヤマケン",
    "prefecture_code": 16,
    "city": "滑川市",
    "city_kana": "ナメリカワシ",
    "town": "浜四ツ屋",
    "town_kana": "ハマヨツヤ",
    "street": null,
    "office_name": null,
    "office_name_kana": null
  },
  "0006": {
    "postcode": "9360006",
    "prefecture": "富山県",
    "prefecture_kana": "トヤマケン",
    "prefecture_code": 16,
    "city": "滑川市",
    "city_kana": "ナメリカワシ",
    "town": "荒俣",
    "town_kana": "アラマタ",
    "street": null,
    "office_name": null,
    "office_name_kana": null
  },
  "0007": {
    "postcode": "9360007",
    "prefecture": "富山県",
    "prefecture_kana": "トヤマケン",
    "prefecture_code": 16,
    "city": "滑川市",
    "city_kana": "ナメリカワシ",
    "town": "荒俣新町",
    "town_kana": "アラマタシンマチ",
    "street": null,
    "office_name": null,
    "office_name_kana": null
  },
  "0011": {
    "postcode": "9360011",
    "prefecture": "富山県",
    "prefecture_kana": "トヤマケン",
    "prefecture_code": 16,
    "city": "滑川市",
    "city_kana": "ナメリカワシ",
    "town": "高塚",
    "town_kana": "タカツカ",
    "street": null,
    "office_name": null,
    "office_name_kana": null
  },
  "0012": {
    "postcode": "9360012",
    "prefecture": "富山県",
    "prefecture_kana": "トヤマケン",
    "prefecture_code": 16,
    "city": "滑川市",
    "city_kana": "ナメリカワシ",
    "town": "高塚曙町",
    "town_kana": "タカツカアケボノチョウ",
    "street": null,
    "office_name": null,
    "office_name_kana": null
  },
  "0013": {
    "postcode": "9360013",
    "prefecture": "富山県",
    "prefecture_kana": "トヤマケン",
    "prefecture_code": 16,
    "city": "滑川市",
    "city_kana": "ナメリカワシ",
    "town": "高塚新市営住宅",
    "town_kana": "タカツカシンシエイジュウタク",
    "street": null,
    "office_name": null,
    "office_name_kana": null
  },
  "0014": {
    "postcode": "9360014",
    "prefecture": "富山県",
    "prefecture_kana": "トヤマケン",
    "prefecture_code": 16,
    "city": "滑川市",
    "city_kana": "ナメリカワシ",
    "town": "高塚新町",
    "town_kana": "タカツカシンマチ",
    "street": null,
    "office_name": null,
    "office_name_kana": null
  },
  "0015": {
    "postcode": "9360015",
    "prefecture": "富山県",
    "prefecture_kana": "トヤマケン",
    "prefecture_code": 16,
    "city": "滑川市",
    "city_kana": "ナメリカワシ",
    "town": "高塚寿町",
    "town_kana": "タカツカコトブキマチ",
    "street": null,
    "office_name": null,
    "office_name_kana": null
  },
  "0016": {
    "postcode": "9360016",
    "prefecture": "富山県",
    "prefecture_kana": "トヤマケン",
    "prefecture_code": 16,
    "city": "滑川市",
    "city_kana": "ナメリカワシ",
    "town": "曲渕",
    "town_kana": "マガリブチ",
    "street": null,
    "office_name": null,
    "office_name_kana": null
  },
  "0017": {
    "postcode": "9360017",
    "prefecture": "富山県",
    "prefecture_kana": "トヤマケン",
    "prefecture_code": 16,
    "city": "滑川市",
    "city_kana": "ナメリカワシ",
    "town": "二ツ破",
    "town_kana": "フタツヤブリ",
    "street": null,
    "office_name": null,
    "office_name_kana": null
  },
  "0018": {
    "postcode": "9360018",
    "prefecture": "富山県",
    "prefecture_kana": "トヤマケン",
    "prefecture_code": 16,
    "city": "滑川市",
    "city_kana": "ナメリカワシ",
    "town": "坪川",
    "town_kana": "ツボカワ",
    "street": null,
    "office_name": null,
    "office_name_kana": null
  },
  "0019": {
    "postcode": "9360019",
    "prefecture": "富山県",
    "prefecture_kana": "トヤマケン",
    "prefecture_code": 16,
    "city": "滑川市",
    "city_kana": "ナメリカワシ",
    "town": "坪川新",
    "town_kana": "ツボカワシン",
    "street": null,
    "office_name": null,
    "office_name_kana": null
  },
  "0021": {
    "postcode": "9360021",
    "prefecture": "富山県",
    "prefecture_kana": "トヤマケン",
    "prefecture_code": 16,
    "city": "滑川市",
    "city_kana": "ナメリカワシ",
    "town": "中川原",
    "town_kana": "ナカガワラ",
    "street": null,
    "office_name": null,
    "office_name_kana": null
  },
  "0022": {
    "postcode": "9360022",
    "prefecture": "富山県",
    "prefecture_kana": "トヤマケン",
    "prefecture_code": 16,
    "city": "滑川市",
    "city_kana": "ナメリカワシ",
    "town": "辰野新町",
    "town_kana": "タツノシンマチ",
    "street": null,
    "office_name": null,
    "office_name_kana": null
  },
  "0023": {
    "postcode": "9360023",
    "prefecture": "富山県",
    "prefecture_kana": "トヤマケン",
    "prefecture_code": 16,
    "city": "滑川市",
    "city_kana": "ナメリカワシ",
    "town": "柳原",
    "town_kana": "ヤナギハラ",
    "street": null,
    "office_name": null,
    "office_name_kana": null
  },
  "0024": {
    "postcode": "9360024",
    "prefecture": "富山県",
    "prefecture_kana": "トヤマケン",
    "prefecture_code": 16,
    "city": "滑川市",
    "city_kana": "ナメリカワシ",
    "town": "辰野",
    "town_kana": "タツノ",
    "street": null,
    "office_name": null,
    "office_name_kana": null
  },
  "0025": {
    "postcode": "9360025",
    "prefecture": "富山県",
    "prefecture_kana": "トヤマケン",
    "prefecture_code": 16,
    "city": "滑川市",
    "city_kana": "ナメリカワシ",
    "town": "柳原新町",
    "town_kana": "ヤナギハラシンマチ",
    "street": null,
    "office_name": null,
    "office_name_kana": null
  },
  "0026": {
    "postcode": "9360026",
    "prefecture": "富山県",
    "prefecture_kana": "トヤマケン",
    "prefecture_code": 16,
    "city": "滑川市",
    "city_kana": "ナメリカワシ",
    "town": "公園通り",
    "town_kana": "コウエンドオリ",
    "street": null,
    "office_name": null,
    "office_name_kana": null
  },
  "0027": {
    "postcode": "9360027",
    "prefecture": "富山県",
    "prefecture_kana": "トヤマケン",
    "prefecture_code": 16,
    "city": "滑川市",
    "city_kana": "ナメリカワシ",
    "town": "常盤町",
    "town_kana": "トキワチョウ",
    "street": null,
    "office_name": null,
    "office_name_kana": null
  },
  "0031": {
    "postcode": "9360031",
    "prefecture": "富山県",
    "prefecture_kana": "トヤマケン",
    "prefecture_code": 16,
    "city": "滑川市",
    "city_kana": "ナメリカワシ",
    "town": "今町",
    "town_kana": "イママチ",
    "street": null,
    "office_name": null,
    "office_name_kana": null
  },
  "0032": {
    "postcode": "9360032",
    "prefecture": "富山県",
    "prefecture_kana": "トヤマケン",
    "prefecture_code": 16,
    "city": "滑川市",
    "city_kana": "ナメリカワシ",
    "town": "神明町",
    "town_kana": "シンメイチョウ",
    "street": null,
    "office_name": null,
    "office_name_kana": null
  },
  "0033": {
    "postcode": "9360033",
    "prefecture": "富山県",
    "prefecture_kana": "トヤマケン",
    "prefecture_code": 16,
    "city": "滑川市",
    "city_kana": "ナメリカワシ",
    "town": "吾妻町",
    "town_kana": "アヅマチョウ",
    "street": null,
    "office_name": null,
    "office_name_kana": null
  },
  "0034": {
    "postcode": "9360034",
    "prefecture": "富山県",
    "prefecture_kana": "トヤマケン",
    "prefecture_code": 16,
    "city": "滑川市",
    "city_kana": "ナメリカワシ",
    "town": "吾妻町",
    "town_kana": "アヅマチョウ",
    "street": null,
    "office_name": null,
    "office_name_kana": null
  },
  "0035": {
    "postcode": "9360035",
    "prefecture": "富山県",
    "prefecture_kana": "トヤマケン",
    "prefecture_code": 16,
    "city": "滑川市",
    "city_kana": "ナメリカワシ",
    "town": "四間町",
    "town_kana": "シケンチョウ",
    "street": null,
    "office_name": null,
    "office_name_kana": null
  },
  "0036": {
    "postcode": "9360036",
    "prefecture": "富山県",
    "prefecture_kana": "トヤマケン",
    "prefecture_code": 16,
    "city": "滑川市",
    "city_kana": "ナメリカワシ",
    "town": "中町",
    "town_kana": "ナカマチ",
    "street": null,
    "office_name": null,
    "office_name_kana": null
  },
  "0037": {
    "postcode": "9360037",
    "prefecture": "富山県",
    "prefecture_kana": "トヤマケン",
    "prefecture_code": 16,
    "city": "滑川市",
    "city_kana": "ナメリカワシ",
    "town": "武平太町",
    "town_kana": "ブヘダマチ",
    "street": null,
    "office_name": null,
    "office_name_kana": null
  },
  "0038": {
    "postcode": "9360038",
    "prefecture": "富山県",
    "prefecture_kana": "トヤマケン",
    "prefecture_code": 16,
    "city": "滑川市",
    "city_kana": "ナメリカワシ",
    "town": "北町",
    "town_kana": "キタマチ",
    "street": null,
    "office_name": null,
    "office_name_kana": null
  },
  "0039": {
    "postcode": "9360039",
    "prefecture": "富山県",
    "prefecture_kana": "トヤマケン",
    "prefecture_code": 16,
    "city": "滑川市",
    "city_kana": "ナメリカワシ",
    "town": "夷子町",
    "town_kana": "エビスマチ",
    "street": null,
    "office_name": null,
    "office_name_kana": null
  },
  "0041": {
    "postcode": "9360041",
    "prefecture": "富山県",
    "prefecture_kana": "トヤマケン",
    "prefecture_code": 16,
    "city": "滑川市",
    "city_kana": "ナメリカワシ",
    "town": "松原町",
    "town_kana": "マツバラチョウ",
    "street": null,
    "office_name": null,
    "office_name_kana": null
  },
  "0042": {
    "postcode": "9360042",
    "prefecture": "富山県",
    "prefecture_kana": "トヤマケン",
    "prefecture_code": 16,
    "city": "滑川市",
    "city_kana": "ナメリカワシ",
    "town": "荒町",
    "town_kana": "アラマチ",
    "street": null,
    "office_name": null,
    "office_name_kana": null
  },
  "0043": {
    "postcode": "9360043",
    "prefecture": "富山県",
    "prefecture_kana": "トヤマケン",
    "prefecture_code": 16,
    "city": "滑川市",
    "city_kana": "ナメリカワシ",
    "town": "瓢町",
    "town_kana": "フクベチョウ",
    "street": null,
    "office_name": null,
    "office_name_kana": null
  },
  "0044": {
    "postcode": "9360044",
    "prefecture": "富山県",
    "prefecture_kana": "トヤマケン",
    "prefecture_code": 16,
    "city": "滑川市",
    "city_kana": "ナメリカワシ",
    "town": "馬町",
    "town_kana": "ウママチ",
    "street": null,
    "office_name": null,
    "office_name_kana": null
  },
  "0045": {
    "postcode": "9360045",
    "prefecture": "富山県",
    "prefecture_kana": "トヤマケン",
    "prefecture_code": 16,
    "city": "滑川市",
    "city_kana": "ナメリカワシ",
    "town": "七間町",
    "town_kana": "シチケンチョウ",
    "street": null,
    "office_name": null,
    "office_name_kana": null
  },
  "0046": {
    "postcode": "9360046",
    "prefecture": "富山県",
    "prefecture_kana": "トヤマケン",
    "prefecture_code": 16,
    "city": "滑川市",
    "city_kana": "ナメリカワシ",
    "town": "河浦町",
    "town_kana": "カワウラチョウ",
    "street": null,
    "office_name": null,
    "office_name_kana": null
  },
  "0047": {
    "postcode": "9360047",
    "prefecture": "富山県",
    "prefecture_kana": "トヤマケン",
    "prefecture_code": 16,
    "city": "滑川市",
    "city_kana": "ナメリカワシ",
    "town": "大町",
    "town_kana": "オオマチ",
    "street": null,
    "office_name": null,
    "office_name_kana": null
  },
  "0048": {
    "postcode": "9360048",
    "prefecture": "富山県",
    "prefecture_kana": "トヤマケン",
    "prefecture_code": 16,
    "city": "滑川市",
    "city_kana": "ナメリカワシ",
    "town": "三穂町",
    "town_kana": "ミホマチ",
    "street": null,
    "office_name": null,
    "office_name_kana": null
  },
  "0051": {
    "postcode": "9360051",
    "prefecture": "富山県",
    "prefecture_kana": "トヤマケン",
    "prefecture_code": 16,
    "city": "滑川市",
    "city_kana": "ナメリカワシ",
    "town": "寺家町",
    "town_kana": "ジケイマチ",
    "street": null,
    "office_name": null,
    "office_name_kana": null
  },
  "0052": {
    "postcode": "9360052",
    "prefecture": "富山県",
    "prefecture_kana": "トヤマケン",
    "prefecture_code": 16,
    "city": "滑川市",
    "city_kana": "ナメリカワシ",
    "town": "清水町",
    "town_kana": "シミズチョウ",
    "street": null,
    "office_name": null,
    "office_name_kana": null
  },
  "0053": {
    "postcode": "9360053",
    "prefecture": "富山県",
    "prefecture_kana": "トヤマケン",
    "prefecture_code": 16,
    "city": "滑川市",
    "city_kana": "ナメリカワシ",
    "town": "上小泉",
    "town_kana": "カミコイズミ",
    "street": null,
    "office_name": null,
    "office_name_kana": null
  },
  "0054": {
    "postcode": "9360054",
    "prefecture": "富山県",
    "prefecture_kana": "トヤマケン",
    "prefecture_code": 16,
    "city": "滑川市",
    "city_kana": "ナメリカワシ",
    "town": "上小泉",
    "town_kana": "カミコイズミ",
    "street": null,
    "office_name": null,
    "office_name_kana": null
  },
  "0055": {
    "postcode": "9360055",
    "prefecture": "富山県",
    "prefecture_kana": "トヤマケン",
    "prefecture_code": 16,
    "city": "滑川市",
    "city_kana": "ナメリカワシ",
    "town": "泉ケ丘",
    "town_kana": "イズミガオカ",
    "street": null,
    "office_name": null,
    "office_name_kana": null
  },
  "0056": {
    "postcode": "9360056",
    "prefecture": "富山県",
    "prefecture_kana": "トヤマケン",
    "prefecture_code": 16,
    "city": "滑川市",
    "city_kana": "ナメリカワシ",
    "town": "田中新町",
    "town_kana": "タナカシンマチ",
    "street": null,
    "office_name": null,
    "office_name_kana": null
  },
  "0057": {
    "postcode": "9360057",
    "prefecture": "富山県",
    "prefecture_kana": "トヤマケン",
    "prefecture_code": 16,
    "city": "滑川市",
    "city_kana": "ナメリカワシ",
    "town": "田中町",
    "town_kana": "タナカマチ",
    "street": null,
    "office_name": null,
    "office_name_kana": null
  },
  "0058": {
    "postcode": "9360058",
    "prefecture": "富山県",
    "prefecture_kana": "トヤマケン",
    "prefecture_code": 16,
    "city": "滑川市",
    "city_kana": "ナメリカワシ",
    "town": "下小泉町",
    "town_kana": "シモコイズミマチ",
    "street": null,
    "office_name": null,
    "office_name_kana": null
  },
  "0059": {
    "postcode": "9360059",
    "prefecture": "富山県",
    "prefecture_kana": "トヤマケン",
    "prefecture_code": 16,
    "city": "滑川市",
    "city_kana": "ナメリカワシ",
    "town": "晒屋",
    "town_kana": "サラシヤ",
    "street": null,
    "office_name": null,
    "office_name_kana": null
  },
  "0060": {
    "postcode": "9360060",
    "prefecture": "富山県",
    "prefecture_kana": "トヤマケン",
    "prefecture_code": 16,
    "city": "滑川市",
    "city_kana": "ナメリカワシ",
    "town": "神家町",
    "town_kana": "ジンカマチ",
    "street": null,
    "office_name": null,
    "office_name_kana": null
  },
  "0061": {
    "postcode": "9360061",
    "prefecture": "富山県",
    "prefecture_kana": "トヤマケン",
    "prefecture_code": 16,
    "city": "滑川市",
    "city_kana": "ナメリカワシ",
    "town": "浜町",
    "town_kana": "ハママチ",
    "street": null,
    "office_name": null,
    "office_name_kana": null
  },
  "0062": {
    "postcode": "9360062",
    "prefecture": "富山県",
    "prefecture_kana": "トヤマケン",
    "prefecture_code": 16,
    "city": "滑川市",
    "city_kana": "ナメリカワシ",
    "town": "橋場町",
    "town_kana": "ハシバマチ",
    "street": null,
    "office_name": null,
    "office_name_kana": null
  },
  "0063": {
    "postcode": "9360063",
    "prefecture": "富山県",
    "prefecture_kana": "トヤマケン",
    "prefecture_code": 16,
    "city": "滑川市",
    "city_kana": "ナメリカワシ",
    "town": "瀬羽町",
    "town_kana": "セワマチ",
    "street": null,
    "office_name": null,
    "office_name_kana": null
  },
  "0064": {
    "postcode": "9360064",
    "prefecture": "富山県",
    "prefecture_kana": "トヤマケン",
    "prefecture_code": 16,
    "city": "滑川市",
    "city_kana": "ナメリカワシ",
    "town": "河端町",
    "town_kana": "カワバタマチ",
    "street": null,
    "office_name": null,
    "office_name_kana": null
  },
  "0065": {
    "postcode": "9360065",
    "prefecture": "富山県",
    "prefecture_kana": "トヤマケン",
    "prefecture_code": 16,
    "city": "滑川市",
    "city_kana": "ナメリカワシ",
    "town": "下島",
    "town_kana": "シモジマ",
    "street": null,
    "office_name": null,
    "office_name_kana": null
  },
  "0066": {
    "postcode": "9360066",
    "prefecture": "富山県",
    "prefecture_kana": "トヤマケン",
    "prefecture_code": 16,
    "city": "滑川市",
    "city_kana": "ナメリカワシ",
    "town": "菰原",
    "town_kana": "コモハラ",
    "street": null,
    "office_name": null,
    "office_name_kana": null
  },
  "0067": {
    "postcode": "9360067",
    "prefecture": "富山県",
    "prefecture_kana": "トヤマケン",
    "prefecture_code": 16,
    "city": "滑川市",
    "city_kana": "ナメリカワシ",
    "town": "菰原台",
    "town_kana": "コモハラダイ",
    "street": null,
    "office_name": null,
    "office_name_kana": null
  },
  "0068": {
    "postcode": "9360068",
    "prefecture": "富山県",
    "prefecture_kana": "トヤマケン",
    "prefecture_code": 16,
    "city": "滑川市",
    "city_kana": "ナメリカワシ",
    "town": "加島町",
    "town_kana": "カシマチョウ",
    "street": null,
    "office_name": null,
    "office_name_kana": null
  },
  "0069": {
    "postcode": "9360069",
    "prefecture": "富山県",
    "prefecture_kana": "トヤマケン",
    "prefecture_code": 16,
    "city": "滑川市",
    "city_kana": "ナメリカワシ",
    "town": "山王町",
    "town_kana": "サンノウマチ",
    "street": null,
    "office_name": null,
    "office_name_kana": null
  },
  "0070": {
    "postcode": "9360070",
    "prefecture": "富山県",
    "prefecture_kana": "トヤマケン",
    "prefecture_code": 16,
    "city": "滑川市",
    "city_kana": "ナメリカワシ",
    "town": "横町",
    "town_kana": "ヨコチョウ",
    "street": null,
    "office_name": null,
    "office_name_kana": null
  },
  "0071": {
    "postcode": "9360071",
    "prefecture": "富山県",
    "prefecture_kana": "トヤマケン",
    "prefecture_code": 16,
    "city": "滑川市",
    "city_kana": "ナメリカワシ",
    "town": "領家町",
    "town_kana": "リョウケマチ",
    "street": null,
    "office_name": null,
    "office_name_kana": null
  },
  "0072": {
    "postcode": "9360072",
    "prefecture": "富山県",
    "prefecture_kana": "トヤマケン",
    "prefecture_code": 16,
    "city": "滑川市",
    "city_kana": "ナメリカワシ",
    "town": "緑町",
    "town_kana": "ミドリマチ",
    "street": null,
    "office_name": null,
    "office_name_kana": null
  },
  "0073": {
    "postcode": "9360073",
    "prefecture": "富山県",
    "prefecture_kana": "トヤマケン",
    "prefecture_code": 16,
    "city": "滑川市",
    "city_kana": "ナメリカワシ",
    "town": "幸町",
    "town_kana": "サイワイチョウ",
    "street": null,
    "office_name": null,
    "office_name_kana": null
  },
  "0074": {
    "postcode": "9360074",
    "prefecture": "富山県",
    "prefecture_kana": "トヤマケン",
    "prefecture_code": 16,
    "city": "滑川市",
    "city_kana": "ナメリカワシ",
    "town": "新富町",
    "town_kana": "シントミチョウ",
    "street": null,
    "office_name": null,
    "office_name_kana": null
  },
  "0075": {
    "postcode": "9360075",
    "prefecture": "富山県",
    "prefecture_kana": "トヤマケン",
    "prefecture_code": 16,
    "city": "滑川市",
    "city_kana": "ナメリカワシ",
    "town": "江尻",
    "town_kana": "エジリ",
    "street": null,
    "office_name": null,
    "office_name_kana": null
  },
  "0076": {
    "postcode": "9360076",
    "prefecture": "富山県",
    "prefecture_kana": "トヤマケン",
    "prefecture_code": 16,
    "city": "滑川市",
    "city_kana": "ナメリカワシ",
    "town": "高月南台",
    "town_kana": "タカツキミナミダイ",
    "street": null,
    "office_name": null,
    "office_name_kana": null
  },
  "0077": {
    "postcode": "9360077",
    "prefecture": "富山県",
    "prefecture_kana": "トヤマケン",
    "prefecture_code": 16,
    "city": "滑川市",
    "city_kana": "ナメリカワシ",
    "town": "魚躬",
    "town_kana": "ウオノミ",
    "street": null,
    "office_name": null,
    "office_name_kana": null
  },
  "0078": {
    "postcode": "9360078",
    "prefecture": "富山県",
    "prefecture_kana": "トヤマケン",
    "prefecture_code": 16,
    "city": "滑川市",
    "city_kana": "ナメリカワシ",
    "town": "高月町",
    "town_kana": "タカツキマチ",
    "street": null,
    "office_name": null,
    "office_name_kana": null
  },
  "0801": {
    "postcode": "9360801",
    "prefecture": "富山県",
    "prefecture_kana": "トヤマケン",
    "prefecture_code": 16,
    "city": "滑川市",
    "city_kana": "ナメリカワシ",
    "town": "大島",
    "town_kana": "オオジマ",
    "street": null,
    "office_name": null,
    "office_name_kana": null
  },
  "0802": {
    "postcode": "9360802",
    "prefecture": "富山県",
    "prefecture_kana": "トヤマケン",
    "prefecture_code": 16,
    "city": "滑川市",
    "city_kana": "ナメリカワシ",
    "town": "大掛",
    "town_kana": "オオガケ",
    "street": null,
    "office_name": null,
    "office_name_kana": null
  },
  "0803": {
    "postcode": "9360803",
    "prefecture": "富山県",
    "prefecture_kana": "トヤマケン",
    "prefecture_code": 16,
    "city": "滑川市",
    "city_kana": "ナメリカワシ",
    "town": "栗山",
    "town_kana": "クリヤマ",
    "street": null,
    "office_name": null,
    "office_name_kana": null
  },
  "0804": {
    "postcode": "9360804",
    "prefecture": "富山県",
    "prefecture_kana": "トヤマケン",
    "prefecture_code": 16,
    "city": "滑川市",
    "city_kana": "ナメリカワシ",
    "town": "杉本",
    "town_kana": "スギモト",
    "street": null,
    "office_name": null,
    "office_name_kana": null
  },
  "0805": {
    "postcode": "9360805",
    "prefecture": "富山県",
    "prefecture_kana": "トヤマケン",
    "prefecture_code": 16,
    "city": "滑川市",
    "city_kana": "ナメリカワシ",
    "town": "大窪",
    "town_kana": "オオクボ",
    "street": null,
    "office_name": null,
    "office_name_kana": null
  },
  "0806": {
    "postcode": "9360806",
    "prefecture": "富山県",
    "prefecture_kana": "トヤマケン",
    "prefecture_code": 16,
    "city": "滑川市",
    "city_kana": "ナメリカワシ",
    "town": "北野",
    "town_kana": "キタノ",
    "street": null,
    "office_name": null,
    "office_name_kana": null
  },
  "0807": {
    "postcode": "9360807",
    "prefecture": "富山県",
    "prefecture_kana": "トヤマケン",
    "prefecture_code": 16,
    "city": "滑川市",
    "city_kana": "ナメリカワシ",
    "town": "四ツ屋",
    "town_kana": "ヨツヤ",
    "street": null,
    "office_name": null,
    "office_name_kana": null
  },
  "0808": {
    "postcode": "9360808",
    "prefecture": "富山県",
    "prefecture_kana": "トヤマケン",
    "prefecture_code": 16,
    "city": "滑川市",
    "city_kana": "ナメリカワシ",
    "town": "追分",
    "town_kana": "オイワケ",
    "street": null,
    "office_name": null,
    "office_name_kana": null
  },
  "0811": [
    {
      "postcode": "9360811",
      "prefecture": "富山県",
      "prefecture_kana": "トヤマケン",
      "prefecture_code": 16,
      "city": "滑川市",
      "city_kana": "ナメリカワシ",
      "town": "大浦",
      "town_kana": "オオウラ",
      "street": null,
      "office_name": null,
      "office_name_kana": null
    },
    {
      "postcode": "9360811",
      "prefecture": "富山県",
      "prefecture_kana": "トヤマケン",
      "prefecture_code": 16,
      "city": "滑川市",
      "city_kana": "ナメリカワシ",
      "town": "上大浦",
      "town_kana": "カミオオウラ",
      "street": null,
      "office_name": null,
      "office_name_kana": null
    },
    {
      "postcode": "9360811",
      "prefecture": "富山県",
      "prefecture_kana": "トヤマケン",
      "prefecture_code": 16,
      "city": "滑川市",
      "city_kana": "ナメリカワシ",
      "town": "下大浦",
      "town_kana": "シモオオウラ",
      "street": null,
      "office_name": null,
      "office_name_kana": null
    }
  ],
  "0812": {
    "postcode": "9360812",
    "prefecture": "富山県",
    "prefecture_kana": "トヤマケン",
    "prefecture_code": 16,
    "city": "滑川市",
    "city_kana": "ナメリカワシ",
    "town": "堀内",
    "town_kana": "ホリウチ",
    "street": null,
    "office_name": null,
    "office_name_kana": null
  },
  "0813": {
    "postcode": "9360813",
    "prefecture": "富山県",
    "prefecture_kana": "トヤマケン",
    "prefecture_code": 16,
    "city": "滑川市",
    "city_kana": "ナメリカワシ",
    "town": "大日",
    "town_kana": "ダイニチ",
    "street": null,
    "office_name": null,
    "office_name_kana": null
  },
  "0814": {
    "postcode": "9360814",
    "prefecture": "富山県",
    "prefecture_kana": "トヤマケン",
    "prefecture_code": 16,
    "city": "滑川市",
    "city_kana": "ナメリカワシ",
    "town": "千鳥",
    "town_kana": "チドリ",
    "street": null,
    "office_name": null,
    "office_name_kana": null
  },
  "0815": {
    "postcode": "9360815",
    "prefecture": "富山県",
    "prefecture_kana": "トヤマケン",
    "prefecture_code": 16,
    "city": "滑川市",
    "city_kana": "ナメリカワシ",
    "town": "室山",
    "town_kana": "ムロヤマ",
    "street": null,
    "office_name": null,
    "office_name_kana": null
  },
  "0816": {
    "postcode": "9360816",
    "prefecture": "富山県",
    "prefecture_kana": "トヤマケン",
    "prefecture_code": 16,
    "city": "滑川市",
    "city_kana": "ナメリカワシ",
    "town": "中野",
    "town_kana": "ナカノ",
    "street": null,
    "office_name": null,
    "office_name_kana": null
  },
  "0817": {
    "postcode": "9360817",
    "prefecture": "富山県",
    "prefecture_kana": "トヤマケン",
    "prefecture_code": 16,
    "city": "滑川市",
    "city_kana": "ナメリカワシ",
    "town": "下野",
    "town_kana": "シモノ",
    "street": null,
    "office_name": null,
    "office_name_kana": null
  },
  "0818": {
    "postcode": "9360818",
    "prefecture": "富山県",
    "prefecture_kana": "トヤマケン",
    "prefecture_code": 16,
    "city": "滑川市",
    "city_kana": "ナメリカワシ",
    "town": "大林",
    "town_kana": "オオバヤシ",
    "street": null,
    "office_name": null,
    "office_name_kana": null
  },
  "0821": {
    "postcode": "9360821",
    "prefecture": "富山県",
    "prefecture_kana": "トヤマケン",
    "prefecture_code": 16,
    "city": "滑川市",
    "city_kana": "ナメリカワシ",
    "town": "蓑輪",
    "town_kana": "ミノワ",
    "street": null,
    "office_name": null,
    "office_name_kana": null
  },
  "0822": {
    "postcode": "9360822",
    "prefecture": "富山県",
    "prefecture_kana": "トヤマケン",
    "prefecture_code": 16,
    "city": "滑川市",
    "city_kana": "ナメリカワシ",
    "town": "小森",
    "town_kana": "コモリ",
    "street": null,
    "office_name": null,
    "office_name_kana": null
  },
  "0823": {
    "postcode": "9360823",
    "prefecture": "富山県",
    "prefecture_kana": "トヤマケン",
    "prefecture_code": 16,
    "city": "滑川市",
    "city_kana": "ナメリカワシ",
    "town": "東福寺野",
    "town_kana": "トウフクジノ",
    "street": null,
    "office_name": null,
    "office_name_kana": null
  },
  "0824": {
    "postcode": "9360824",
    "prefecture": "富山県",
    "prefecture_kana": "トヤマケン",
    "prefecture_code": 16,
    "city": "滑川市",
    "city_kana": "ナメリカワシ",
    "town": "本江",
    "town_kana": "ホンゴウ",
    "street": null,
    "office_name": null,
    "office_name_kana": null
  },
  "0825": {
    "postcode": "9360825",
    "prefecture": "富山県",
    "prefecture_kana": "トヤマケン",
    "prefecture_code": 16,
    "city": "滑川市",
    "city_kana": "ナメリカワシ",
    "town": "安田",
    "town_kana": "ヤスダ",
    "street": null,
    "office_name": null,
    "office_name_kana": null
  },
  "0826": {
    "postcode": "9360826",
    "prefecture": "富山県",
    "prefecture_kana": "トヤマケン",
    "prefecture_code": 16,
    "city": "滑川市",
    "city_kana": "ナメリカワシ",
    "town": "田林",
    "town_kana": "タバヤシ",
    "street": null,
    "office_name": null,
    "office_name_kana": null
  },
  "0827": {
    "postcode": "9360827",
    "prefecture": "富山県",
    "prefecture_kana": "トヤマケン",
    "prefecture_code": 16,
    "city": "滑川市",
    "city_kana": "ナメリカワシ",
    "town": "東福寺",
    "town_kana": "トウフクジ",
    "street": null,
    "office_name": null,
    "office_name_kana": null
  },
  "0831": {
    "postcode": "9360831",
    "prefecture": "富山県",
    "prefecture_kana": "トヤマケン",
    "prefecture_code": 16,
    "city": "滑川市",
    "city_kana": "ナメリカワシ",
    "town": "野尻",
    "town_kana": "ノジリ",
    "street": null,
    "office_name": null,
    "office_name_kana": null
  },
  "0832": {
    "postcode": "9360832",
    "prefecture": "富山県",
    "prefecture_kana": "トヤマケン",
    "prefecture_code": 16,
    "city": "滑川市",
    "city_kana": "ナメリカワシ",
    "town": "森野新",
    "town_kana": "モリノシン",
    "street": null,
    "office_name": null,
    "office_name_kana": null
  },
  "0833": {
    "postcode": "9360833",
    "prefecture": "富山県",
    "prefecture_kana": "トヤマケン",
    "prefecture_code": 16,
    "city": "滑川市",
    "city_kana": "ナメリカワシ",
    "town": "大崎野",
    "town_kana": "オオサキノ",
    "street": null,
    "office_name": null,
    "office_name_kana": null
  },
  "0834": {
    "postcode": "9360834",
    "prefecture": "富山県",
    "prefecture_kana": "トヤマケン",
    "prefecture_code": 16,
    "city": "滑川市",
    "city_kana": "ナメリカワシ",
    "town": "東福寺開",
    "town_kana": "トウフクジビラキ",
    "street": null,
    "office_name": null,
    "office_name_kana": null
  },
  "0835": {
    "postcode": "9360835",
    "prefecture": "富山県",
    "prefecture_kana": "トヤマケン",
    "prefecture_code": 16,
    "city": "滑川市",
    "city_kana": "ナメリカワシ",
    "town": "開",
    "town_kana": "ヒラキ",
    "street": null,
    "office_name": null,
    "office_name_kana": null
  },
  "0836": {
    "postcode": "9360836",
    "prefecture": "富山県",
    "prefecture_kana": "トヤマケン",
    "prefecture_code": 16,
    "city": "滑川市",
    "city_kana": "ナメリカワシ",
    "town": "改養寺",
    "town_kana": "カイヨウジ",
    "street": null,
    "office_name": null,
    "office_name_kana": null
  },
  "0837": {
    "postcode": "9360837",
    "prefecture": "富山県",
    "prefecture_kana": "トヤマケン",
    "prefecture_code": 16,
    "city": "滑川市",
    "city_kana": "ナメリカワシ",
    "town": "東金屋",
    "town_kana": "ヒガシカナヤ",
    "street": null,
    "office_name": null,
    "office_name_kana": null
  },
  "0838": {
    "postcode": "9360838",
    "prefecture": "富山県",
    "prefecture_kana": "トヤマケン",
    "prefecture_code": 16,
    "city": "滑川市",
    "city_kana": "ナメリカワシ",
    "town": "道寺",
    "town_kana": "ドウジ",
    "street": null,
    "office_name": null,
    "office_name_kana": null
  },
  "0841": {
    "postcode": "9360841",
    "prefecture": "富山県",
    "prefecture_kana": "トヤマケン",
    "prefecture_code": 16,
    "city": "滑川市",
    "city_kana": "ナメリカワシ",
    "town": "柴",
    "town_kana": "シバ",
    "street": null,
    "office_name": null,
    "office_name_kana": null
  },
  "0842": {
    "postcode": "9360842",
    "prefecture": "富山県",
    "prefecture_kana": "トヤマケン",
    "prefecture_code": 16,
    "city": "滑川市",
    "city_kana": "ナメリカワシ",
    "town": "赤浜栄町",
    "town_kana": "アカハマサカエマチ",
    "street": null,
    "office_name": null,
    "office_name_kana": null
  },
  "0843": {
    "postcode": "9360843",
    "prefecture": "富山県",
    "prefecture_kana": "トヤマケン",
    "prefecture_code": 16,
    "city": "滑川市",
    "city_kana": "ナメリカワシ",
    "town": "赤浜",
    "town_kana": "アカハマ",
    "street": null,
    "office_name": null,
    "office_name_kana": null
  },
  "0844": {
    "postcode": "9360844",
    "prefecture": "富山県",
    "prefecture_kana": "トヤマケン",
    "prefecture_code": 16,
    "city": "滑川市",
    "city_kana": "ナメリカワシ",
    "town": "寺町",
    "town_kana": "テラマチ",
    "street": null,
    "office_name": null,
    "office_name_kana": null
  },
  "0845": {
    "postcode": "9360845",
    "prefecture": "富山県",
    "prefecture_kana": "トヤマケン",
    "prefecture_code": 16,
    "city": "滑川市",
    "city_kana": "ナメリカワシ",
    "town": "森尻新",
    "town_kana": "モリジリシン",
    "street": null,
    "office_name": null,
    "office_name_kana": null
  },
  "0846": {
    "postcode": "9360846",
    "prefecture": "富山県",
    "prefecture_kana": "トヤマケン",
    "prefecture_code": 16,
    "city": "滑川市",
    "city_kana": "ナメリカワシ",
    "town": "堀江",
    "town_kana": "ホリエ",
    "street": null,
    "office_name": null,
    "office_name_kana": null
  },
  "0847": {
    "postcode": "9360847",
    "prefecture": "富山県",
    "prefecture_kana": "トヤマケン",
    "prefecture_code": 16,
    "city": "滑川市",
    "city_kana": "ナメリカワシ",
    "town": "天望町",
    "town_kana": "テンボウチョウ",
    "street": null,
    "office_name": null,
    "office_name_kana": null
  },
  "0848": {
    "postcode": "9360848",
    "prefecture": "富山県",
    "prefecture_kana": "トヤマケン",
    "prefecture_code": 16,
    "city": "滑川市",
    "city_kana": "ナメリカワシ",
    "town": "常光寺",
    "town_kana": "ジョウコウジ",
    "street": null,
    "office_name": null,
    "office_name_kana": null
  },
  "0849": {
    "postcode": "9360849",
    "prefecture": "富山県",
    "prefecture_kana": "トヤマケン",
    "prefecture_code": 16,
    "city": "滑川市",
    "city_kana": "ナメリカワシ",
    "town": "高柳",
    "town_kana": "タカヤナギ",
    "street": null,
    "office_name": null,
    "office_name_kana": null
  },
  "0851": {
    "postcode": "9360851",
    "prefecture": "富山県",
    "prefecture_kana": "トヤマケン",
    "prefecture_code": 16,
    "city": "滑川市",
    "city_kana": "ナメリカワシ",
    "town": "沖田新",
    "town_kana": "オキダシン",
    "street": null,
    "office_name": null,
    "office_name_kana": null
  },
  "0852": {
    "postcode": "9360852",
    "prefecture": "富山県",
    "prefecture_kana": "トヤマケン",
    "prefecture_code": 16,
    "city": "滑川市",
    "city_kana": "ナメリカワシ",
    "town": "上島",
    "town_kana": "カミジマ",
    "street": null,
    "office_name": null,
    "office_name_kana": null
  },
  "0853": {
    "postcode": "9360853",
    "prefecture": "富山県",
    "prefecture_kana": "トヤマケン",
    "prefecture_code": 16,
    "city": "滑川市",
    "city_kana": "ナメリカワシ",
    "town": "上梅沢",
    "town_kana": "カミウメザワ",
    "street": null,
    "office_name": null,
    "office_name_kana": null
  },
  "0854": {
    "postcode": "9360854",
    "prefecture": "富山県",
    "prefecture_kana": "トヤマケン",
    "prefecture_code": 16,
    "city": "滑川市",
    "city_kana": "ナメリカワシ",
    "town": "小林",
    "town_kana": "コバヤシ",
    "street": null,
    "office_name": null,
    "office_name_kana": null
  },
  "0855": {
    "postcode": "9360855",
    "prefecture": "富山県",
    "prefecture_kana": "トヤマケン",
    "prefecture_code": 16,
    "city": "滑川市",
    "city_kana": "ナメリカワシ",
    "town": "有金",
    "town_kana": "アリカネ",
    "street": null,
    "office_name": null,
    "office_name_kana": null
  },
  "0856": {
    "postcode": "9360856",
    "prefecture": "富山県",
    "prefecture_kana": "トヤマケン",
    "prefecture_code": 16,
    "city": "滑川市",
    "city_kana": "ナメリカワシ",
    "town": "大門",
    "town_kana": "ダイモン",
    "street": null,
    "office_name": null,
    "office_name_kana": null
  },
  "0857": {
    "postcode": "9360857",
    "prefecture": "富山県",
    "prefecture_kana": "トヤマケン",
    "prefecture_code": 16,
    "city": "滑川市",
    "city_kana": "ナメリカワシ",
    "town": "下梅沢",
    "town_kana": "シモウメザワ",
    "street": null,
    "office_name": null,
    "office_name_kana": null
  },
  "0861": {
    "postcode": "9360861",
    "prefecture": "富山県",
    "prefecture_kana": "トヤマケン",
    "prefecture_code": 16,
    "city": "滑川市",
    "city_kana": "ナメリカワシ",
    "town": "中新",
    "town_kana": "ナカシン",
    "street": null,
    "office_name": null,
    "office_name_kana": null
  },
  "0862": {
    "postcode": "9360862",
    "prefecture": "富山県",
    "prefecture_kana": "トヤマケン",
    "prefecture_code": 16,
    "city": "滑川市",
    "city_kana": "ナメリカワシ",
    "town": "四屋新",
    "town_kana": "ヨツヤシン",
    "street": null,
    "office_name": null,
    "office_name_kana": null
  },
  "0863": {
    "postcode": "9360863",
    "prefecture": "富山県",
    "prefecture_kana": "トヤマケン",
    "prefecture_code": 16,
    "city": "滑川市",
    "city_kana": "ナメリカワシ",
    "town": "栃山",
    "town_kana": "トチヤマ",
    "street": null,
    "office_name": null,
    "office_name_kana": null
  },
  "0864": {
    "postcode": "9360864",
    "prefecture": "富山県",
    "prefecture_kana": "トヤマケン",
    "prefecture_code": 16,
    "city": "滑川市",
    "city_kana": "ナメリカワシ",
    "town": "金屋",
    "town_kana": "カナヤ",
    "street": null,
    "office_name": null,
    "office_name_kana": null
  },
  "0865": {
    "postcode": "9360865",
    "prefecture": "富山県",
    "prefecture_kana": "トヤマケン",
    "prefecture_code": 16,
    "city": "滑川市",
    "city_kana": "ナメリカワシ",
    "town": "七口",
    "town_kana": "ナナクチ",
    "street": null,
    "office_name": null,
    "office_name_kana": null
  },
  "0866": {
    "postcode": "9360866",
    "prefecture": "富山県",
    "prefecture_kana": "トヤマケン",
    "prefecture_code": 16,
    "city": "滑川市",
    "city_kana": "ナメリカワシ",
    "town": "宮窪新",
    "town_kana": "ミヤノクボシン",
    "street": null,
    "office_name": null,
    "office_name_kana": null
  },
  "0867": {
    "postcode": "9360867",
    "prefecture": "富山県",
    "prefecture_kana": "トヤマケン",
    "prefecture_code": 16,
    "city": "滑川市",
    "city_kana": "ナメリカワシ",
    "town": "宮窪台",
    "town_kana": "ミヤノクボダイ",
    "street": null,
    "office_name": null,
    "office_name_kana": null
  },
  "0868": {
    "postcode": "9360868",
    "prefecture": "富山県",
    "prefecture_kana": "トヤマケン",
    "prefecture_code": 16,
    "city": "滑川市",
    "city_kana": "ナメリカワシ",
    "town": "宮窪",
    "town_kana": "ミヤノクボ",
    "street": null,
    "office_name": null,
    "office_name_kana": null
  },
  "0871": {
    "postcode": "9360871",
    "prefecture": "富山県",
    "prefecture_kana": "トヤマケン",
    "prefecture_code": 16,
    "city": "滑川市",
    "city_kana": "ナメリカワシ",
    "town": "大島新",
    "town_kana": "オオジマシン",
    "street": null,
    "office_name": null,
    "office_name_kana": null
  },
  "0872": {
    "postcode": "9360872",
    "prefecture": "富山県",
    "prefecture_kana": "トヤマケン",
    "prefecture_code": 16,
    "city": "滑川市",
    "city_kana": "ナメリカワシ",
    "town": "二塚",
    "town_kana": "フタツカ",
    "street": null,
    "office_name": null,
    "office_name_kana": null
  },
  "0873": {
    "postcode": "9360873",
    "prefecture": "富山県",
    "prefecture_kana": "トヤマケン",
    "prefecture_code": 16,
    "city": "滑川市",
    "city_kana": "ナメリカワシ",
    "town": "横道",
    "town_kana": "ヨコミチ",
    "street": null,
    "office_name": null,
    "office_name_kana": null
  },
  "0874": {
    "postcode": "9360874",
    "prefecture": "富山県",
    "prefecture_kana": "トヤマケン",
    "prefecture_code": 16,
    "city": "滑川市",
    "city_kana": "ナメリカワシ",
    "town": "大榎",
    "town_kana": "オオエノキ",
    "street": null,
    "office_name": null,
    "office_name_kana": null
  },
  "0875": {
    "postcode": "9360875",
    "prefecture": "富山県",
    "prefecture_kana": "トヤマケン",
    "prefecture_code": 16,
    "city": "滑川市",
    "city_kana": "ナメリカワシ",
    "town": "中塚",
    "town_kana": "ナカツカ",
    "street": null,
    "office_name": null,
    "office_name_kana": null
  },
  "0876": {
    "postcode": "9360876",
    "prefecture": "富山県",
    "prefecture_kana": "トヤマケン",
    "prefecture_code": 16,
    "city": "滑川市",
    "city_kana": "ナメリカワシ",
    "town": "稲泉新",
    "town_kana": "イナイズミシン",
    "street": null,
    "office_name": null,
    "office_name_kana": null
  },
  "0877": {
    "postcode": "9360877",
    "prefecture": "富山県",
    "prefecture_kana": "トヤマケン",
    "prefecture_code": 16,
    "city": "滑川市",
    "city_kana": "ナメリカワシ",
    "town": "稲泉",
    "town_kana": "イナイズミ",
    "street": null,
    "office_name": null,
    "office_name_kana": null
  },
  "0881": {
    "postcode": "9360881",
    "prefecture": "富山県",
    "prefecture_kana": "トヤマケン",
    "prefecture_code": 16,
    "city": "滑川市",
    "city_kana": "ナメリカワシ",
    "town": "藤栄",
    "town_kana": "フジエイ",
    "street": null,
    "office_name": null,
    "office_name_kana": null
  },
  "0882": {
    "postcode": "9360882",
    "prefecture": "富山県",
    "prefecture_kana": "トヤマケン",
    "prefecture_code": 16,
    "city": "滑川市",
    "city_kana": "ナメリカワシ",
    "town": "中野島",
    "town_kana": "ナカノシマ",
    "street": null,
    "office_name": null,
    "office_name_kana": null
  },
  "0883": {
    "postcode": "9360883",
    "prefecture": "富山県",
    "prefecture_kana": "トヤマケン",
    "prefecture_code": 16,
    "city": "滑川市",
    "city_kana": "ナメリカワシ",
    "town": "野町",
    "town_kana": "ノマチ",
    "street": null,
    "office_name": null,
    "office_name_kana": null
  },
  "0884": {
    "postcode": "9360884",
    "prefecture": "富山県",
    "prefecture_kana": "トヤマケン",
    "prefecture_code": 16,
    "city": "滑川市",
    "city_kana": "ナメリカワシ",
    "town": "米島",
    "town_kana": "ヨネジマ",
    "street": null,
    "office_name": null,
    "office_name_kana": null
  },
  "0885": {
    "postcode": "9360885",
    "prefecture": "富山県",
    "prefecture_kana": "トヤマケン",
    "prefecture_code": 16,
    "city": "滑川市",
    "city_kana": "ナメリカワシ",
    "town": "法花寺",
    "town_kana": "ホッケジ",
    "street": null,
    "office_name": null,
    "office_name_kana": null
  },
  "0891": {
    "postcode": "9360891",
    "prefecture": "富山県",
    "prefecture_kana": "トヤマケン",
    "prefecture_code": 16,
    "city": "中新川郡上市町",
    "city_kana": "ナカニイカワグンカミイチマチ",
    "town": "護摩堂",
    "town_kana": "ゴマドウ",
    "street": null,
    "office_name": null,
    "office_name_kana": null
  },
  "8501": {
    "postcode": "9368501",
    "prefecture": "富山県",
    "prefecture_kana": "トヤマケン",
    "prefecture_code": 16,
    "city": "滑川市",
    "city_kana": "ナメリカワシ",
    "town": "上小泉",
    "town_kana": "カミコイズミ",
    "street": "１５８６",
    "office_name": "三晶技研　株式会社",
    "office_name_kana": "サンシヨウギケン カブシキガイシヤ"
  },
  "8502": {
    "postcode": "9368502",
    "prefecture": "富山県",
    "prefecture_kana": "トヤマケン",
    "prefecture_code": 16,
    "city": "富山市",
    "city_kana": "トヤマシ",
    "town": "水橋五郎丸",
    "town_kana": "ミズハシゴロウマル",
    "street": "２００７番地",
    "office_name": "有限会社　ウスイ興産",
    "office_name_kana": "ユウゲンガイシヤ ウスイコウサン"
  },
  "8507": {
    "postcode": "9368507",
    "prefecture": "富山県",
    "prefecture_kana": "トヤマケン",
    "prefecture_code": 16,
    "city": "滑川市",
    "city_kana": "ナメリカワシ",
    "town": "加島町",
    "town_kana": "カシマチョウ",
    "street": "４５",
    "office_name": "富山県立　滑川高等学校",
    "office_name_kana": "トヤマケンリツ ナメリカワコウトウガツコウ"
  },
  "8536": {
    "postcode": "9368536",
    "prefecture": "富山県",
    "prefecture_kana": "トヤマケン",
    "prefecture_code": 16,
    "city": "滑川市",
    "city_kana": "ナメリカワシ",
    "town": "高塚",
    "town_kana": "タカツカ",
    "street": "３６４",
    "office_name": "富山県　水産試験場",
    "office_name_kana": "トヤマケン スイサンシケンジヨウ"
  },
  "8555": {
    "postcode": "9368555",
    "prefecture": "富山県",
    "prefecture_kana": "トヤマケン",
    "prefecture_code": 16,
    "city": "滑川市",
    "city_kana": "ナメリカワシ",
    "town": "大島",
    "town_kana": "オオジマ",
    "street": "５３０",
    "office_name": "日本カーバイド工業　株式会社　早月工場",
    "office_name_kana": "ニホンカ-バイドコウギヨウ カブシキガイシヤ ハヤツキコウジヨウ"
  },
  "8558": {
    "postcode": "9368558",
    "prefecture": "富山県",
    "prefecture_kana": "トヤマケン",
    "prefecture_code": 16,
    "city": "滑川市",
    "city_kana": "ナメリカワシ",
    "town": "法花寺",
    "town_kana": "ホッケジ",
    "street": "２３３",
    "office_name": "北陸電機製造　株式会社",
    "office_name_kana": "ホクリクデンキセイゾウ カブシキガイシヤ"
  },
  "8577": {
    "postcode": "9368577",
    "prefecture": "富山県",
    "prefecture_kana": "トヤマケン",
    "prefecture_code": 16,
    "city": "滑川市",
    "city_kana": "ナメリカワシ",
    "town": "栗山",
    "town_kana": "クリヤマ",
    "street": "２８８０",
    "office_name": "株式会社　スギノマシン　早月工場",
    "office_name_kana": "カブシキガイシヤ スギノマシン ハヤツキコウジヨウ"
  },
  "8585": {
    "postcode": "9368585",
    "prefecture": "富山県",
    "prefecture_kana": "トヤマケン",
    "prefecture_code": 16,
    "city": "滑川市",
    "city_kana": "ナメリカワシ",
    "town": "常盤町",
    "town_kana": "トキワチョウ",
    "street": "１１９",
    "office_name": "厚生連　滑川病院",
    "office_name_kana": "コウセイレン ナメリカワビヨウイン"
  },
  "8588": {
    "postcode": "9368588",
    "prefecture": "富山県",
    "prefecture_kana": "トヤマケン",
    "prefecture_code": 16,
    "city": "滑川市",
    "city_kana": "ナメリカワシ",
    "town": "中野島",
    "town_kana": "ナカノシマ",
    "street": "１８００",
    "office_name": "株式会社　スギノマシン　滑川工場",
    "office_name_kana": "カブシキガイシヤ スギノマシン ナメリカワコウジヨウ"
  },
  "8601": {
    "postcode": "9368601",
    "prefecture": "富山県",
    "prefecture_kana": "トヤマケン",
    "prefecture_code": 16,
    "city": "滑川市",
    "city_kana": "ナメリカワシ",
    "town": "寺家町",
    "town_kana": "ジケイマチ",
    "street": "１０４（滑川郵便局私書箱第５号）",
    "office_name": "滑川市役所",
    "office_name_kana": "ナメリカワシヤクシヨ"
  },
  "8608": {
    "postcode": "9368608",
    "prefecture": "富山県",
    "prefecture_kana": "トヤマケン",
    "prefecture_code": 16,
    "city": "滑川市",
    "city_kana": "ナメリカワシ",
    "town": "四間町",
    "town_kana": "シケンチョウ",
    "street": "６９３−１（滑川郵便局私書箱第８号）",
    "office_name": "にいかわ信用金庫　滑川営業部",
    "office_name_kana": "ニイカワシンヨウキンコ ナメリカワエイギヨウブ"
  },
  "8686": {
    "postcode": "9368686",
    "prefecture": "富山県",
    "prefecture_kana": "トヤマケン",
    "prefecture_code": 16,
    "city": "滑川市",
    "city_kana": "ナメリカワシ",
    "town": "下小泉町",
    "town_kana": "シモコイズミマチ",
    "street": "８３−９",
    "office_name": "株式会社　北陸銀行　滑川支店",
    "office_name_kana": "カブシキガイシヤ ホクリクギンコウ ナメリカワシテン"
  }
}