{
  "0000": {
    "postcode": "9410000",
    "prefecture": "新潟県",
    "prefecture_kana": "ニイガタケン",
    "prefecture_code": 15,
    "city": "糸魚川市",
    "city_kana": "イトイガワシ",
    "town": "",
    "town_kana": "",
    "street": null,
    "office_name": null,
    "office_name_kana": null
  },
  "0001": {
    "postcode": "9410001",
    "prefecture": "新潟県",
    "prefecture_kana": "ニイガタケン",
    "prefecture_code": 15,
    "city": "糸魚川市",
    "city_kana": "イトイガワシ",
    "town": "間脇",
    "town_kana": "マワキ",
    "street": null,
    "office_name": null,
    "office_name_kana": null
  },
  "0002": {
    "postcode": "9410002",
    "prefecture": "新潟県",
    "prefecture_kana": "ニイガタケン",
    "prefecture_code": 15,
    "city": "糸魚川市",
    "city_kana": "イトイガワシ",
    "town": "中浜",
    "town_kana": "ナカハマ",
    "street": null,
    "office_name": null,
    "office_name_kana": null
  },
  "0003": {
    "postcode": "9410003",
    "prefecture": "新潟県",
    "prefecture_kana": "ニイガタケン",
    "prefecture_code": 15,
    "city": "糸魚川市",
    "city_kana": "イトイガワシ",
    "town": "中宿",
    "town_kana": "ナカシュク",
    "street": null,
    "office_name": null,
    "office_name_kana": null
  },
  "0004": {
    "postcode": "9410004",
    "prefecture": "新潟県",
    "prefecture_kana": "ニイガタケン",
    "prefecture_code": 15,
    "city": "糸魚川市",
    "city_kana": "イトイガワシ",
    "town": "梶屋敷",
    "town_kana": "カジヤシキ",
    "street": null,
    "office_name": null,
    "office_name_kana": null
  },
  "0005": {
    "postcode": "9410005",
    "prefecture": "新潟県",
    "prefecture_kana": "ニイガタケン",
    "prefecture_code": 15,
    "city": "糸魚川市",
    "city_kana": "イトイガワシ",
    "town": "厚田",
    "town_kana": "アツダ",
    "street": null,
    "office_name": null,
    "office_name_kana": null
  },
  "0006": {
    "postcode": "9410006",
    "prefecture": "新潟県",
    "prefecture_kana": "ニイガタケン",
    "prefecture_code": 15,
    "city": "糸魚川市",
    "city_kana": "イトイガワシ",
    "town": "竹ケ花",
    "town_kana": "タケガハナ",
    "street": null,
    "office_name": null,
    "office_name_kana": null
  },
  "0007": {
    "postcode": "9410007",
    "prefecture": "新潟県",
    "prefecture_kana": "ニイガタケン",
    "prefecture_code": 15,
    "city": "糸魚川市",
    "city_kana": "イトイガワシ",
    "town": "大和川",
    "town_kana": "ヤマトガワ",
    "street": null,
    "office_name": null,
    "office_name_kana": null
  },
  "0008": {
    "postcode": "9410008",
    "prefecture": "新潟県",
    "prefecture_kana": "ニイガタケン",
    "prefecture_code": 15,
    "city": "糸魚川市",
    "city_kana": "イトイガワシ",
    "town": "田伏",
    "town_kana": "タブセ",
    "street": null,
    "office_name": null,
    "office_name_kana": null
  },
  "0011": {
    "postcode": "9410011",
    "prefecture": "新潟県",
    "prefecture_kana": "ニイガタケン",
    "prefecture_code": 15,
    "city": "糸魚川市",
    "city_kana": "イトイガワシ",
    "town": "滝川原",
    "town_kana": "タキカワラ",
    "street": null,
    "office_name": null,
    "office_name_kana": null
  },
  "0012": {
    "postcode": "9410012",
    "prefecture": "新潟県",
    "prefecture_kana": "ニイガタケン",
    "prefecture_code": 15,
    "city": "糸魚川市",
    "city_kana": "イトイガワシ",
    "town": "上出",
    "town_kana": "カミイデ",
    "street": null,
    "office_name": null,
    "office_name_kana": null
  },
  "0013": {
    "postcode": "9410013",
    "prefecture": "新潟県",
    "prefecture_kana": "ニイガタケン",
    "prefecture_code": 15,
    "city": "糸魚川市",
    "city_kana": "イトイガワシ",
    "town": "下出",
    "town_kana": "シモイデ",
    "street": null,
    "office_name": null,
    "office_name_kana": null
  },
  "0014": {
    "postcode": "9410014",
    "prefecture": "新潟県",
    "prefecture_kana": "ニイガタケン",
    "prefecture_code": 15,
    "city": "糸魚川市",
    "city_kana": "イトイガワシ",
    "town": "日光寺",
    "town_kana": "ニッコウジ",
    "street": null,
    "office_name": null,
    "office_name_kana": null
  },
  "0015": {
    "postcode": "9410015",
    "prefecture": "新潟県",
    "prefecture_kana": "ニイガタケン",
    "prefecture_code": 15,
    "city": "糸魚川市",
    "city_kana": "イトイガワシ",
    "town": "清水山",
    "town_kana": "シミズヤマ",
    "street": null,
    "office_name": null,
    "office_name_kana": null
  },
  "0016": {
    "postcode": "9410016",
    "prefecture": "新潟県",
    "prefecture_kana": "ニイガタケン",
    "prefecture_code": 15,
    "city": "糸魚川市",
    "city_kana": "イトイガワシ",
    "town": "四ツ屋",
    "town_kana": "ヨツヤ",
    "street": null,
    "office_name": null,
    "office_name_kana": null
  },
  "0019": {
    "postcode": "9410019",
    "prefecture": "新潟県",
    "prefecture_kana": "ニイガタケン",
    "prefecture_code": 15,
    "city": "糸魚川市",
    "city_kana": "イトイガワシ",
    "town": "道明",
    "town_kana": "ドウミョウ",
    "street": null,
    "office_name": null,
    "office_name_kana": null
  },
  "0021": {
    "postcode": "9410021",
    "prefecture": "新潟県",
    "prefecture_kana": "ニイガタケン",
    "prefecture_code": 15,
    "city": "糸魚川市",
    "city_kana": "イトイガワシ",
    "town": "東海",
    "town_kana": "ヒガシウミ",
    "street": null,
    "office_name": null,
    "office_name_kana": null
  },
  "0022": {
    "postcode": "9410022",
    "prefecture": "新潟県",
    "prefecture_kana": "ニイガタケン",
    "prefecture_code": 15,
    "city": "糸魚川市",
    "city_kana": "イトイガワシ",
    "town": "新町",
    "town_kana": "アラマチ",
    "street": null,
    "office_name": null,
    "office_name_kana": null
  },
  "0023": {
    "postcode": "9410023",
    "prefecture": "新潟県",
    "prefecture_kana": "ニイガタケン",
    "prefecture_code": 15,
    "city": "糸魚川市",
    "city_kana": "イトイガワシ",
    "town": "上覚",
    "town_kana": "ジョウカク",
    "street": null,
    "office_name": null,
    "office_name_kana": null
  },
  "0024": {
    "postcode": "9410024",
    "prefecture": "新潟県",
    "prefecture_kana": "ニイガタケン",
    "prefecture_code": 15,
    "city": "糸魚川市",
    "city_kana": "イトイガワシ",
    "town": "西谷内",
    "town_kana": "ニシヤチ",
    "street": null,
    "office_name": null,
    "office_name_kana": null
  },
  "0025": {
    "postcode": "9410025",
    "prefecture": "新潟県",
    "prefecture_kana": "ニイガタケン",
    "prefecture_code": 15,
    "city": "糸魚川市",
    "city_kana": "イトイガワシ",
    "town": "堀切",
    "town_kana": "ホリキリ",
    "street": null,
    "office_name": null,
    "office_name_kana": null
  },
  "0026": {
    "postcode": "9410026",
    "prefecture": "新潟県",
    "prefecture_kana": "ニイガタケン",
    "prefecture_code": 15,
    "city": "糸魚川市",
    "city_kana": "イトイガワシ",
    "town": "田屋",
    "town_kana": "タヤ",
    "street": null,
    "office_name": null,
    "office_name_kana": null
  },
  "0027": {
    "postcode": "9410027",
    "prefecture": "新潟県",
    "prefecture_kana": "ニイガタケン",
    "prefecture_code": 15,
    "city": "糸魚川市",
    "city_kana": "イトイガワシ",
    "town": "東川原",
    "town_kana": "ヒガシカワラ",
    "street": null,
    "office_name": null,
    "office_name_kana": null
  },
  "0031": {
    "postcode": "9410031",
    "prefecture": "新潟県",
    "prefecture_kana": "ニイガタケン",
    "prefecture_code": 15,
    "city": "糸魚川市",
    "city_kana": "イトイガワシ",
    "town": "粟倉",
    "town_kana": "アワクラ",
    "street": null,
    "office_name": null,
    "office_name_kana": null
  },
  "0032": {
    "postcode": "9410032",
    "prefecture": "新潟県",
    "prefecture_kana": "ニイガタケン",
    "prefecture_code": 15,
    "city": "糸魚川市",
    "city_kana": "イトイガワシ",
    "town": "来海沢",
    "town_kana": "クルミザワ",
    "street": null,
    "office_name": null,
    "office_name_kana": null
  },
  "0033": {
    "postcode": "9410033",
    "prefecture": "新潟県",
    "prefecture_kana": "ニイガタケン",
    "prefecture_code": 15,
    "city": "糸魚川市",
    "city_kana": "イトイガワシ",
    "town": "御前山",
    "town_kana": "ゴゼンヤマ",
    "street": null,
    "office_name": null,
    "office_name_kana": null
  },
  "0034": {
    "postcode": "9410034",
    "prefecture": "新潟県",
    "prefecture_kana": "ニイガタケン",
    "prefecture_code": 15,
    "city": "糸魚川市",
    "city_kana": "イトイガワシ",
    "town": "市野々",
    "town_kana": "イチノノ",
    "street": null,
    "office_name": null,
    "office_name_kana": null
  },
  "0035": {
    "postcode": "9410035",
    "prefecture": "新潟県",
    "prefecture_kana": "ニイガタケン",
    "prefecture_code": 15,
    "city": "糸魚川市",
    "city_kana": "イトイガワシ",
    "town": "真木",
    "town_kana": "マキ",
    "street": null,
    "office_name": null,
    "office_name_kana": null
  },
  "0036": {
    "postcode": "9410036",
    "prefecture": "新潟県",
    "prefecture_kana": "ニイガタケン",
    "prefecture_code": 15,
    "city": "糸魚川市",
    "city_kana": "イトイガワシ",
    "town": "釜沢",
    "town_kana": "カマザワ",
    "street": null,
    "office_name": null,
    "office_name_kana": null
  },
  "0037": {
    "postcode": "9410037",
    "prefecture": "新潟県",
    "prefecture_kana": "ニイガタケン",
    "prefecture_code": 15,
    "city": "糸魚川市",
    "city_kana": "イトイガワシ",
    "town": "道平",
    "town_kana": "ドウタイラ",
    "street": null,
    "office_name": null,
    "office_name_kana": null
  },
  "0041": {
    "postcode": "9410041",
    "prefecture": "新潟県",
    "prefecture_kana": "ニイガタケン",
    "prefecture_code": 15,
    "city": "糸魚川市",
    "city_kana": "イトイガワシ",
    "town": "真光寺",
    "town_kana": "シンコウジ",
    "street": null,
    "office_name": null,
    "office_name_kana": null
  },
  "0042": {
    "postcode": "9410042",
    "prefecture": "新潟県",
    "prefecture_kana": "ニイガタケン",
    "prefecture_code": 15,
    "city": "糸魚川市",
    "city_kana": "イトイガワシ",
    "town": "川島",
    "town_kana": "カワシマ",
    "street": null,
    "office_name": null,
    "office_name_kana": null
  },
  "0043": {
    "postcode": "9410043",
    "prefecture": "新潟県",
    "prefecture_kana": "ニイガタケン",
    "prefecture_code": 15,
    "city": "糸魚川市",
    "city_kana": "イトイガワシ",
    "town": "田中",
    "town_kana": "タナカ",
    "street": null,
    "office_name": null,
    "office_name_kana": null
  },
  "0044": {
    "postcode": "9410044",
    "prefecture": "新潟県",
    "prefecture_kana": "ニイガタケン",
    "prefecture_code": 15,
    "city": "糸魚川市",
    "city_kana": "イトイガワシ",
    "town": "水保",
    "town_kana": "ミズホ",
    "street": null,
    "office_name": null,
    "office_name_kana": null
  },
  "0045": {
    "postcode": "9410045",
    "prefecture": "新潟県",
    "prefecture_kana": "ニイガタケン",
    "prefecture_code": 15,
    "city": "糸魚川市",
    "city_kana": "イトイガワシ",
    "town": "成沢",
    "town_kana": "ナリサワ",
    "street": null,
    "office_name": null,
    "office_name_kana": null
  },
  "0046": {
    "postcode": "9410046",
    "prefecture": "新潟県",
    "prefecture_kana": "ニイガタケン",
    "prefecture_code": 15,
    "city": "糸魚川市",
    "city_kana": "イトイガワシ",
    "town": "羽生",
    "town_kana": "ハニュウ",
    "street": null,
    "office_name": null,
    "office_name_kana": null
  },
  "0047": {
    "postcode": "9410047",
    "prefecture": "新潟県",
    "prefecture_kana": "ニイガタケン",
    "prefecture_code": 15,
    "city": "糸魚川市",
    "city_kana": "イトイガワシ",
    "town": "平牛",
    "town_kana": "ヒラウシ",
    "street": null,
    "office_name": null,
    "office_name_kana": null
  },
  "0051": {
    "postcode": "9410051",
    "prefecture": "新潟県",
    "prefecture_kana": "ニイガタケン",
    "prefecture_code": 15,
    "city": "糸魚川市",
    "city_kana": "イトイガワシ",
    "town": "押上",
    "town_kana": "オシアゲ",
    "street": null,
    "office_name": null,
    "office_name_kana": null
  },
  "0052": {
    "postcode": "9410052",
    "prefecture": "新潟県",
    "prefecture_kana": "ニイガタケン",
    "prefecture_code": 15,
    "city": "糸魚川市",
    "city_kana": "イトイガワシ",
    "town": "南押上",
    "town_kana": "ミナミオシアゲ",
    "street": null,
    "office_name": null,
    "office_name_kana": null
  },
  "0053": {
    "postcode": "9410053",
    "prefecture": "新潟県",
    "prefecture_kana": "ニイガタケン",
    "prefecture_code": 15,
    "city": "糸魚川市",
    "city_kana": "イトイガワシ",
    "town": "東寺町",
    "town_kana": "ヒガシテラマチ",
    "street": null,
    "office_name": null,
    "office_name_kana": null
  },
  "0054": {
    "postcode": "9410054",
    "prefecture": "新潟県",
    "prefecture_kana": "ニイガタケン",
    "prefecture_code": 15,
    "city": "糸魚川市",
    "city_kana": "イトイガワシ",
    "town": "京ケ峰",
    "town_kana": "キョウガミネ",
    "street": null,
    "office_name": null,
    "office_name_kana": null
  },
  "0055": {
    "postcode": "9410055",
    "prefecture": "新潟県",
    "prefecture_kana": "ニイガタケン",
    "prefecture_code": 15,
    "city": "糸魚川市",
    "city_kana": "イトイガワシ",
    "town": "蓮台寺",
    "town_kana": "レンダイジ",
    "street": null,
    "office_name": null,
    "office_name_kana": null
  },
  "0056": {
    "postcode": "9410056",
    "prefecture": "新潟県",
    "prefecture_kana": "ニイガタケン",
    "prefecture_code": 15,
    "city": "糸魚川市",
    "city_kana": "イトイガワシ",
    "town": "一の宮",
    "town_kana": "イチノミヤ",
    "street": null,
    "office_name": null,
    "office_name_kana": null
  },
  "0057": {
    "postcode": "9410057",
    "prefecture": "新潟県",
    "prefecture_kana": "ニイガタケン",
    "prefecture_code": 15,
    "city": "糸魚川市",
    "city_kana": "イトイガワシ",
    "town": "南寺町",
    "town_kana": "ミナミテラマチ",
    "street": null,
    "office_name": null,
    "office_name_kana": null
  },
  "0058": {
    "postcode": "9410058",
    "prefecture": "新潟県",
    "prefecture_kana": "ニイガタケン",
    "prefecture_code": 15,
    "city": "糸魚川市",
    "city_kana": "イトイガワシ",
    "town": "寺町",
    "town_kana": "テラマチ",
    "street": null,
    "office_name": null,
    "office_name_kana": null
  },
  "0061": {
    "postcode": "9410061",
    "prefecture": "新潟県",
    "prefecture_kana": "ニイガタケン",
    "prefecture_code": 15,
    "city": "糸魚川市",
    "city_kana": "イトイガワシ",
    "town": "大町",
    "town_kana": "オオマチ",
    "street": null,
    "office_name": null,
    "office_name_kana": null
  },
  "0062": {
    "postcode": "9410062",
    "prefecture": "新潟県",
    "prefecture_kana": "ニイガタケン",
    "prefecture_code": 15,
    "city": "糸魚川市",
    "city_kana": "イトイガワシ",
    "town": "中央",
    "town_kana": "チュウオウ",
    "street": null,
    "office_name": null,
    "office_name_kana": null
  },
  "0063": {
    "postcode": "9410063",
    "prefecture": "新潟県",
    "prefecture_kana": "ニイガタケン",
    "prefecture_code": 15,
    "city": "糸魚川市",
    "city_kana": "イトイガワシ",
    "town": "清崎",
    "town_kana": "キヨサキ",
    "street": null,
    "office_name": null,
    "office_name_kana": null
  },
  "0064": {
    "postcode": "9410064",
    "prefecture": "新潟県",
    "prefecture_kana": "ニイガタケン",
    "prefecture_code": 15,
    "city": "糸魚川市",
    "city_kana": "イトイガワシ",
    "town": "上刈",
    "town_kana": "ウエカリ",
    "street": null,
    "office_name": null,
    "office_name_kana": null
  },
  "0065": {
    "postcode": "9410065",
    "prefecture": "新潟県",
    "prefecture_kana": "ニイガタケン",
    "prefecture_code": 15,
    "city": "糸魚川市",
    "city_kana": "イトイガワシ",
    "town": "新鉄",
    "town_kana": "シンテツ",
    "street": null,
    "office_name": null,
    "office_name_kana": null
  },
  "0066": {
    "postcode": "9410066",
    "prefecture": "新潟県",
    "prefecture_kana": "ニイガタケン",
    "prefecture_code": 15,
    "city": "糸魚川市",
    "city_kana": "イトイガワシ",
    "town": "寺島",
    "town_kana": "テラジマ",
    "street": null,
    "office_name": null,
    "office_name_kana": null
  },
  "0067": {
    "postcode": "9410067",
    "prefecture": "新潟県",
    "prefecture_kana": "ニイガタケン",
    "prefecture_code": 15,
    "city": "糸魚川市",
    "city_kana": "イトイガワシ",
    "town": "横町",
    "town_kana": "ヨコマチ",
    "street": null,
    "office_name": null,
    "office_name_kana": null
  },
  "0068": {
    "postcode": "9410068",
    "prefecture": "新潟県",
    "prefecture_kana": "ニイガタケン",
    "prefecture_code": 15,
    "city": "糸魚川市",
    "city_kana": "イトイガワシ",
    "town": "本町",
    "town_kana": "ホンチョウ",
    "street": null,
    "office_name": null,
    "office_name_kana": null
  },
  "0069": {
    "postcode": "9410069",
    "prefecture": "新潟県",
    "prefecture_kana": "ニイガタケン",
    "prefecture_code": 15,
    "city": "糸魚川市",
    "city_kana": "イトイガワシ",
    "town": "南寺島",
    "town_kana": "ミナミテラジマ",
    "street": null,
    "office_name": null,
    "office_name_kana": null
  },
  "0071": {
    "postcode": "9410071",
    "prefecture": "新潟県",
    "prefecture_kana": "ニイガタケン",
    "prefecture_code": 15,
    "city": "糸魚川市",
    "city_kana": "イトイガワシ",
    "town": "大野",
    "town_kana": "オオノ",
    "street": null,
    "office_name": null,
    "office_name_kana": null
  },
  "0072": {
    "postcode": "9410072",
    "prefecture": "新潟県",
    "prefecture_kana": "ニイガタケン",
    "prefecture_code": 15,
    "city": "糸魚川市",
    "city_kana": "イトイガワシ",
    "town": "山本",
    "town_kana": "ヤマモト",
    "street": null,
    "office_name": null,
    "office_name_kana": null
  },
  "0073": {
    "postcode": "9410073",
    "prefecture": "新潟県",
    "prefecture_kana": "ニイガタケン",
    "prefecture_code": 15,
    "city": "糸魚川市",
    "city_kana": "イトイガワシ",
    "town": "西川原",
    "town_kana": "ニシガワラ",
    "street": null,
    "office_name": null,
    "office_name_kana": null
  },
  "0074": {
    "postcode": "9410074",
    "prefecture": "新潟県",
    "prefecture_kana": "ニイガタケン",
    "prefecture_code": 15,
    "city": "糸魚川市",
    "city_kana": "イトイガワシ",
    "town": "大谷内",
    "town_kana": "オオヤチ",
    "street": null,
    "office_name": null,
    "office_name_kana": null
  },
  "0075": {
    "postcode": "9410075",
    "prefecture": "新潟県",
    "prefecture_kana": "ニイガタケン",
    "prefecture_code": 15,
    "city": "糸魚川市",
    "city_kana": "イトイガワシ",
    "town": "中谷内",
    "town_kana": "ナカヤチ",
    "street": null,
    "office_name": null,
    "office_name_kana": null
  },
  "0076": {
    "postcode": "9410076",
    "prefecture": "新潟県",
    "prefecture_kana": "ニイガタケン",
    "prefecture_code": 15,
    "city": "糸魚川市",
    "city_kana": "イトイガワシ",
    "town": "西中",
    "town_kana": "ニシナカ",
    "street": null,
    "office_name": null,
    "office_name_kana": null
  },
  "0077": {
    "postcode": "9410077",
    "prefecture": "新潟県",
    "prefecture_kana": "ニイガタケン",
    "prefecture_code": 15,
    "city": "糸魚川市",
    "city_kana": "イトイガワシ",
    "town": "頭山",
    "town_kana": "ツムリヤマ",
    "street": null,
    "office_name": null,
    "office_name_kana": null
  },
  "0078": {
    "postcode": "9410078",
    "prefecture": "新潟県",
    "prefecture_kana": "ニイガタケン",
    "prefecture_code": 15,
    "city": "糸魚川市",
    "city_kana": "イトイガワシ",
    "town": "岩木",
    "town_kana": "イワキ",
    "street": null,
    "office_name": null,
    "office_name_kana": null
  },
  "8501": {
    "postcode": "9418501",
    "prefecture": "新潟県",
    "prefecture_kana": "ニイガタケン",
    "prefecture_code": 15,
    "city": "糸魚川市",
    "city_kana": "イトイガワシ",
    "town": "一の宮",
    "town_kana": "イチノミヤ",
    "street": "１丁目２−５",
    "office_name": "糸魚川市役所",
    "office_name_kana": "イトイガワシヤクシヨ"
  },
  "8502": {
    "postcode": "9418502",
    "prefecture": "新潟県",
    "prefecture_kana": "ニイガタケン",
    "prefecture_code": 15,
    "city": "糸魚川市",
    "city_kana": "イトイガワシ",
    "town": "大字竹ケ花",
    "town_kana": null,
    "street": "４５７−１",
    "office_name": "糸魚川総合病院",
    "office_name_kana": "イトイガワソウゴウビヨウイン"
  },
  "8601": {
    "postcode": "9418601",
    "prefecture": "新潟県",
    "prefecture_kana": "ニイガタケン",
    "prefecture_code": 15,
    "city": "糸魚川市",
    "city_kana": "イトイガワシ",
    "town": "寺町",
    "town_kana": "テラマチ",
    "street": "２丁目８−１６（糸魚川郵便局私書箱第９号）",
    "office_name": "糸魚川商工会議所",
    "office_name_kana": "イトイガワシヨウコウカイギシヨ"
  },
  "8611": {
    "postcode": "9418611",
    "prefecture": "新潟県",
    "prefecture_kana": "ニイガタケン",
    "prefecture_code": 15,
    "city": "糸魚川市",
    "city_kana": "イトイガワシ",
    "town": "東寺町",
    "town_kana": "ヒガシテラマチ",
    "street": "１丁目３−４０（糸魚川郵便局私書箱第８号）",
    "office_name": "糸魚川税務署",
    "office_name_kana": "イトイガワゼイムシヨ"
  },
  "8686": {
    "postcode": "9418686",
    "prefecture": "新潟県",
    "prefecture_kana": "ニイガタケン",
    "prefecture_code": 15,
    "city": "糸魚川市",
    "city_kana": "イトイガワシ",
    "town": "大字大野",
    "town_kana": null,
    "street": "９７８（糸魚川郵便局私書箱第１３号）",
    "office_name": "株式会社　タナベ",
    "office_name_kana": "カブシキガイシヤ タナベ"
  }
}