{
  "0000": {
    "postcode": "9460000",
    "prefecture": "新潟県",
    "prefecture_kana": "ニイガタケン",
    "prefecture_code": 15,
    "city": "魚沼市",
    "city_kana": "ウオヌマシ",
    "town": "",
    "town_kana": "",
    "street": null,
    "office_name": null,
    "office_name_kana": null
  },
  "0001": {
    "postcode": "9460001",
    "prefecture": "新潟県",
    "prefecture_kana": "ニイガタケン",
    "prefecture_code": 15,
    "city": "魚沼市",
    "city_kana": "ウオヌマシ",
    "town": "日渡新田",
    "town_kana": "ヒワタシシンデン",
    "street": null,
    "office_name": null,
    "office_name_kana": null
  },
  "0002": {
    "postcode": "9460002",
    "prefecture": "新潟県",
    "prefecture_kana": "ニイガタケン",
    "prefecture_code": 15,
    "city": "魚沼市",
    "city_kana": "ウオヌマシ",
    "town": "稲荷町",
    "town_kana": "イナリチョウ",
    "street": null,
    "office_name": null,
    "office_name_kana": null
  },
  "0003": {
    "postcode": "9460003",
    "prefecture": "新潟県",
    "prefecture_kana": "ニイガタケン",
    "prefecture_code": 15,
    "city": "魚沼市",
    "city_kana": "ウオヌマシ",
    "town": "諏訪町",
    "town_kana": "スワチョウ",
    "street": null,
    "office_name": null,
    "office_name_kana": null
  },
  "0004": {
    "postcode": "9460004",
    "prefecture": "新潟県",
    "prefecture_kana": "ニイガタケン",
    "prefecture_code": 15,
    "city": "魚沼市",
    "city_kana": "ウオヌマシ",
    "town": "大塚新田",
    "town_kana": "オオヅカシンデン",
    "street": null,
    "office_name": null,
    "office_name_kana": null
  },
  "0005": {
    "postcode": "9460005",
    "prefecture": "新潟県",
    "prefecture_kana": "ニイガタケン",
    "prefecture_code": 15,
    "city": "魚沼市",
    "city_kana": "ウオヌマシ",
    "town": "横町",
    "town_kana": "ヨコチョウ",
    "street": null,
    "office_name": null,
    "office_name_kana": null
  },
  "0006": {
    "postcode": "9460006",
    "prefecture": "新潟県",
    "prefecture_kana": "ニイガタケン",
    "prefecture_code": 15,
    "city": "魚沼市",
    "city_kana": "ウオヌマシ",
    "town": "中ノ島",
    "town_kana": "ナカノシマ",
    "street": null,
    "office_name": null,
    "office_name_kana": null
  },
  "0007": {
    "postcode": "9460007",
    "prefecture": "新潟県",
    "prefecture_kana": "ニイガタケン",
    "prefecture_code": 15,
    "city": "魚沼市",
    "city_kana": "ウオヌマシ",
    "town": "四日町",
    "town_kana": "ヨッカマチ",
    "street": null,
    "office_name": null,
    "office_name_kana": null
  },
  "0011": {
    "postcode": "9460011",
    "prefecture": "新潟県",
    "prefecture_kana": "ニイガタケン",
    "prefecture_code": 15,
    "city": "魚沼市",
    "city_kana": "ウオヌマシ",
    "town": "小出島",
    "town_kana": "コイデジマ",
    "street": null,
    "office_name": null,
    "office_name_kana": null
  },
  "0012": {
    "postcode": "9460012",
    "prefecture": "新潟県",
    "prefecture_kana": "ニイガタケン",
    "prefecture_code": 15,
    "city": "魚沼市",
    "city_kana": "ウオヌマシ",
    "town": "浦町",
    "town_kana": "ウラマチ",
    "street": null,
    "office_name": null,
    "office_name_kana": null
  },
  "0021": {
    "postcode": "9460021",
    "prefecture": "新潟県",
    "prefecture_kana": "ニイガタケン",
    "prefecture_code": 15,
    "city": "魚沼市",
    "city_kana": "ウオヌマシ",
    "town": "佐梨",
    "town_kana": "サナシ",
    "street": null,
    "office_name": null,
    "office_name_kana": null
  },
  "0022": {
    "postcode": "9460022",
    "prefecture": "新潟県",
    "prefecture_kana": "ニイガタケン",
    "prefecture_code": 15,
    "city": "魚沼市",
    "city_kana": "ウオヌマシ",
    "town": "上原",
    "town_kana": "カミハラ",
    "street": null,
    "office_name": null,
    "office_name_kana": null
  },
  "0023": {
    "postcode": "9460023",
    "prefecture": "新潟県",
    "prefecture_kana": "ニイガタケン",
    "prefecture_code": 15,
    "city": "魚沼市",
    "city_kana": "ウオヌマシ",
    "town": "干溝",
    "town_kana": "ヒミゾ",
    "street": null,
    "office_name": null,
    "office_name_kana": null
  },
  "0024": {
    "postcode": "9460024",
    "prefecture": "新潟県",
    "prefecture_kana": "ニイガタケン",
    "prefecture_code": 15,
    "city": "魚沼市",
    "city_kana": "ウオヌマシ",
    "town": "中原",
    "town_kana": "ナカハラ",
    "street": null,
    "office_name": null,
    "office_name_kana": null
  },
  "0025": {
    "postcode": "9460025",
    "prefecture": "新潟県",
    "prefecture_kana": "ニイガタケン",
    "prefecture_code": 15,
    "city": "魚沼市",
    "city_kana": "ウオヌマシ",
    "town": "古新田",
    "town_kana": "コシンデン",
    "street": null,
    "office_name": null,
    "office_name_kana": null
  },
  "0031": {
    "postcode": "9460031",
    "prefecture": "新潟県",
    "prefecture_kana": "ニイガタケン",
    "prefecture_code": 15,
    "city": "魚沼市",
    "city_kana": "ウオヌマシ",
    "town": "原虫野",
    "town_kana": "ハラムシノ",
    "street": null,
    "office_name": null,
    "office_name_kana": null
  },
  "0032": {
    "postcode": "9460032",
    "prefecture": "新潟県",
    "prefecture_kana": "ニイガタケン",
    "prefecture_code": 15,
    "city": "魚沼市",
    "city_kana": "ウオヌマシ",
    "town": "板木",
    "town_kana": "イタギ",
    "street": null,
    "office_name": null,
    "office_name_kana": null
  },
  "0033": {
    "postcode": "9460033",
    "prefecture": "新潟県",
    "prefecture_kana": "ニイガタケン",
    "prefecture_code": 15,
    "city": "魚沼市",
    "city_kana": "ウオヌマシ",
    "town": "大浦",
    "town_kana": "オオウラ",
    "street": null,
    "office_name": null,
    "office_name_kana": null
  },
  "0034": {
    "postcode": "9460034",
    "prefecture": "新潟県",
    "prefecture_kana": "ニイガタケン",
    "prefecture_code": 15,
    "city": "魚沼市",
    "city_kana": "ウオヌマシ",
    "town": "大浦新田",
    "town_kana": "オオウラシンデン",
    "street": null,
    "office_name": null,
    "office_name_kana": null
  },
  "0035": {
    "postcode": "9460035",
    "prefecture": "新潟県",
    "prefecture_kana": "ニイガタケン",
    "prefecture_code": 15,
    "city": "魚沼市",
    "city_kana": "ウオヌマシ",
    "town": "十日町",
    "town_kana": "トオカマチ",
    "street": null,
    "office_name": null,
    "office_name_kana": null
  },
  "0036": {
    "postcode": "9460036",
    "prefecture": "新潟県",
    "prefecture_kana": "ニイガタケン",
    "prefecture_code": 15,
    "city": "魚沼市",
    "city_kana": "ウオヌマシ",
    "town": "岡新田",
    "town_kana": "オカシンデン",
    "street": null,
    "office_name": null,
    "office_name_kana": null
  },
  "0037": {
    "postcode": "9460037",
    "prefecture": "新潟県",
    "prefecture_kana": "ニイガタケン",
    "prefecture_code": 15,
    "city": "魚沼市",
    "city_kana": "ウオヌマシ",
    "town": "虫野",
    "town_kana": "ムシノ",
    "street": null,
    "office_name": null,
    "office_name_kana": null
  },
  "0038": {
    "postcode": "9460038",
    "prefecture": "新潟県",
    "prefecture_kana": "ニイガタケン",
    "prefecture_code": 15,
    "city": "魚沼市",
    "city_kana": "ウオヌマシ",
    "town": "伊勢島",
    "town_kana": "イセジマ",
    "street": null,
    "office_name": null,
    "office_name_kana": null
  },
  "0041": {
    "postcode": "9460041",
    "prefecture": "新潟県",
    "prefecture_kana": "ニイガタケン",
    "prefecture_code": 15,
    "city": "魚沼市",
    "city_kana": "ウオヌマシ",
    "town": "本町",
    "town_kana": "ホンチョウ",
    "street": null,
    "office_name": null,
    "office_name_kana": null
  },
  "0042": {
    "postcode": "9460042",
    "prefecture": "新潟県",
    "prefecture_kana": "ニイガタケン",
    "prefecture_code": 15,
    "city": "魚沼市",
    "city_kana": "ウオヌマシ",
    "town": "柳原",
    "town_kana": "ヤナギハラ",
    "street": null,
    "office_name": null,
    "office_name_kana": null
  },
  "0043": {
    "postcode": "9460043",
    "prefecture": "新潟県",
    "prefecture_kana": "ニイガタケン",
    "prefecture_code": 15,
    "city": "魚沼市",
    "city_kana": "ウオヌマシ",
    "town": "青島",
    "town_kana": "アオシマ",
    "street": null,
    "office_name": null,
    "office_name_kana": null
  },
  "0051": {
    "postcode": "9460051",
    "prefecture": "新潟県",
    "prefecture_kana": "ニイガタケン",
    "prefecture_code": 15,
    "city": "魚沼市",
    "city_kana": "ウオヌマシ",
    "town": "今泉",
    "town_kana": "イマイズミ",
    "street": null,
    "office_name": null,
    "office_name_kana": null
  },
  "0052": [
    {
      "postcode": "9460052",
      "prefecture": "新潟県",
      "prefecture_kana": "ニイガタケン",
      "prefecture_code": 15,
      "city": "魚沼市",
      "city_kana": "ウオヌマシ",
      "town": "江口",
      "town_kana": "エグチ",
      "street": null,
      "office_name": null,
      "office_name_kana": null
    },
    {
      "postcode": "9460052",
      "prefecture": "新潟県",
      "prefecture_kana": "ニイガタケン",
      "prefecture_code": 15,
      "city": "魚沼市",
      "city_kana": "ウオヌマシ",
      "town": "江口新田",
      "town_kana": "エグチシンデン",
      "street": null,
      "office_name": null,
      "office_name_kana": null
    }
  ],
  "0053": {
    "postcode": "9460053",
    "prefecture": "新潟県",
    "prefecture_kana": "ニイガタケン",
    "prefecture_code": 15,
    "city": "魚沼市",
    "city_kana": "ウオヌマシ",
    "town": "長松",
    "town_kana": "ナガマツ",
    "street": null,
    "office_name": null,
    "office_name_kana": null
  },
  "0054": {
    "postcode": "9460054",
    "prefecture": "新潟県",
    "prefecture_kana": "ニイガタケン",
    "prefecture_code": 15,
    "city": "魚沼市",
    "city_kana": "ウオヌマシ",
    "town": "米沢",
    "town_kana": "ヨネザワ",
    "street": null,
    "office_name": null,
    "office_name_kana": null
  },
  "0055": {
    "postcode": "9460055",
    "prefecture": "新潟県",
    "prefecture_kana": "ニイガタケン",
    "prefecture_code": 15,
    "city": "魚沼市",
    "city_kana": "ウオヌマシ",
    "town": "山田",
    "town_kana": "ヤマダ",
    "street": null,
    "office_name": null,
    "office_name_kana": null
  },
  "0056": {
    "postcode": "9460056",
    "prefecture": "新潟県",
    "prefecture_kana": "ニイガタケン",
    "prefecture_code": 15,
    "city": "魚沼市",
    "city_kana": "ウオヌマシ",
    "town": "山田下",
    "town_kana": "ヤマダシタ",
    "street": null,
    "office_name": null,
    "office_name_kana": null
  },
  "0057": {
    "postcode": "9460057",
    "prefecture": "新潟県",
    "prefecture_kana": "ニイガタケン",
    "prefecture_code": 15,
    "city": "魚沼市",
    "city_kana": "ウオヌマシ",
    "town": "中島",
    "town_kana": "ナカジマ",
    "street": null,
    "office_name": null,
    "office_name_kana": null
  },
  "0058": {
    "postcode": "9460058",
    "prefecture": "新潟県",
    "prefecture_kana": "ニイガタケン",
    "prefecture_code": 15,
    "city": "魚沼市",
    "city_kana": "ウオヌマシ",
    "town": "中島新田",
    "town_kana": "ナカジマシンデン",
    "street": null,
    "office_name": null,
    "office_name_kana": null
  },
  "0061": [
    {
      "postcode": "9460061",
      "prefecture": "新潟県",
      "prefecture_kana": "ニイガタケン",
      "prefecture_code": 15,
      "city": "魚沼市",
      "city_kana": "ウオヌマシ",
      "town": "新保",
      "town_kana": "シンボ",
      "street": null,
      "office_name": null,
      "office_name_kana": null
    },
    {
      "postcode": "9460061",
      "prefecture": "新潟県",
      "prefecture_kana": "ニイガタケン",
      "prefecture_code": 15,
      "city": "魚沼市",
      "city_kana": "ウオヌマシ",
      "town": "新保新田",
      "town_kana": "シンボシンデン",
      "street": null,
      "office_name": null,
      "office_name_kana": null
    }
  ],
  "0062": {
    "postcode": "9460062",
    "prefecture": "新潟県",
    "prefecture_kana": "ニイガタケン",
    "prefecture_code": 15,
    "city": "魚沼市",
    "city_kana": "ウオヌマシ",
    "town": "一日市",
    "town_kana": "ヒトイチ",
    "street": null,
    "office_name": null,
    "office_name_kana": null
  },
  "0063": [
    {
      "postcode": "9460063",
      "prefecture": "新潟県",
      "prefecture_kana": "ニイガタケン",
      "prefecture_code": 15,
      "city": "魚沼市",
      "city_kana": "ウオヌマシ",
      "town": "中家",
      "town_kana": "チュウカ",
      "street": null,
      "office_name": null,
      "office_name_kana": null
    },
    {
      "postcode": "9460063",
      "prefecture": "新潟県",
      "prefecture_kana": "ニイガタケン",
      "prefecture_code": 15,
      "city": "魚沼市",
      "city_kana": "ウオヌマシ",
      "town": "中家新田",
      "town_kana": "チュウカシンデン",
      "street": null,
      "office_name": null,
      "office_name_kana": null
    }
  ],
  "0064": [
    {
      "postcode": "9460064",
      "prefecture": "新潟県",
      "prefecture_kana": "ニイガタケン",
      "prefecture_code": 15,
      "city": "魚沼市",
      "city_kana": "ウオヌマシ",
      "town": "池平",
      "town_kana": "イケダイラ",
      "street": null,
      "office_name": null,
      "office_name_kana": null
    },
    {
      "postcode": "9460064",
      "prefecture": "新潟県",
      "prefecture_kana": "ニイガタケン",
      "prefecture_code": 15,
      "city": "魚沼市",
      "city_kana": "ウオヌマシ",
      "town": "池平新田",
      "town_kana": "イケダイラシンデン",
      "street": null,
      "office_name": null,
      "office_name_kana": null
    }
  ],
  "0065": {
    "postcode": "9460065",
    "prefecture": "新潟県",
    "prefecture_kana": "ニイガタケン",
    "prefecture_code": 15,
    "city": "魚沼市",
    "city_kana": "ウオヌマシ",
    "town": "中子沢",
    "town_kana": "チュウシザワ",
    "street": null,
    "office_name": null,
    "office_name_kana": null
  },
  "0066": {
    "postcode": "9460066",
    "prefecture": "新潟県",
    "prefecture_kana": "ニイガタケン",
    "prefecture_code": 15,
    "city": "魚沼市",
    "city_kana": "ウオヌマシ",
    "town": "三ツ又",
    "town_kana": "ミツマタ",
    "street": null,
    "office_name": null,
    "office_name_kana": null
  },
  "0071": {
    "postcode": "9460071",
    "prefecture": "新潟県",
    "prefecture_kana": "ニイガタケン",
    "prefecture_code": 15,
    "city": "魚沼市",
    "city_kana": "ウオヌマシ",
    "town": "七日市",
    "town_kana": "ナノカイチ",
    "street": null,
    "office_name": null,
    "office_name_kana": null
  },
  "0072": {
    "postcode": "9460072",
    "prefecture": "新潟県",
    "prefecture_kana": "ニイガタケン",
    "prefecture_code": 15,
    "city": "魚沼市",
    "city_kana": "ウオヌマシ",
    "town": "七日市新田",
    "town_kana": "ナノカイチシンデン",
    "street": null,
    "office_name": null,
    "office_name_kana": null
  },
  "0073": {
    "postcode": "9460073",
    "prefecture": "新潟県",
    "prefecture_kana": "ニイガタケン",
    "prefecture_code": 15,
    "city": "魚沼市",
    "city_kana": "ウオヌマシ",
    "town": "大沢",
    "town_kana": "オオサワ",
    "street": null,
    "office_name": null,
    "office_name_kana": null
  },
  "0075": {
    "postcode": "9460075",
    "prefecture": "新潟県",
    "prefecture_kana": "ニイガタケン",
    "prefecture_code": 15,
    "city": "魚沼市",
    "city_kana": "ウオヌマシ",
    "town": "吉田",
    "town_kana": "ヨシダ",
    "street": null,
    "office_name": null,
    "office_name_kana": null
  },
  "0076": {
    "postcode": "9460076",
    "prefecture": "新潟県",
    "prefecture_kana": "ニイガタケン",
    "prefecture_code": 15,
    "city": "魚沼市",
    "city_kana": "ウオヌマシ",
    "town": "井口新田",
    "town_kana": "イノクチシンデン",
    "street": null,
    "office_name": null,
    "office_name_kana": null
  },
  "0081": {
    "postcode": "9460081",
    "prefecture": "新潟県",
    "prefecture_kana": "ニイガタケン",
    "prefecture_code": 15,
    "city": "魚沼市",
    "city_kana": "ウオヌマシ",
    "town": "葎沢",
    "town_kana": "ムグラザワ",
    "street": null,
    "office_name": null,
    "office_name_kana": null
  },
  "0082": {
    "postcode": "9460082",
    "prefecture": "新潟県",
    "prefecture_kana": "ニイガタケン",
    "prefecture_code": 15,
    "city": "魚沼市",
    "city_kana": "ウオヌマシ",
    "town": "湯之谷芋川",
    "town_kana": "ユノタニイモガワ",
    "street": null,
    "office_name": null,
    "office_name_kana": null
  },
  "0083": {
    "postcode": "9460083",
    "prefecture": "新潟県",
    "prefecture_kana": "ニイガタケン",
    "prefecture_code": 15,
    "city": "魚沼市",
    "city_kana": "ウオヌマシ",
    "town": "蓑和田",
    "town_kana": "ミノワダ",
    "street": null,
    "office_name": null,
    "office_name_kana": null
  },
  "0084": {
    "postcode": "9460084",
    "prefecture": "新潟県",
    "prefecture_kana": "ニイガタケン",
    "prefecture_code": 15,
    "city": "魚沼市",
    "city_kana": "ウオヌマシ",
    "town": "宇津野",
    "town_kana": "ウツノ",
    "street": null,
    "office_name": null,
    "office_name_kana": null
  },
  "0085": {
    "postcode": "9460085",
    "prefecture": "新潟県",
    "prefecture_kana": "ニイガタケン",
    "prefecture_code": 15,
    "city": "魚沼市",
    "city_kana": "ウオヌマシ",
    "town": "下折立",
    "town_kana": "シモオリタテ",
    "street": null,
    "office_name": null,
    "office_name_kana": null
  },
  "0086": {
    "postcode": "9460086",
    "prefecture": "新潟県",
    "prefecture_kana": "ニイガタケン",
    "prefecture_code": 15,
    "city": "魚沼市",
    "city_kana": "ウオヌマシ",
    "town": "折立又新田",
    "town_kana": "オリタテマタシンデン",
    "street": null,
    "office_name": null,
    "office_name_kana": null
  },
  "0087": {
    "postcode": "9460087",
    "prefecture": "新潟県",
    "prefecture_kana": "ニイガタケン",
    "prefecture_code": 15,
    "city": "魚沼市",
    "city_kana": "ウオヌマシ",
    "town": "上折立",
    "town_kana": "カミオリタテ",
    "street": null,
    "office_name": null,
    "office_name_kana": null
  },
  "0088": {
    "postcode": "9460088",
    "prefecture": "新潟県",
    "prefecture_kana": "ニイガタケン",
    "prefecture_code": 15,
    "city": "魚沼市",
    "city_kana": "ウオヌマシ",
    "town": "大湯温泉",
    "town_kana": "オオユオンセン",
    "street": null,
    "office_name": null,
    "office_name_kana": null
  },
  "0101": {
    "postcode": "9460101",
    "prefecture": "新潟県",
    "prefecture_kana": "ニイガタケン",
    "prefecture_code": 15,
    "city": "魚沼市",
    "city_kana": "ウオヌマシ",
    "town": "小平尾",
    "town_kana": "オビロオ",
    "street": null,
    "office_name": null,
    "office_name_kana": null
  },
  "0102": {
    "postcode": "9460102",
    "prefecture": "新潟県",
    "prefecture_kana": "ニイガタケン",
    "prefecture_code": 15,
    "city": "魚沼市",
    "city_kana": "ウオヌマシ",
    "town": "外山",
    "town_kana": "ソデヤマ",
    "street": null,
    "office_name": null,
    "office_name_kana": null
  },
  "0103": {
    "postcode": "9460103",
    "prefecture": "新潟県",
    "prefecture_kana": "ニイガタケン",
    "prefecture_code": 15,
    "city": "魚沼市",
    "city_kana": "ウオヌマシ",
    "town": "滝之又",
    "town_kana": "タキノマタ",
    "street": null,
    "office_name": null,
    "office_name_kana": null
  },
  "0104": {
    "postcode": "9460104",
    "prefecture": "新潟県",
    "prefecture_kana": "ニイガタケン",
    "prefecture_code": 15,
    "city": "魚沼市",
    "city_kana": "ウオヌマシ",
    "town": "栗山",
    "town_kana": "クリヤマ",
    "street": null,
    "office_name": null,
    "office_name_kana": null
  },
  "0105": [
    {
      "postcode": "9460105",
      "prefecture": "新潟県",
      "prefecture_kana": "ニイガタケン",
      "prefecture_code": 15,
      "city": "魚沼市",
      "city_kana": "ウオヌマシ",
      "town": "金ケ沢",
      "town_kana": "カネガサワ",
      "street": null,
      "office_name": null,
      "office_name_kana": null
    },
    {
      "postcode": "9460105",
      "prefecture": "新潟県",
      "prefecture_kana": "ニイガタケン",
      "prefecture_code": 15,
      "city": "魚沼市",
      "city_kana": "ウオヌマシ",
      "town": "宮沢新田",
      "town_kana": "ミヤザワシンデン",
      "street": null,
      "office_name": null,
      "office_name_kana": null
    }
  ],
  "0106": {
    "postcode": "9460106",
    "prefecture": "新潟県",
    "prefecture_kana": "ニイガタケン",
    "prefecture_code": 15,
    "city": "魚沼市",
    "city_kana": "ウオヌマシ",
    "town": "田中",
    "town_kana": "タナカ",
    "street": null,
    "office_name": null,
    "office_name_kana": null
  },
  "0107": [
    {
      "postcode": "9460107",
      "prefecture": "新潟県",
      "prefecture_kana": "ニイガタケン",
      "prefecture_code": 15,
      "city": "魚沼市",
      "city_kana": "ウオヌマシ",
      "town": "雁坂下",
      "town_kana": "ガンザカシタ",
      "street": null,
      "office_name": null,
      "office_name_kana": null
    },
    {
      "postcode": "9460107",
      "prefecture": "新潟県",
      "prefecture_kana": "ニイガタケン",
      "prefecture_code": 15,
      "city": "魚沼市",
      "city_kana": "ウオヌマシ",
      "town": "清本",
      "town_kana": "キヨモト",
      "street": null,
      "office_name": null,
      "office_name_kana": null
    },
    {
      "postcode": "9460107",
      "prefecture": "新潟県",
      "prefecture_kana": "ニイガタケン",
      "prefecture_code": 15,
      "city": "魚沼市",
      "city_kana": "ウオヌマシ",
      "town": "下田",
      "town_kana": "シモダ",
      "street": null,
      "office_name": null,
      "office_name_kana": null
    },
    {
      "postcode": "9460107",
      "prefecture": "新潟県",
      "prefecture_kana": "ニイガタケン",
      "prefecture_code": 15,
      "city": "魚沼市",
      "city_kana": "ウオヌマシ",
      "town": "長堀新田",
      "town_kana": "ナガホリシンデン",
      "street": null,
      "office_name": null,
      "office_name_kana": null
    },
    {
      "postcode": "9460107",
      "prefecture": "新潟県",
      "prefecture_kana": "ニイガタケン",
      "prefecture_code": 15,
      "city": "魚沼市",
      "city_kana": "ウオヌマシ",
      "town": "横瀬",
      "town_kana": "ヨコゼ",
      "street": null,
      "office_name": null,
      "office_name_kana": null
    }
  ],
  "0108": {
    "postcode": "9460108",
    "prefecture": "新潟県",
    "prefecture_kana": "ニイガタケン",
    "prefecture_code": 15,
    "city": "魚沼市",
    "city_kana": "ウオヌマシ",
    "town": "親柄",
    "town_kana": "オヤガラ",
    "street": null,
    "office_name": null,
    "office_name_kana": null
  },
  "0109": {
    "postcode": "9460109",
    "prefecture": "新潟県",
    "prefecture_kana": "ニイガタケン",
    "prefecture_code": 15,
    "city": "魚沼市",
    "city_kana": "ウオヌマシ",
    "town": "和田",
    "town_kana": "ワダ",
    "street": null,
    "office_name": null,
    "office_name_kana": null
  },
  "0111": {
    "postcode": "9460111",
    "prefecture": "新潟県",
    "prefecture_kana": "ニイガタケン",
    "prefecture_code": 15,
    "city": "魚沼市",
    "city_kana": "ウオヌマシ",
    "town": "並柳",
    "town_kana": "ナミヤナギ",
    "street": null,
    "office_name": null,
    "office_name_kana": null
  },
  "0112": {
    "postcode": "9460112",
    "prefecture": "新潟県",
    "prefecture_kana": "ニイガタケン",
    "prefecture_code": 15,
    "city": "魚沼市",
    "city_kana": "ウオヌマシ",
    "town": "田尻",
    "town_kana": "タジリ",
    "street": null,
    "office_name": null,
    "office_name_kana": null
  },
  "0113": {
    "postcode": "9460113",
    "prefecture": "新潟県",
    "prefecture_kana": "ニイガタケン",
    "prefecture_code": 15,
    "city": "魚沼市",
    "city_kana": "ウオヌマシ",
    "town": "東中",
    "town_kana": "ヒガシナカ",
    "street": null,
    "office_name": null,
    "office_name_kana": null
  },
  "0114": {
    "postcode": "9460114",
    "prefecture": "新潟県",
    "prefecture_kana": "ニイガタケン",
    "prefecture_code": 15,
    "city": "魚沼市",
    "city_kana": "ウオヌマシ",
    "town": "泉沢",
    "town_kana": "イズミサワ",
    "street": null,
    "office_name": null,
    "office_name_kana": null
  },
  "0115": {
    "postcode": "9460115",
    "prefecture": "新潟県",
    "prefecture_kana": "ニイガタケン",
    "prefecture_code": 15,
    "city": "魚沼市",
    "city_kana": "ウオヌマシ",
    "town": "山口",
    "town_kana": "ヤマグチ",
    "street": null,
    "office_name": null,
    "office_name_kana": null
  },
  "0121": [
    {
      "postcode": "9460121",
      "prefecture": "新潟県",
      "prefecture_kana": "ニイガタケン",
      "prefecture_code": 15,
      "city": "魚沼市",
      "city_kana": "ウオヌマシ",
      "town": "小庭名",
      "town_kana": "コテンミョウ",
      "street": null,
      "office_name": null,
      "office_name_kana": null
    },
    {
      "postcode": "9460121",
      "prefecture": "新潟県",
      "prefecture_kana": "ニイガタケン",
      "prefecture_code": 15,
      "city": "魚沼市",
      "city_kana": "ウオヌマシ",
      "town": "小庭名新田",
      "town_kana": "コテンミョウシンデン",
      "street": null,
      "office_name": null,
      "office_name_kana": null
    },
    {
      "postcode": "9460121",
      "prefecture": "新潟県",
      "prefecture_kana": "ニイガタケン",
      "prefecture_code": 15,
      "city": "魚沼市",
      "city_kana": "ウオヌマシ",
      "town": "吉平",
      "town_kana": "ヨシダイラ",
      "street": null,
      "office_name": null,
      "office_name_kana": null
    },
    {
      "postcode": "9460121",
      "prefecture": "新潟県",
      "prefecture_kana": "ニイガタケン",
      "prefecture_code": 15,
      "city": "魚沼市",
      "city_kana": "ウオヌマシ",
      "town": "連日",
      "town_kana": "レンニチ",
      "street": null,
      "office_name": null,
      "office_name_kana": null
    }
  ],
  "0122": {
    "postcode": "9460122",
    "prefecture": "新潟県",
    "prefecture_kana": "ニイガタケン",
    "prefecture_code": 15,
    "city": "魚沼市",
    "city_kana": "ウオヌマシ",
    "town": "吉原",
    "town_kana": "ヨシワラ",
    "street": null,
    "office_name": null,
    "office_name_kana": null
  },
  "0123": [
    {
      "postcode": "9460123",
      "prefecture": "新潟県",
      "prefecture_kana": "ニイガタケン",
      "prefecture_code": 15,
      "city": "魚沼市",
      "city_kana": "ウオヌマシ",
      "town": "水沢",
      "town_kana": "ミズサワ",
      "street": null,
      "office_name": null,
      "office_name_kana": null
    },
    {
      "postcode": "9460123",
      "prefecture": "新潟県",
      "prefecture_kana": "ニイガタケン",
      "prefecture_code": 15,
      "city": "魚沼市",
      "city_kana": "ウオヌマシ",
      "town": "茂沢",
      "town_kana": "モサワ",
      "street": null,
      "office_name": null,
      "office_name_kana": null
    }
  ],
  "0124": {
    "postcode": "9460124",
    "prefecture": "新潟県",
    "prefecture_kana": "ニイガタケン",
    "prefecture_code": 15,
    "city": "魚沼市",
    "city_kana": "ウオヌマシ",
    "town": "大芋川",
    "town_kana": "オオイモガワ",
    "street": null,
    "office_name": null,
    "office_name_kana": null
  },
  "0125": {
    "postcode": "9460125",
    "prefecture": "新潟県",
    "prefecture_kana": "ニイガタケン",
    "prefecture_code": 15,
    "city": "魚沼市",
    "city_kana": "ウオヌマシ",
    "town": "越又",
    "town_kana": "コシマタ",
    "street": null,
    "office_name": null,
    "office_name_kana": null
  },
  "0201": {
    "postcode": "9460201",
    "prefecture": "新潟県",
    "prefecture_kana": "ニイガタケン",
    "prefecture_code": 15,
    "city": "魚沼市",
    "city_kana": "ウオヌマシ",
    "town": "高倉",
    "town_kana": "タカクラ",
    "street": null,
    "office_name": null,
    "office_name_kana": null
  },
  "0202": {
    "postcode": "9460202",
    "prefecture": "新潟県",
    "prefecture_kana": "ニイガタケン",
    "prefecture_code": 15,
    "city": "魚沼市",
    "city_kana": "ウオヌマシ",
    "town": "東野名",
    "town_kana": "ヒガシノミョウ",
    "street": null,
    "office_name": null,
    "office_name_kana": null
  },
  "0203": {
    "postcode": "9460203",
    "prefecture": "新潟県",
    "prefecture_kana": "ニイガタケン",
    "prefecture_code": 15,
    "city": "魚沼市",
    "city_kana": "ウオヌマシ",
    "town": "渋川",
    "town_kana": "シブカワ",
    "street": null,
    "office_name": null,
    "office_name_kana": null
  },
  "0204": {
    "postcode": "9460204",
    "prefecture": "新潟県",
    "prefecture_kana": "ニイガタケン",
    "prefecture_code": 15,
    "city": "魚沼市",
    "city_kana": "ウオヌマシ",
    "town": "西名",
    "town_kana": "ニシミョウ",
    "street": null,
    "office_name": null,
    "office_name_kana": null
  },
  "0205": {
    "postcode": "9460205",
    "prefecture": "新潟県",
    "prefecture_kana": "ニイガタケン",
    "prefecture_code": 15,
    "city": "魚沼市",
    "city_kana": "ウオヌマシ",
    "town": "宮椿新田",
    "town_kana": "ミヤツバキシンデン",
    "street": null,
    "office_name": null,
    "office_name_kana": null
  },
  "0206": {
    "postcode": "9460206",
    "prefecture": "新潟県",
    "prefecture_kana": "ニイガタケン",
    "prefecture_code": 15,
    "city": "魚沼市",
    "city_kana": "ウオヌマシ",
    "town": "西名新田",
    "town_kana": "ニシミョウシンデン",
    "street": null,
    "office_name": null,
    "office_name_kana": null
  },
  "0207": {
    "postcode": "9460207",
    "prefecture": "新潟県",
    "prefecture_kana": "ニイガタケン",
    "prefecture_code": 15,
    "city": "魚沼市",
    "city_kana": "ウオヌマシ",
    "town": "福山新田",
    "town_kana": "フクヤマシンデン",
    "street": null,
    "office_name": null,
    "office_name_kana": null
  },
  "0211": {
    "postcode": "9460211",
    "prefecture": "新潟県",
    "prefecture_kana": "ニイガタケン",
    "prefecture_code": 15,
    "city": "魚沼市",
    "city_kana": "ウオヌマシ",
    "town": "上長鳥新田",
    "town_kana": "カミナガトリシンデン",
    "street": null,
    "office_name": null,
    "office_name_kana": null
  },
  "0212": {
    "postcode": "9460212",
    "prefecture": "新潟県",
    "prefecture_kana": "ニイガタケン",
    "prefecture_code": 15,
    "city": "魚沼市",
    "city_kana": "ウオヌマシ",
    "town": "長鳥",
    "town_kana": "ナガトリ",
    "street": null,
    "office_name": null,
    "office_name_kana": null
  },
  "0213": {
    "postcode": "9460213",
    "prefecture": "新潟県",
    "prefecture_kana": "ニイガタケン",
    "prefecture_code": 15,
    "city": "魚沼市",
    "city_kana": "ウオヌマシ",
    "town": "細野",
    "town_kana": "ホソノ",
    "street": null,
    "office_name": null,
    "office_name_kana": null
  },
  "0214": {
    "postcode": "9460214",
    "prefecture": "新潟県",
    "prefecture_kana": "ニイガタケン",
    "prefecture_code": 15,
    "city": "魚沼市",
    "city_kana": "ウオヌマシ",
    "town": "松川",
    "town_kana": "マツカワ",
    "street": null,
    "office_name": null,
    "office_name_kana": null
  },
  "0215": {
    "postcode": "9460215",
    "prefecture": "新潟県",
    "prefecture_kana": "ニイガタケン",
    "prefecture_code": 15,
    "city": "魚沼市",
    "city_kana": "ウオヌマシ",
    "town": "大原新田",
    "town_kana": "オオハラシンデン",
    "street": null,
    "office_name": null,
    "office_name_kana": null
  },
  "0216": {
    "postcode": "9460216",
    "prefecture": "新潟県",
    "prefecture_kana": "ニイガタケン",
    "prefecture_code": 15,
    "city": "魚沼市",
    "city_kana": "ウオヌマシ",
    "town": "須原",
    "town_kana": "スハラ",
    "street": null,
    "office_name": null,
    "office_name_kana": null
  },
  "0221": {
    "postcode": "9460221",
    "prefecture": "新潟県",
    "prefecture_kana": "ニイガタケン",
    "prefecture_code": 15,
    "city": "魚沼市",
    "city_kana": "ウオヌマシ",
    "town": "須川",
    "town_kana": "スガワ",
    "street": null,
    "office_name": null,
    "office_name_kana": null
  },
  "0222": {
    "postcode": "9460222",
    "prefecture": "新潟県",
    "prefecture_kana": "ニイガタケン",
    "prefecture_code": 15,
    "city": "魚沼市",
    "city_kana": "ウオヌマシ",
    "town": "福田新田",
    "town_kana": "フクダシンデン",
    "street": null,
    "office_name": null,
    "office_name_kana": null
  },
  "0223": {
    "postcode": "9460223",
    "prefecture": "新潟県",
    "prefecture_kana": "ニイガタケン",
    "prefecture_code": 15,
    "city": "魚沼市",
    "city_kana": "ウオヌマシ",
    "town": "大倉沢",
    "town_kana": "オオクラサワ",
    "street": null,
    "office_name": null,
    "office_name_kana": null
  },
  "0224": {
    "postcode": "9460224",
    "prefecture": "新潟県",
    "prefecture_kana": "ニイガタケン",
    "prefecture_code": 15,
    "city": "魚沼市",
    "city_kana": "ウオヌマシ",
    "town": "赤土",
    "town_kana": "アカツチ",
    "street": null,
    "office_name": null,
    "office_name_kana": null
  },
  "0225": {
    "postcode": "9460225",
    "prefecture": "新潟県",
    "prefecture_kana": "ニイガタケン",
    "prefecture_code": 15,
    "city": "魚沼市",
    "city_kana": "ウオヌマシ",
    "town": "三渕沢",
    "town_kana": "ミフチサワ",
    "street": null,
    "office_name": null,
    "office_name_kana": null
  },
  "0226": {
    "postcode": "9460226",
    "prefecture": "新潟県",
    "prefecture_kana": "ニイガタケン",
    "prefecture_code": 15,
    "city": "魚沼市",
    "city_kana": "ウオヌマシ",
    "town": "大倉",
    "town_kana": "オオクラ",
    "street": null,
    "office_name": null,
    "office_name_kana": null
  },
  "0292": {
    "postcode": "9460292",
    "prefecture": "新潟県",
    "prefecture_kana": "ニイガタケン",
    "prefecture_code": 15,
    "city": "魚沼市",
    "city_kana": "ウオヌマシ",
    "town": "須原",
    "town_kana": "スハラ",
    "street": "５２０番地",
    "office_name": "魚沼市役所　北部庁舎",
    "office_name_kana": "ウオヌマシヤクシヨ ホクブチヨウシヤ"
  },
  "0301": {
    "postcode": "9460301",
    "prefecture": "新潟県",
    "prefecture_kana": "ニイガタケン",
    "prefecture_code": 15,
    "city": "魚沼市",
    "city_kana": "ウオヌマシ",
    "town": "田小屋",
    "town_kana": "タゴヤ",
    "street": null,
    "office_name": null,
    "office_name_kana": null
  },
  "0302": {
    "postcode": "9460302",
    "prefecture": "新潟県",
    "prefecture_kana": "ニイガタケン",
    "prefecture_code": 15,
    "city": "魚沼市",
    "city_kana": "ウオヌマシ",
    "town": "芋鞘",
    "town_kana": "イモザヤ",
    "street": null,
    "office_name": null,
    "office_name_kana": null
  },
  "0303": {
    "postcode": "9460303",
    "prefecture": "新潟県",
    "prefecture_kana": "ニイガタケン",
    "prefecture_code": 15,
    "city": "魚沼市",
    "city_kana": "ウオヌマシ",
    "town": "大白川",
    "town_kana": "オオシラカワ",
    "street": null,
    "office_name": null,
    "office_name_kana": null
  },
  "0304": {
    "postcode": "9460304",
    "prefecture": "新潟県",
    "prefecture_kana": "ニイガタケン",
    "prefecture_code": 15,
    "city": "魚沼市",
    "city_kana": "ウオヌマシ",
    "town": "穴沢",
    "town_kana": "アナザワ",
    "street": null,
    "office_name": null,
    "office_name_kana": null
  },
  "0305": {
    "postcode": "9460305",
    "prefecture": "新潟県",
    "prefecture_kana": "ニイガタケン",
    "prefecture_code": 15,
    "city": "魚沼市",
    "city_kana": "ウオヌマシ",
    "town": "大栃山",
    "town_kana": "オオトチヤマ",
    "street": null,
    "office_name": null,
    "office_name_kana": null
  },
  "0306": {
    "postcode": "9460306",
    "prefecture": "新潟県",
    "prefecture_kana": "ニイガタケン",
    "prefecture_code": 15,
    "city": "魚沼市",
    "city_kana": "ウオヌマシ",
    "town": "平野又",
    "town_kana": "ヒラノマタ",
    "street": null,
    "office_name": null,
    "office_name_kana": null
  },
  "0307": {
    "postcode": "9460307",
    "prefecture": "新潟県",
    "prefecture_kana": "ニイガタケン",
    "prefecture_code": 15,
    "city": "魚沼市",
    "city_kana": "ウオヌマシ",
    "town": "横根",
    "town_kana": "ヨコネ",
    "street": null,
    "office_name": null,
    "office_name_kana": null
  },
  "8513": {
    "postcode": "9468513",
    "prefecture": "新潟県",
    "prefecture_kana": "ニイガタケン",
    "prefecture_code": 15,
    "city": "魚沼市",
    "city_kana": "ウオヌマシ",
    "town": "小出島",
    "town_kana": "コイデジマ",
    "street": "１１７７",
    "office_name": "アルプス電気　株式会社　磁気応用事業部　小出工場",
    "office_name_kana": "アルプスデンキ カブシキガイシヤ ジキオウヨウジギヨウブ コイデコウジヨウ"
  },
  "8601": {
    "postcode": "9468601",
    "prefecture": "新潟県",
    "prefecture_kana": "ニイガタケン",
    "prefecture_code": 15,
    "city": "魚沼市",
    "city_kana": "ウオヌマシ",
    "town": "小出島",
    "town_kana": "コイデジマ",
    "street": "９１０番地",
    "office_name": "魚沼市役所　本庁舎",
    "office_name_kana": "ウオヌマシヤクシヨ ホンチヨウシヤ"
  }
}