{
  "0000": {
    "postcode": "9470000",
    "prefecture": "新潟県",
    "prefecture_kana": "ニイガタケン",
    "prefecture_code": 15,
    "city": "小千谷市",
    "city_kana": "オヂヤシ",
    "town": "",
    "town_kana": "",
    "street": null,
    "office_name": null,
    "office_name_kana": null
  },
  "0001": {
    "postcode": "9470001",
    "prefecture": "新潟県",
    "prefecture_kana": "ニイガタケン",
    "prefecture_code": 15,
    "city": "小千谷市",
    "city_kana": "オヂヤシ",
    "town": "浦柄",
    "town_kana": "ウラガラ",
    "street": null,
    "office_name": null,
    "office_name_kana": null
  },
  "0002": {
    "postcode": "9470002",
    "prefecture": "新潟県",
    "prefecture_kana": "ニイガタケン",
    "prefecture_code": 15,
    "city": "小千谷市",
    "city_kana": "オヂヤシ",
    "town": "横渡",
    "town_kana": "ヨコワタシ",
    "street": null,
    "office_name": null,
    "office_name_kana": null
  },
  "0003": {
    "postcode": "9470003",
    "prefecture": "新潟県",
    "prefecture_kana": "ニイガタケン",
    "prefecture_code": 15,
    "city": "小千谷市",
    "city_kana": "オヂヤシ",
    "town": "ひ生",
    "town_kana": "ヒウ",
    "street": null,
    "office_name": null,
    "office_name_kana": null
  },
  "0004": {
    "postcode": "9470004",
    "prefecture": "新潟県",
    "prefecture_kana": "ニイガタケン",
    "prefecture_code": 15,
    "city": "小千谷市",
    "city_kana": "オヂヤシ",
    "town": "東栄",
    "town_kana": "トウエイ",
    "street": null,
    "office_name": null,
    "office_name_kana": null
  },
  "0005": {
    "postcode": "9470005",
    "prefecture": "新潟県",
    "prefecture_kana": "ニイガタケン",
    "prefecture_code": 15,
    "city": "小千谷市",
    "city_kana": "オヂヤシ",
    "town": "旭町",
    "town_kana": "アサヒチョウ",
    "street": null,
    "office_name": null,
    "office_name_kana": null
  },
  "0011": {
    "postcode": "9470011",
    "prefecture": "新潟県",
    "prefecture_kana": "ニイガタケン",
    "prefecture_code": 15,
    "city": "小千谷市",
    "city_kana": "オヂヤシ",
    "town": "栄町",
    "town_kana": "サカエチョウ",
    "street": null,
    "office_name": null,
    "office_name_kana": null
  },
  "0012": {
    "postcode": "9470012",
    "prefecture": "新潟県",
    "prefecture_kana": "ニイガタケン",
    "prefecture_code": 15,
    "city": "小千谷市",
    "city_kana": "オヂヤシ",
    "town": "山本",
    "town_kana": "ヤマモト",
    "street": null,
    "office_name": null,
    "office_name_kana": null
  },
  "0013": {
    "postcode": "9470013",
    "prefecture": "新潟県",
    "prefecture_kana": "ニイガタケン",
    "prefecture_code": 15,
    "city": "小千谷市",
    "city_kana": "オヂヤシ",
    "town": "上片貝",
    "town_kana": "カミガタカイ",
    "street": null,
    "office_name": null,
    "office_name_kana": null
  },
  "0014": {
    "postcode": "9470014",
    "prefecture": "新潟県",
    "prefecture_kana": "ニイガタケン",
    "prefecture_code": 15,
    "city": "小千谷市",
    "city_kana": "オヂヤシ",
    "town": "西中",
    "town_kana": "ニシナカ",
    "street": null,
    "office_name": null,
    "office_name_kana": null
  },
  "0015": {
    "postcode": "9470015",
    "prefecture": "新潟県",
    "prefecture_kana": "ニイガタケン",
    "prefecture_code": 15,
    "city": "小千谷市",
    "city_kana": "オヂヤシ",
    "town": "谷内",
    "town_kana": "ヤチ",
    "street": null,
    "office_name": null,
    "office_name_kana": null
  },
  "0016": {
    "postcode": "9470016",
    "prefecture": "新潟県",
    "prefecture_kana": "ニイガタケン",
    "prefecture_code": 15,
    "city": "小千谷市",
    "city_kana": "オヂヤシ",
    "town": "四ツ子",
    "town_kana": "ヨツコ",
    "street": null,
    "office_name": null,
    "office_name_kana": null
  },
  "0017": {
    "postcode": "9470017",
    "prefecture": "新潟県",
    "prefecture_kana": "ニイガタケン",
    "prefecture_code": 15,
    "city": "小千谷市",
    "city_kana": "オヂヤシ",
    "town": "東吉谷",
    "town_kana": "ヒガシヨシダニ",
    "street": null,
    "office_name": null,
    "office_name_kana": null
  },
  "0018": {
    "postcode": "9470018",
    "prefecture": "新潟県",
    "prefecture_kana": "ニイガタケン",
    "prefecture_code": 15,
    "city": "小千谷市",
    "city_kana": "オヂヤシ",
    "town": "西吉谷",
    "town_kana": "ニシヨシダニ",
    "street": null,
    "office_name": null,
    "office_name_kana": null
  },
  "0021": {
    "postcode": "9470021",
    "prefecture": "新潟県",
    "prefecture_kana": "ニイガタケン",
    "prefecture_code": 15,
    "city": "小千谷市",
    "city_kana": "オヂヤシ",
    "town": "本町",
    "town_kana": "ホンチョウ",
    "street": null,
    "office_name": null,
    "office_name_kana": null
  },
  "0022": {
    "postcode": "9470022",
    "prefecture": "新潟県",
    "prefecture_kana": "ニイガタケン",
    "prefecture_code": 15,
    "city": "小千谷市",
    "city_kana": "オヂヤシ",
    "town": "元町",
    "town_kana": "モトマチ",
    "street": null,
    "office_name": null,
    "office_name_kana": null
  },
  "0023": {
    "postcode": "9470023",
    "prefecture": "新潟県",
    "prefecture_kana": "ニイガタケン",
    "prefecture_code": 15,
    "city": "小千谷市",
    "city_kana": "オヂヤシ",
    "town": "日吉",
    "town_kana": "ヒヨシ",
    "street": null,
    "office_name": null,
    "office_name_kana": null
  },
  "0024": {
    "postcode": "9470024",
    "prefecture": "新潟県",
    "prefecture_kana": "ニイガタケン",
    "prefecture_code": 15,
    "city": "小千谷市",
    "city_kana": "オヂヤシ",
    "town": "船岡",
    "town_kana": "フナオカ",
    "street": null,
    "office_name": null,
    "office_name_kana": null
  },
  "0025": {
    "postcode": "9470025",
    "prefecture": "新潟県",
    "prefecture_kana": "ニイガタケン",
    "prefecture_code": 15,
    "city": "小千谷市",
    "city_kana": "オヂヤシ",
    "town": "稲荷町",
    "town_kana": "イナリマチ",
    "street": null,
    "office_name": null,
    "office_name_kana": null
  },
  "0026": {
    "postcode": "9470026",
    "prefecture": "新潟県",
    "prefecture_kana": "ニイガタケン",
    "prefecture_code": 15,
    "city": "小千谷市",
    "city_kana": "オヂヤシ",
    "town": "上ノ山",
    "town_kana": "ウエノヤマ",
    "street": null,
    "office_name": null,
    "office_name_kana": null
  },
  "0027": {
    "postcode": "9470027",
    "prefecture": "新潟県",
    "prefecture_kana": "ニイガタケン",
    "prefecture_code": 15,
    "city": "小千谷市",
    "city_kana": "オヂヤシ",
    "town": "平成",
    "town_kana": "ヘイセイ",
    "street": null,
    "office_name": null,
    "office_name_kana": null
  },
  "0028": {
    "postcode": "9470028",
    "prefecture": "新潟県",
    "prefecture_kana": "ニイガタケン",
    "prefecture_code": 15,
    "city": "小千谷市",
    "city_kana": "オヂヤシ",
    "town": "城内",
    "town_kana": "ジョウナイ",
    "street": null,
    "office_name": null,
    "office_name_kana": null
  },
  "0031": {
    "postcode": "9470031",
    "prefecture": "新潟県",
    "prefecture_kana": "ニイガタケン",
    "prefecture_code": 15,
    "city": "小千谷市",
    "city_kana": "オヂヤシ",
    "town": "土川",
    "town_kana": "ツチカワ",
    "street": null,
    "office_name": null,
    "office_name_kana": null
  },
  "0032": {
    "postcode": "9470032",
    "prefecture": "新潟県",
    "prefecture_kana": "ニイガタケン",
    "prefecture_code": 15,
    "city": "小千谷市",
    "city_kana": "オヂヤシ",
    "town": "薮川",
    "town_kana": "ヤブカワ",
    "street": null,
    "office_name": null,
    "office_name_kana": null
  },
  "0033": {
    "postcode": "9470033",
    "prefecture": "新潟県",
    "prefecture_kana": "ニイガタケン",
    "prefecture_code": 15,
    "city": "小千谷市",
    "city_kana": "オヂヤシ",
    "town": "時水",
    "town_kana": "トキミズ",
    "street": null,
    "office_name": null,
    "office_name_kana": null
  },
  "0034": {
    "postcode": "9470034",
    "prefecture": "新潟県",
    "prefecture_kana": "ニイガタケン",
    "prefecture_code": 15,
    "city": "小千谷市",
    "city_kana": "オヂヤシ",
    "town": "両新田",
    "town_kana": "リョウシンデン",
    "street": null,
    "office_name": null,
    "office_name_kana": null
  },
  "0035": {
    "postcode": "9470035",
    "prefecture": "新潟県",
    "prefecture_kana": "ニイガタケン",
    "prefecture_code": 15,
    "city": "小千谷市",
    "city_kana": "オヂヤシ",
    "town": "桜町",
    "town_kana": "サクラマチ",
    "street": null,
    "office_name": null,
    "office_name_kana": null
  },
  "0041": {
    "postcode": "9470041",
    "prefecture": "新潟県",
    "prefecture_kana": "ニイガタケン",
    "prefecture_code": 15,
    "city": "小千谷市",
    "city_kana": "オヂヤシ",
    "town": "小粟田",
    "town_kana": "コワダ",
    "street": null,
    "office_name": null,
    "office_name_kana": null
  },
  "0042": [
    {
      "postcode": "9470042",
      "prefecture": "新潟県",
      "prefecture_kana": "ニイガタケン",
      "prefecture_code": 15,
      "city": "小千谷市",
      "city_kana": "オヂヤシ",
      "town": "平沢",
      "town_kana": "ヒラサワ",
      "street": null,
      "office_name": null,
      "office_name_kana": null
    },
    {
      "postcode": "9470042",
      "prefecture": "新潟県",
      "prefecture_kana": "ニイガタケン",
      "prefecture_code": 15,
      "city": "小千谷市",
      "city_kana": "オヂヤシ",
      "town": "平沢新田",
      "town_kana": "ヒラサワシンデン",
      "street": null,
      "office_name": null,
      "office_name_kana": null
    }
  ],
  "0043": {
    "postcode": "9470043",
    "prefecture": "新潟県",
    "prefecture_kana": "ニイガタケン",
    "prefecture_code": 15,
    "city": "小千谷市",
    "city_kana": "オヂヤシ",
    "town": "山谷",
    "town_kana": "ヤマヤ",
    "street": null,
    "office_name": null,
    "office_name_kana": null
  },
  "0044": {
    "postcode": "9470044",
    "prefecture": "新潟県",
    "prefecture_kana": "ニイガタケン",
    "prefecture_code": 15,
    "city": "小千谷市",
    "city_kana": "オヂヤシ",
    "town": "坪野",
    "town_kana": "ツボノ",
    "street": null,
    "office_name": null,
    "office_name_kana": null
  },
  "0045": {
    "postcode": "9470045",
    "prefecture": "新潟県",
    "prefecture_kana": "ニイガタケン",
    "prefecture_code": 15,
    "city": "小千谷市",
    "city_kana": "オヂヤシ",
    "town": "鴻巣町",
    "town_kana": "コウノスチョウ",
    "street": null,
    "office_name": null,
    "office_name_kana": null
  },
  "0051": {
    "postcode": "9470051",
    "prefecture": "新潟県",
    "prefecture_kana": "ニイガタケン",
    "prefecture_code": 15,
    "city": "小千谷市",
    "city_kana": "オヂヤシ",
    "town": "三仏生",
    "town_kana": "サンブショウ",
    "street": null,
    "office_name": null,
    "office_name_kana": null
  },
  "0052": {
    "postcode": "9470052",
    "prefecture": "新潟県",
    "prefecture_kana": "ニイガタケン",
    "prefecture_code": 15,
    "city": "小千谷市",
    "city_kana": "オヂヤシ",
    "town": "千谷",
    "town_kana": "チヤ",
    "street": null,
    "office_name": null,
    "office_name_kana": null
  },
  "0053": {
    "postcode": "9470053",
    "prefecture": "新潟県",
    "prefecture_kana": "ニイガタケン",
    "prefecture_code": 15,
    "city": "小千谷市",
    "city_kana": "オヂヤシ",
    "town": "千谷川",
    "town_kana": "チヤガワ",
    "street": null,
    "office_name": null,
    "office_name_kana": null
  },
  "0054": {
    "postcode": "9470054",
    "prefecture": "新潟県",
    "prefecture_kana": "ニイガタケン",
    "prefecture_code": 15,
    "city": "小千谷市",
    "city_kana": "オヂヤシ",
    "town": "若葉",
    "town_kana": "ワカバ",
    "street": null,
    "office_name": null,
    "office_name_kana": null
  },
  "0101": {
    "postcode": "9470101",
    "prefecture": "新潟県",
    "prefecture_kana": "ニイガタケン",
    "prefecture_code": 15,
    "city": "小千谷市",
    "city_kana": "オヂヤシ",
    "town": "片貝町",
    "town_kana": "カタカイマチ",
    "street": null,
    "office_name": null,
    "office_name_kana": null
  },
  "0102": {
    "postcode": "9470102",
    "prefecture": "新潟県",
    "prefecture_kana": "ニイガタケン",
    "prefecture_code": 15,
    "city": "小千谷市",
    "city_kana": "オヂヤシ",
    "town": "高梨町",
    "town_kana": "タカナシチョウ",
    "street": null,
    "office_name": null,
    "office_name_kana": null
  },
  "0103": {
    "postcode": "9470103",
    "prefecture": "新潟県",
    "prefecture_kana": "ニイガタケン",
    "prefecture_code": 15,
    "city": "小千谷市",
    "city_kana": "オヂヤシ",
    "town": "片貝山屋町",
    "town_kana": "カタカイヤマヤチョウ",
    "street": null,
    "office_name": null,
    "office_name_kana": null
  },
  "0192": {
    "postcode": "9470192",
    "prefecture": "新潟県",
    "prefecture_kana": "ニイガタケン",
    "prefecture_code": 15,
    "city": "小千谷市",
    "city_kana": "オヂヤシ",
    "town": "片貝町",
    "town_kana": "カタカイマチ",
    "street": "１９８０−１",
    "office_name": "越後製菓　株式会社　片貝工場",
    "office_name_kana": "エチゴセイカ カブシキカイシヤ カタカイコウジヨウ"
  },
  "0193": {
    "postcode": "9470193",
    "prefecture": "新潟県",
    "prefecture_kana": "ニイガタケン",
    "prefecture_code": 15,
    "city": "小千谷市",
    "city_kana": "オヂヤシ",
    "town": "高梨町",
    "town_kana": "タカナシチョウ",
    "street": "１００３−１",
    "office_name": "越後製菓　株式会社　高梨工場",
    "office_name_kana": "エチゴセイカ カブシキカイシヤ タカナシコウジヨウ"
  },
  "0198": {
    "postcode": "9470198",
    "prefecture": "新潟県",
    "prefecture_kana": "ニイガタケン",
    "prefecture_code": 15,
    "city": "小千谷市",
    "city_kana": "オヂヤシ",
    "town": "片貝町",
    "town_kana": "カタカイマチ",
    "street": "２４８９−１",
    "office_name": "株式会社　フーゲツ",
    "office_name_kana": "カブシキカイシヤ フ-ゲツ"
  },
  "0201": {
    "postcode": "9470201",
    "prefecture": "新潟県",
    "prefecture_kana": "ニイガタケン",
    "prefecture_code": 15,
    "city": "長岡市",
    "city_kana": "ナガオカシ",
    "town": "山古志種苧原",
    "town_kana": "ヤマコシタネスハラ",
    "street": null,
    "office_name": null,
    "office_name_kana": null
  },
  "0202": {
    "postcode": "9470202",
    "prefecture": "新潟県",
    "prefecture_kana": "ニイガタケン",
    "prefecture_code": 15,
    "city": "長岡市",
    "city_kana": "ナガオカシ",
    "town": "山古志南平",
    "town_kana": "ヤマコシナンペイ",
    "street": null,
    "office_name": null,
    "office_name_kana": null
  },
  "0203": {
    "postcode": "9470203",
    "prefecture": "新潟県",
    "prefecture_kana": "ニイガタケン",
    "prefecture_code": 15,
    "city": "長岡市",
    "city_kana": "ナガオカシ",
    "town": "山古志東竹沢",
    "town_kana": "ヤマコシヒガシタケザワ",
    "street": null,
    "office_name": null,
    "office_name_kana": null
  },
  "0204": {
    "postcode": "9470204",
    "prefecture": "新潟県",
    "prefecture_kana": "ニイガタケン",
    "prefecture_code": 15,
    "city": "長岡市",
    "city_kana": "ナガオカシ",
    "town": "山古志竹沢",
    "town_kana": "ヤマコシタケザワ",
    "street": null,
    "office_name": null,
    "office_name_kana": null
  },
  "0205": {
    "postcode": "9470205",
    "prefecture": "新潟県",
    "prefecture_kana": "ニイガタケン",
    "prefecture_code": 15,
    "city": "長岡市",
    "city_kana": "ナガオカシ",
    "town": "山古志虫亀",
    "town_kana": "ヤマコシムシガメ",
    "street": null,
    "office_name": null,
    "office_name_kana": null
  },
  "0211": {
    "postcode": "9470211",
    "prefecture": "新潟県",
    "prefecture_kana": "ニイガタケン",
    "prefecture_code": 15,
    "city": "小千谷市",
    "city_kana": "オヂヤシ",
    "town": "小栗山",
    "town_kana": "コグリヤマ",
    "street": null,
    "office_name": null,
    "office_name_kana": null
  },
  "0212": {
    "postcode": "9470212",
    "prefecture": "新潟県",
    "prefecture_kana": "ニイガタケン",
    "prefecture_code": 15,
    "city": "小千谷市",
    "city_kana": "オヂヤシ",
    "town": "南荷頃",
    "town_kana": "ミナミニゴロ",
    "street": null,
    "office_name": null,
    "office_name_kana": null
  },
  "0213": {
    "postcode": "9470213",
    "prefecture": "新潟県",
    "prefecture_kana": "ニイガタケン",
    "prefecture_code": 15,
    "city": "小千谷市",
    "city_kana": "オヂヤシ",
    "town": "塩谷",
    "town_kana": "シオダニ",
    "street": null,
    "office_name": null,
    "office_name_kana": null
  },
  "8501": {
    "postcode": "9478501",
    "prefecture": "新潟県",
    "prefecture_kana": "ニイガタケン",
    "prefecture_code": 15,
    "city": "小千谷市",
    "city_kana": "オヂヤシ",
    "town": "城内",
    "town_kana": "ジョウナイ",
    "street": "２丁目７−５",
    "office_name": "小千谷市役所",
    "office_name_kana": "オヂヤシヤクシヨ"
  },
  "8502": {
    "postcode": "9478502",
    "prefecture": "新潟県",
    "prefecture_kana": "ニイガタケン",
    "prefecture_code": 15,
    "city": "小千谷市",
    "city_kana": "オヂヤシ",
    "town": "大字千谷",
    "town_kana": null,
    "street": "３０００",
    "office_name": "新潟三洋電子　株式会社",
    "office_name_kana": "ニイガタサンヨウデンシ カブシキガイシヤ"
  },
  "8503": {
    "postcode": "9478503",
    "prefecture": "新潟県",
    "prefecture_kana": "ニイガタケン",
    "prefecture_code": 15,
    "city": "小千谷市",
    "city_kana": "オヂヤシ",
    "town": "大字千谷",
    "town_kana": null,
    "street": "２８３３",
    "office_name": "日本ベアリング　株式会社",
    "office_name_kana": "ニツポンベアリング カブシキガイシヤ"
  },
  "8504": {
    "postcode": "9478504",
    "prefecture": "新潟県",
    "prefecture_kana": "ニイガタケン",
    "prefecture_code": 15,
    "city": "小千谷市",
    "city_kana": "オヂヤシ",
    "town": "平沢",
    "town_kana": "ヒラサワ",
    "street": "２丁目３−２０",
    "office_name": "三陽工業　株式会社",
    "office_name_kana": "サンヨウコウギヨウ カブシキガイシヤ"
  },
  "8506": {
    "postcode": "9478506",
    "prefecture": "新潟県",
    "prefecture_kana": "ニイガタケン",
    "prefecture_code": 15,
    "city": "小千谷市",
    "city_kana": "オヂヤシ",
    "town": "大字山谷",
    "town_kana": null,
    "street": "字新保４−１１",
    "office_name": "株式会社　タカハシキカイ",
    "office_name_kana": "カブシキガイシヤ タカハシキカイ"
  },
  "8540": {
    "postcode": "9478540",
    "prefecture": "新潟県",
    "prefecture_kana": "ニイガタケン",
    "prefecture_code": 15,
    "city": "小千谷市",
    "city_kana": "オヂヤシ",
    "town": "東栄",
    "town_kana": "トウエイ",
    "street": "１丁目５−２４",
    "office_name": "小千谷税務署",
    "office_name_kana": "オヂヤゼイムシヨ"
  },
  "8555": {
    "postcode": "9478555",
    "prefecture": "新潟県",
    "prefecture_kana": "ニイガタケン",
    "prefecture_code": 15,
    "city": "小千谷市",
    "city_kana": "オヂヤシ",
    "town": "大字ひ生",
    "town_kana": null,
    "street": "乙６６４番地",
    "office_name": "理研精機　（株）",
    "office_name_kana": "リケンセイキ (カブ)"
  },
  "8585": {
    "postcode": "9478585",
    "prefecture": "新潟県",
    "prefecture_kana": "ニイガタケン",
    "prefecture_code": 15,
    "city": "小千谷市",
    "city_kana": "オヂヤシ",
    "town": "上ノ山",
    "town_kana": "ウエノヤマ",
    "street": "４丁目８−１６",
    "office_name": "阿部幸製菓　株式会社",
    "office_name_kana": "アベコウセイカ カブシキガイシヤ"
  },
  "8701": {
    "postcode": "9478701",
    "prefecture": "新潟県",
    "prefecture_kana": "ニイガタケン",
    "prefecture_code": 15,
    "city": "小千谷市",
    "city_kana": "オヂヤシ",
    "town": "大字平沢新田",
    "town_kana": null,
    "street": "１１１番地",
    "office_name": "小千谷総合病院",
    "office_name_kana": "オヂヤソウゴウビヨウイン"
  },
  "8765": {
    "postcode": "9478765",
    "prefecture": "新潟県",
    "prefecture_kana": "ニイガタケン",
    "prefecture_code": 15,
    "city": "小千谷市",
    "city_kana": "オヂヤシ",
    "town": "大字平沢新田",
    "town_kana": null,
    "street": "字荒田３３９",
    "office_name": "ジャスコ小千谷店",
    "office_name_kana": "ジヤスコオヂヤテン"
  }
}