{
  "0000": {
    "postcode": "9480000",
    "prefecture": "新潟県",
    "prefecture_kana": "ニイガタケン",
    "prefecture_code": 15,
    "city": "十日町市",
    "city_kana": "トオカマチシ",
    "town": "",
    "town_kana": "",
    "street": null,
    "office_name": null,
    "office_name_kana": null
  },
  "0001": {
    "postcode": "9480001",
    "prefecture": "新潟県",
    "prefecture_kana": "ニイガタケン",
    "prefecture_code": 15,
    "city": "十日町市",
    "city_kana": "トオカマチシ",
    "town": "五軒新田",
    "town_kana": "ゴケンシンデン",
    "street": null,
    "office_name": null,
    "office_name_kana": null
  },
  "0002": {
    "postcode": "9480002",
    "prefecture": "新潟県",
    "prefecture_kana": "ニイガタケン",
    "prefecture_code": 15,
    "city": "十日町市",
    "city_kana": "トオカマチシ",
    "town": "三和町",
    "town_kana": "サンワチョウ",
    "street": null,
    "office_name": null,
    "office_name_kana": null
  },
  "0003": [
    {
      "postcode": "9480003",
      "prefecture": "新潟県",
      "prefecture_kana": "ニイガタケン",
      "prefecture_code": 15,
      "city": "十日町市",
      "city_kana": "トオカマチシ",
      "town": "本町",
      "town_kana": "ホンチョウ",
      "street": null,
      "office_name": null,
      "office_name_kana": null
    },
    {
      "postcode": "9480003",
      "prefecture": "新潟県",
      "prefecture_kana": "ニイガタケン",
      "prefecture_code": 15,
      "city": "十日町市",
      "city_kana": "トオカマチシ",
      "town": "本町六の一丁目",
      "town_kana": "ホンチョウロクノイッチョウメ",
      "street": null,
      "office_name": null,
      "office_name_kana": null
    },
    {
      "postcode": "9480003",
      "prefecture": "新潟県",
      "prefecture_kana": "ニイガタケン",
      "prefecture_code": 15,
      "city": "十日町市",
      "city_kana": "トオカマチシ",
      "town": "本町六の二丁目",
      "town_kana": "ホンチョウロクノニチョウメ",
      "street": null,
      "office_name": null,
      "office_name_kana": null
    },
    {
      "postcode": "9480003",
      "prefecture": "新潟県",
      "prefecture_kana": "ニイガタケン",
      "prefecture_code": 15,
      "city": "十日町市",
      "city_kana": "トオカマチシ",
      "town": "本町六の三丁目",
      "town_kana": "ホンチョウロクノサンチョウメ",
      "street": null,
      "office_name": null,
      "office_name_kana": null
    }
  ],
  "0004": {
    "postcode": "9480004",
    "prefecture": "新潟県",
    "prefecture_kana": "ニイガタケン",
    "prefecture_code": 15,
    "city": "十日町市",
    "city_kana": "トオカマチシ",
    "town": "下川原町",
    "town_kana": "シモガワラチョウ",
    "street": null,
    "office_name": null,
    "office_name_kana": null
  },
  "0005": {
    "postcode": "9480005",
    "prefecture": "新潟県",
    "prefecture_kana": "ニイガタケン",
    "prefecture_code": 15,
    "city": "十日町市",
    "city_kana": "トオカマチシ",
    "town": "南新田町",
    "town_kana": "ミナミシンデンチョウ",
    "street": null,
    "office_name": null,
    "office_name_kana": null
  },
  "0006": {
    "postcode": "9480006",
    "prefecture": "新潟県",
    "prefecture_kana": "ニイガタケン",
    "prefecture_code": 15,
    "city": "十日町市",
    "city_kana": "トオカマチシ",
    "town": "四日町",
    "town_kana": "ヨッカマチ",
    "street": null,
    "office_name": null,
    "office_name_kana": null
  },
  "0007": {
    "postcode": "9480007",
    "prefecture": "新潟県",
    "prefecture_kana": "ニイガタケン",
    "prefecture_code": 15,
    "city": "十日町市",
    "city_kana": "トオカマチシ",
    "town": "四日町新田",
    "town_kana": "ヨッカマチシンデン",
    "street": null,
    "office_name": null,
    "office_name_kana": null
  },
  "0008": {
    "postcode": "9480008",
    "prefecture": "新潟県",
    "prefecture_kana": "ニイガタケン",
    "prefecture_code": 15,
    "city": "十日町市",
    "city_kana": "トオカマチシ",
    "town": "尾崎",
    "town_kana": "オサキ",
    "street": null,
    "office_name": null,
    "office_name_kana": null
  },
  "0011": {
    "postcode": "9480011",
    "prefecture": "新潟県",
    "prefecture_kana": "ニイガタケン",
    "prefecture_code": 15,
    "city": "十日町市",
    "city_kana": "トオカマチシ",
    "town": "新座",
    "town_kana": "シンザ",
    "street": null,
    "office_name": null,
    "office_name_kana": null
  },
  "0012": {
    "postcode": "9480012",
    "prefecture": "新潟県",
    "prefecture_kana": "ニイガタケン",
    "prefecture_code": 15,
    "city": "十日町市",
    "city_kana": "トオカマチシ",
    "town": "新座",
    "town_kana": "シンザ",
    "street": null,
    "office_name": null,
    "office_name_kana": null
  },
  "0013": {
    "postcode": "9480013",
    "prefecture": "新潟県",
    "prefecture_kana": "ニイガタケン",
    "prefecture_code": 15,
    "city": "十日町市",
    "city_kana": "トオカマチシ",
    "town": "川原町",
    "town_kana": "カワハラチョウ",
    "street": null,
    "office_name": null,
    "office_name_kana": null
  },
  "0014": {
    "postcode": "9480014",
    "prefecture": "新潟県",
    "prefecture_kana": "ニイガタケン",
    "prefecture_code": 15,
    "city": "十日町市",
    "city_kana": "トオカマチシ",
    "town": "江道",
    "town_kana": "エドウ",
    "street": null,
    "office_name": null,
    "office_name_kana": null
  },
  "0015": {
    "postcode": "9480015",
    "prefecture": "新潟県",
    "prefecture_kana": "ニイガタケン",
    "prefecture_code": 15,
    "city": "十日町市",
    "city_kana": "トオカマチシ",
    "town": "猿倉",
    "town_kana": "サルクラ",
    "street": null,
    "office_name": null,
    "office_name_kana": null
  },
  "0016": {
    "postcode": "9480016",
    "prefecture": "新潟県",
    "prefecture_kana": "ニイガタケン",
    "prefecture_code": 15,
    "city": "十日町市",
    "city_kana": "トオカマチシ",
    "town": "津池",
    "town_kana": "ツイケ",
    "street": null,
    "office_name": null,
    "office_name_kana": null
  },
  "0017": {
    "postcode": "9480017",
    "prefecture": "新潟県",
    "prefecture_kana": "ニイガタケン",
    "prefecture_code": 15,
    "city": "十日町市",
    "city_kana": "トオカマチシ",
    "town": "菅沼",
    "town_kana": "スガヌマ",
    "street": null,
    "office_name": null,
    "office_name_kana": null
  },
  "0018": {
    "postcode": "9480018",
    "prefecture": "新潟県",
    "prefecture_kana": "ニイガタケン",
    "prefecture_code": 15,
    "city": "十日町市",
    "city_kana": "トオカマチシ",
    "town": "大池",
    "town_kana": "オオイケ",
    "street": null,
    "office_name": null,
    "office_name_kana": null
  },
  "0019": {
    "postcode": "9480019",
    "prefecture": "新潟県",
    "prefecture_kana": "ニイガタケン",
    "prefecture_code": 15,
    "city": "十日町市",
    "city_kana": "トオカマチシ",
    "town": "十日町赤倉",
    "town_kana": "トオカマチアカクラ",
    "street": null,
    "office_name": null,
    "office_name_kana": null
  },
  "0021": {
    "postcode": "9480021",
    "prefecture": "新潟県",
    "prefecture_kana": "ニイガタケン",
    "prefecture_code": 15,
    "city": "十日町市",
    "city_kana": "トオカマチシ",
    "town": "田川町",
    "town_kana": "タガワチョウ",
    "street": null,
    "office_name": null,
    "office_name_kana": null
  },
  "0022": {
    "postcode": "9480022",
    "prefecture": "新潟県",
    "prefecture_kana": "ニイガタケン",
    "prefecture_code": 15,
    "city": "十日町市",
    "city_kana": "トオカマチシ",
    "town": "学校町",
    "town_kana": "ガッコウチョウ",
    "street": null,
    "office_name": null,
    "office_name_kana": null
  },
  "0023": [
    {
      "postcode": "9480023",
      "prefecture": "新潟県",
      "prefecture_kana": "ニイガタケン",
      "prefecture_code": 15,
      "city": "十日町市",
      "city_kana": "トオカマチシ",
      "town": "宮下町西",
      "town_kana": "ミヤシタチョウニシ",
      "street": null,
      "office_name": null,
      "office_name_kana": null
    },
    {
      "postcode": "9480023",
      "prefecture": "新潟県",
      "prefecture_kana": "ニイガタケン",
      "prefecture_code": 15,
      "city": "十日町市",
      "city_kana": "トオカマチシ",
      "town": "宮下町東",
      "town_kana": "ミヤシタチョウヒガシ",
      "street": null,
      "office_name": null,
      "office_name_kana": null
    }
  ],
  "0024": {
    "postcode": "9480024",
    "prefecture": "新潟県",
    "prefecture_kana": "ニイガタケン",
    "prefecture_code": 15,
    "city": "十日町市",
    "city_kana": "トオカマチシ",
    "town": "諏訪町",
    "town_kana": "スワチョウ",
    "street": null,
    "office_name": null,
    "office_name_kana": null
  },
  "0025": {
    "postcode": "9480025",
    "prefecture": "新潟県",
    "prefecture_kana": "ニイガタケン",
    "prefecture_code": 15,
    "city": "十日町市",
    "city_kana": "トオカマチシ",
    "town": "神明町",
    "town_kana": "シンメイチョウ",
    "street": null,
    "office_name": null,
    "office_name_kana": null
  },
  "0026": {
    "postcode": "9480026",
    "prefecture": "新潟県",
    "prefecture_kana": "ニイガタケン",
    "prefecture_code": 15,
    "city": "十日町市",
    "city_kana": "トオカマチシ",
    "town": "水野町",
    "town_kana": "ミズノチョウ",
    "street": null,
    "office_name": null,
    "office_name_kana": null
  },
  "0027": {
    "postcode": "9480027",
    "prefecture": "新潟県",
    "prefecture_kana": "ニイガタケン",
    "prefecture_code": 15,
    "city": "十日町市",
    "city_kana": "トオカマチシ",
    "town": "若宮町",
    "town_kana": "ワカミヤチョウ",
    "street": null,
    "office_name": null,
    "office_name_kana": null
  },
  "0028": [
    {
      "postcode": "9480028",
      "prefecture": "新潟県",
      "prefecture_kana": "ニイガタケン",
      "prefecture_code": 15,
      "city": "十日町市",
      "city_kana": "トオカマチシ",
      "town": "田中町西",
      "town_kana": "タナカチョウニシ",
      "street": null,
      "office_name": null,
      "office_name_kana": null
    },
    {
      "postcode": "9480028",
      "prefecture": "新潟県",
      "prefecture_kana": "ニイガタケン",
      "prefecture_code": 15,
      "city": "十日町市",
      "city_kana": "トオカマチシ",
      "town": "田中町東",
      "town_kana": "タナカチョウヒガシ",
      "street": null,
      "office_name": null,
      "office_name_kana": null
    },
    {
      "postcode": "9480028",
      "prefecture": "新潟県",
      "prefecture_kana": "ニイガタケン",
      "prefecture_code": 15,
      "city": "十日町市",
      "city_kana": "トオカマチシ",
      "town": "田中町本通り",
      "town_kana": "タナカチョウホンドオリ",
      "street": null,
      "office_name": null,
      "office_name_kana": null
    }
  ],
  "0029": {
    "postcode": "9480029",
    "prefecture": "新潟県",
    "prefecture_kana": "ニイガタケン",
    "prefecture_code": 15,
    "city": "十日町市",
    "city_kana": "トオカマチシ",
    "town": "上川町",
    "town_kana": "カミカワチョウ",
    "street": null,
    "office_name": null,
    "office_name_kana": null
  },
  "0031": {
    "postcode": "9480031",
    "prefecture": "新潟県",
    "prefecture_kana": "ニイガタケン",
    "prefecture_code": 15,
    "city": "十日町市",
    "city_kana": "トオカマチシ",
    "town": "山本町",
    "town_kana": "ヤマモトチョウ",
    "street": null,
    "office_name": null,
    "office_name_kana": null
  },
  "0032": {
    "postcode": "9480032",
    "prefecture": "新潟県",
    "prefecture_kana": "ニイガタケン",
    "prefecture_code": 15,
    "city": "十日町市",
    "city_kana": "トオカマチシ",
    "town": "関根",
    "town_kana": "セキネ",
    "street": null,
    "office_name": null,
    "office_name_kana": null
  },
  "0033": {
    "postcode": "9480033",
    "prefecture": "新潟県",
    "prefecture_kana": "ニイガタケン",
    "prefecture_code": 15,
    "city": "十日町市",
    "city_kana": "トオカマチシ",
    "town": "八箇",
    "town_kana": "ハッカ",
    "street": null,
    "office_name": null,
    "office_name_kana": null
  },
  "0034": {
    "postcode": "9480034",
    "prefecture": "新潟県",
    "prefecture_kana": "ニイガタケン",
    "prefecture_code": 15,
    "city": "十日町市",
    "city_kana": "トオカマチシ",
    "town": "二ツ屋",
    "town_kana": "フタツヤ",
    "street": null,
    "office_name": null,
    "office_name_kana": null
  },
  "0035": {
    "postcode": "9480035",
    "prefecture": "新潟県",
    "prefecture_kana": "ニイガタケン",
    "prefecture_code": 15,
    "city": "十日町市",
    "city_kana": "トオカマチシ",
    "town": "川治下町",
    "town_kana": "カワジシモチョウ",
    "street": null,
    "office_name": null,
    "office_name_kana": null
  },
  "0036": {
    "postcode": "9480036",
    "prefecture": "新潟県",
    "prefecture_kana": "ニイガタケン",
    "prefecture_code": 15,
    "city": "十日町市",
    "city_kana": "トオカマチシ",
    "town": "川治",
    "town_kana": "カワジ",
    "street": null,
    "office_name": null,
    "office_name_kana": null
  },
  "0037": {
    "postcode": "9480037",
    "prefecture": "新潟県",
    "prefecture_kana": "ニイガタケン",
    "prefecture_code": 15,
    "city": "十日町市",
    "city_kana": "トオカマチシ",
    "town": "妻有町",
    "town_kana": "ツマリチョウ",
    "street": null,
    "office_name": null,
    "office_name_kana": null
  },
  "0038": {
    "postcode": "9480038",
    "prefecture": "新潟県",
    "prefecture_kana": "ニイガタケン",
    "prefecture_code": 15,
    "city": "十日町市",
    "city_kana": "トオカマチシ",
    "town": "河内町",
    "town_kana": "カワウチチョウ",
    "street": null,
    "office_name": null,
    "office_name_kana": null
  },
  "0039": {
    "postcode": "9480039",
    "prefecture": "新潟県",
    "prefecture_kana": "ニイガタケン",
    "prefecture_code": 15,
    "city": "十日町市",
    "city_kana": "トオカマチシ",
    "town": "塩ノ又",
    "town_kana": "シオノマタ",
    "street": null,
    "office_name": null,
    "office_name_kana": null
  },
  "0041": {
    "postcode": "9480041",
    "prefecture": "新潟県",
    "prefecture_kana": "ニイガタケン",
    "prefecture_code": 15,
    "city": "十日町市",
    "city_kana": "トオカマチシ",
    "town": "北新田",
    "town_kana": "キタシンデン",
    "street": null,
    "office_name": null,
    "office_name_kana": null
  },
  "0042": {
    "postcode": "9480042",
    "prefecture": "新潟県",
    "prefecture_kana": "ニイガタケン",
    "prefecture_code": 15,
    "city": "十日町市",
    "city_kana": "トオカマチシ",
    "town": "中村",
    "town_kana": "ナカムラ",
    "street": null,
    "office_name": null,
    "office_name_kana": null
  },
  "0043": {
    "postcode": "9480043",
    "prefecture": "新潟県",
    "prefecture_kana": "ニイガタケン",
    "prefecture_code": 15,
    "city": "十日町市",
    "city_kana": "トオカマチシ",
    "town": "六箇山谷",
    "town_kana": "ロッカヤマヤ",
    "street": null,
    "office_name": null,
    "office_name_kana": null
  },
  "0044": {
    "postcode": "9480044",
    "prefecture": "新潟県",
    "prefecture_kana": "ニイガタケン",
    "prefecture_code": 15,
    "city": "十日町市",
    "city_kana": "トオカマチシ",
    "town": "田麦",
    "town_kana": "タムギ",
    "street": null,
    "office_name": null,
    "office_name_kana": null
  },
  "0045": {
    "postcode": "9480045",
    "prefecture": "新潟県",
    "prefecture_kana": "ニイガタケン",
    "prefecture_code": 15,
    "city": "十日町市",
    "city_kana": "トオカマチシ",
    "town": "麻畑",
    "town_kana": "アサバタケ",
    "street": null,
    "office_name": null,
    "office_name_kana": null
  },
  "0046": {
    "postcode": "9480046",
    "prefecture": "新潟県",
    "prefecture_kana": "ニイガタケン",
    "prefecture_code": 15,
    "city": "十日町市",
    "city_kana": "トオカマチシ",
    "town": "明石町",
    "town_kana": "アカシチョウ",
    "street": null,
    "office_name": null,
    "office_name_kana": null
  },
  "0047": {
    "postcode": "9480047",
    "prefecture": "新潟県",
    "prefecture_kana": "ニイガタケン",
    "prefecture_code": 15,
    "city": "十日町市",
    "city_kana": "トオカマチシ",
    "town": "城之古",
    "town_kana": "タテノコシ",
    "street": null,
    "office_name": null,
    "office_name_kana": null
  },
  "0048": {
    "postcode": "9480048",
    "prefecture": "新潟県",
    "prefecture_kana": "ニイガタケン",
    "prefecture_code": 15,
    "city": "十日町市",
    "city_kana": "トオカマチシ",
    "town": "谷内丑",
    "town_kana": "ヤチウシ",
    "street": null,
    "office_name": null,
    "office_name_kana": null
  },
  "0049": {
    "postcode": "9480049",
    "prefecture": "新潟県",
    "prefecture_kana": "ニイガタケン",
    "prefecture_code": 15,
    "city": "十日町市",
    "city_kana": "トオカマチシ",
    "town": "船坂",
    "town_kana": "フナザカ",
    "street": null,
    "office_name": null,
    "office_name_kana": null
  },
  "0051": {
    "postcode": "9480051",
    "prefecture": "新潟県",
    "prefecture_kana": "ニイガタケン",
    "prefecture_code": 15,
    "city": "十日町市",
    "city_kana": "トオカマチシ",
    "town": "寿町",
    "town_kana": "コトブキチョウ",
    "street": null,
    "office_name": null,
    "office_name_kana": null
  },
  "0052": {
    "postcode": "9480052",
    "prefecture": "新潟県",
    "prefecture_kana": "ニイガタケン",
    "prefecture_code": 15,
    "city": "十日町市",
    "city_kana": "トオカマチシ",
    "town": "美雪町",
    "town_kana": "ミユキチョウ",
    "street": null,
    "office_name": null,
    "office_name_kana": null
  },
  "0053": {
    "postcode": "9480053",
    "prefecture": "新潟県",
    "prefecture_kana": "ニイガタケン",
    "prefecture_code": 15,
    "city": "十日町市",
    "city_kana": "トオカマチシ",
    "town": "錦町",
    "town_kana": "ニシキチョウ",
    "street": null,
    "office_name": null,
    "office_name_kana": null
  },
  "0054": {
    "postcode": "9480054",
    "prefecture": "新潟県",
    "prefecture_kana": "ニイガタケン",
    "prefecture_code": 15,
    "city": "十日町市",
    "city_kana": "トオカマチシ",
    "town": "塚原町",
    "town_kana": "ツカハラチョウ",
    "street": null,
    "office_name": null,
    "office_name_kana": null
  },
  "0055": {
    "postcode": "9480055",
    "prefecture": "新潟県",
    "prefecture_kana": "ニイガタケン",
    "prefecture_code": 15,
    "city": "十日町市",
    "city_kana": "トオカマチシ",
    "town": "高山",
    "town_kana": "タカヤマ",
    "street": null,
    "office_name": null,
    "office_name_kana": null
  },
  "0056": [
    {
      "postcode": "9480056",
      "prefecture": "新潟県",
      "prefecture_kana": "ニイガタケン",
      "prefecture_code": 15,
      "city": "十日町市",
      "city_kana": "トオカマチシ",
      "town": "高田町四丁目",
      "town_kana": "タカダチョウヨンチョウメ",
      "street": null,
      "office_name": null,
      "office_name_kana": null
    },
    {
      "postcode": "9480056",
      "prefecture": "新潟県",
      "prefecture_kana": "ニイガタケン",
      "prefecture_code": 15,
      "city": "十日町市",
      "city_kana": "トオカマチシ",
      "town": "高田町五丁目",
      "town_kana": "タカダチョウゴチョウメ",
      "street": null,
      "office_name": null,
      "office_name_kana": null
    },
    {
      "postcode": "9480056",
      "prefecture": "新潟県",
      "prefecture_kana": "ニイガタケン",
      "prefecture_code": 15,
      "city": "十日町市",
      "city_kana": "トオカマチシ",
      "town": "高田町六丁目",
      "town_kana": "タカダチョウロクチョウメ",
      "street": null,
      "office_name": null,
      "office_name_kana": null
    }
  ],
  "0057": {
    "postcode": "9480057",
    "prefecture": "新潟県",
    "prefecture_kana": "ニイガタケン",
    "prefecture_code": 15,
    "city": "十日町市",
    "city_kana": "トオカマチシ",
    "town": "春日町",
    "town_kana": "カスガチョウ",
    "street": null,
    "office_name": null,
    "office_name_kana": null
  },
  "0058": {
    "postcode": "9480058",
    "prefecture": "新潟県",
    "prefecture_kana": "ニイガタケン",
    "prefecture_code": 15,
    "city": "十日町市",
    "city_kana": "トオカマチシ",
    "town": "桜木町",
    "town_kana": "サクラギチョウ",
    "street": null,
    "office_name": null,
    "office_name_kana": null
  },
  "0061": {
    "postcode": "9480061",
    "prefecture": "新潟県",
    "prefecture_kana": "ニイガタケン",
    "prefecture_code": 15,
    "city": "十日町市",
    "city_kana": "トオカマチシ",
    "town": "昭和町",
    "town_kana": "ショウワチョウ",
    "street": null,
    "office_name": null,
    "office_name_kana": null
  },
  "0062": {
    "postcode": "9480062",
    "prefecture": "新潟県",
    "prefecture_kana": "ニイガタケン",
    "prefecture_code": 15,
    "city": "十日町市",
    "city_kana": "トオカマチシ",
    "town": "泉町",
    "town_kana": "イズミチョウ",
    "street": null,
    "office_name": null,
    "office_name_kana": null
  },
  "0063": {
    "postcode": "9480063",
    "prefecture": "新潟県",
    "prefecture_kana": "ニイガタケン",
    "prefecture_code": 15,
    "city": "十日町市",
    "city_kana": "トオカマチシ",
    "town": "高田町一丁目",
    "town_kana": "タカダチョウイッチョウメ",
    "street": null,
    "office_name": null,
    "office_name_kana": null
  },
  "0064": {
    "postcode": "9480064",
    "prefecture": "新潟県",
    "prefecture_kana": "ニイガタケン",
    "prefecture_code": 15,
    "city": "十日町市",
    "city_kana": "トオカマチシ",
    "town": "高田町二丁目",
    "town_kana": "タカダチョウニチョウメ",
    "street": null,
    "office_name": null,
    "office_name_kana": null
  },
  "0065": [
    {
      "postcode": "9480065",
      "prefecture": "新潟県",
      "prefecture_kana": "ニイガタケン",
      "prefecture_code": 15,
      "city": "十日町市",
      "city_kana": "トオカマチシ",
      "town": "高田町三丁目",
      "town_kana": "タカダチョウサンチョウメ",
      "street": null,
      "office_name": null,
      "office_name_kana": null
    },
    {
      "postcode": "9480065",
      "prefecture": "新潟県",
      "prefecture_kana": "ニイガタケン",
      "prefecture_code": 15,
      "city": "十日町市",
      "city_kana": "トオカマチシ",
      "town": "高田町三丁目西",
      "town_kana": "タカダチョウサンチョウメニシ",
      "street": null,
      "office_name": null,
      "office_name_kana": null
    },
    {
      "postcode": "9480065",
      "prefecture": "新潟県",
      "prefecture_kana": "ニイガタケン",
      "prefecture_code": 15,
      "city": "十日町市",
      "city_kana": "トオカマチシ",
      "town": "高田町三丁目南",
      "town_kana": "タカダチョウサンチョウメミナミ",
      "street": null,
      "office_name": null,
      "office_name_kana": null
    }
  ],
  "0066": [
    {
      "postcode": "9480066",
      "prefecture": "新潟県",
      "prefecture_kana": "ニイガタケン",
      "prefecture_code": 15,
      "city": "十日町市",
      "city_kana": "トオカマチシ",
      "town": "袋町中",
      "town_kana": "フクロチョウナカ",
      "street": null,
      "office_name": null,
      "office_name_kana": null
    },
    {
      "postcode": "9480066",
      "prefecture": "新潟県",
      "prefecture_kana": "ニイガタケン",
      "prefecture_code": 15,
      "city": "十日町市",
      "city_kana": "トオカマチシ",
      "town": "袋町西",
      "town_kana": "フクロチョウニシ",
      "street": null,
      "office_name": null,
      "office_name_kana": null
    },
    {
      "postcode": "9480066",
      "prefecture": "新潟県",
      "prefecture_kana": "ニイガタケン",
      "prefecture_code": 15,
      "city": "十日町市",
      "city_kana": "トオカマチシ",
      "town": "袋町東",
      "town_kana": "フクロチョウヒガシ",
      "street": null,
      "office_name": null,
      "office_name_kana": null
    }
  ],
  "0067": {
    "postcode": "9480067",
    "prefecture": "新潟県",
    "prefecture_kana": "ニイガタケン",
    "prefecture_code": 15,
    "city": "十日町市",
    "city_kana": "トオカマチシ",
    "town": "千歳町",
    "town_kana": "チトセチョウ",
    "street": null,
    "office_name": null,
    "office_name_kana": null
  },
  "0068": {
    "postcode": "9480068",
    "prefecture": "新潟県",
    "prefecture_kana": "ニイガタケン",
    "prefecture_code": 15,
    "city": "十日町市",
    "city_kana": "トオカマチシ",
    "town": "栄町",
    "town_kana": "サカエチョウ",
    "street": null,
    "office_name": null,
    "office_name_kana": null
  },
  "0071": {
    "postcode": "9480071",
    "prefecture": "新潟県",
    "prefecture_kana": "ニイガタケン",
    "prefecture_code": 15,
    "city": "十日町市",
    "city_kana": "トオカマチシ",
    "town": "八幡田町",
    "town_kana": "ハチマンダチョウ",
    "street": null,
    "office_name": null,
    "office_name_kana": null
  },
  "0072": {
    "postcode": "9480072",
    "prefecture": "新潟県",
    "prefecture_kana": "ニイガタケン",
    "prefecture_code": 15,
    "city": "十日町市",
    "city_kana": "トオカマチシ",
    "town": "西本町",
    "town_kana": "ニシホンチョウ",
    "street": null,
    "office_name": null,
    "office_name_kana": null
  },
  "0073": [
    {
      "postcode": "9480073",
      "prefecture": "新潟県",
      "prefecture_kana": "ニイガタケン",
      "prefecture_code": 15,
      "city": "十日町市",
      "city_kana": "トオカマチシ",
      "town": "稲荷町",
      "town_kana": "イナリチョウ",
      "street": null,
      "office_name": null,
      "office_name_kana": null
    },
    {
      "postcode": "9480073",
      "prefecture": "新潟県",
      "prefecture_kana": "ニイガタケン",
      "prefecture_code": 15,
      "city": "十日町市",
      "city_kana": "トオカマチシ",
      "town": "稲荷町一丁目",
      "town_kana": "イナリチョウイッチョウメ",
      "street": null,
      "office_name": null,
      "office_name_kana": null
    },
    {
      "postcode": "9480073",
      "prefecture": "新潟県",
      "prefecture_kana": "ニイガタケン",
      "prefecture_code": 15,
      "city": "十日町市",
      "city_kana": "トオカマチシ",
      "town": "稲荷町二丁目",
      "town_kana": "イナリチョウニチョウメ",
      "street": null,
      "office_name": null,
      "office_name_kana": null
    },
    {
      "postcode": "9480073",
      "prefecture": "新潟県",
      "prefecture_kana": "ニイガタケン",
      "prefecture_code": 15,
      "city": "十日町市",
      "city_kana": "トオカマチシ",
      "town": "稲荷町三丁目東",
      "town_kana": "イナリチョウサンチョウメヒガシ",
      "street": null,
      "office_name": null,
      "office_name_kana": null
    },
    {
      "postcode": "9480073",
      "prefecture": "新潟県",
      "prefecture_kana": "ニイガタケン",
      "prefecture_code": 15,
      "city": "十日町市",
      "city_kana": "トオカマチシ",
      "town": "稲荷町三丁目本通り",
      "town_kana": "イナリチョウサンチョウメホンドオリ",
      "street": null,
      "office_name": null,
      "office_name_kana": null
    },
    {
      "postcode": "9480073",
      "prefecture": "新潟県",
      "prefecture_kana": "ニイガタケン",
      "prefecture_code": 15,
      "city": "十日町市",
      "city_kana": "トオカマチシ",
      "town": "稲荷町四丁目",
      "town_kana": "イナリチョウヨンチョウメ",
      "street": null,
      "office_name": null,
      "office_name_kana": null
    },
    {
      "postcode": "9480073",
      "prefecture": "新潟県",
      "prefecture_kana": "ニイガタケン",
      "prefecture_code": 15,
      "city": "十日町市",
      "city_kana": "トオカマチシ",
      "town": "稲荷町西",
      "town_kana": "イナリチョウニシ",
      "street": null,
      "office_name": null,
      "office_name_kana": null
    }
  ],
  "0074": [
    {
      "postcode": "9480074",
      "prefecture": "新潟県",
      "prefecture_kana": "ニイガタケン",
      "prefecture_code": 15,
      "city": "十日町市",
      "city_kana": "トオカマチシ",
      "town": "西浦町西",
      "town_kana": "ニシウラチョウニシ",
      "street": null,
      "office_name": null,
      "office_name_kana": null
    },
    {
      "postcode": "9480074",
      "prefecture": "新潟県",
      "prefecture_kana": "ニイガタケン",
      "prefecture_code": 15,
      "city": "十日町市",
      "city_kana": "トオカマチシ",
      "town": "西浦町東",
      "town_kana": "ニシウラチョウヒガシ",
      "street": null,
      "office_name": null,
      "office_name_kana": null
    }
  ],
  "0075": {
    "postcode": "9480075",
    "prefecture": "新潟県",
    "prefecture_kana": "ニイガタケン",
    "prefecture_code": 15,
    "city": "十日町市",
    "city_kana": "トオカマチシ",
    "town": "丸山町",
    "town_kana": "マルヤマチョウ",
    "street": null,
    "office_name": null,
    "office_name_kana": null
  },
  "0076": {
    "postcode": "9480076",
    "prefecture": "新潟県",
    "prefecture_kana": "ニイガタケン",
    "prefecture_code": 15,
    "city": "十日町市",
    "city_kana": "トオカマチシ",
    "town": "住吉町",
    "town_kana": "スミヨシチョウ",
    "street": null,
    "office_name": null,
    "office_name_kana": null
  },
  "0078": {
    "postcode": "9480078",
    "prefecture": "新潟県",
    "prefecture_kana": "ニイガタケン",
    "prefecture_code": 15,
    "city": "十日町市",
    "city_kana": "トオカマチシ",
    "town": "千代田町",
    "town_kana": "チヨダチョウ",
    "street": null,
    "office_name": null,
    "office_name_kana": null
  },
  "0079": {
    "postcode": "9480079",
    "prefecture": "新潟県",
    "prefecture_kana": "ニイガタケン",
    "prefecture_code": 15,
    "city": "十日町市",
    "city_kana": "トオカマチシ",
    "town": "旭町",
    "town_kana": "アサヒチョウ",
    "street": null,
    "office_name": null,
    "office_name_kana": null
  },
  "0081": {
    "postcode": "9480081",
    "prefecture": "新潟県",
    "prefecture_kana": "ニイガタケン",
    "prefecture_code": 15,
    "city": "十日町市",
    "city_kana": "トオカマチシ",
    "town": "本町五丁目",
    "town_kana": "ホンチョウゴチョウメ",
    "street": null,
    "office_name": null,
    "office_name_kana": null
  },
  "0082": [
    {
      "postcode": "9480082",
      "prefecture": "新潟県",
      "prefecture_kana": "ニイガタケン",
      "prefecture_code": 15,
      "city": "十日町市",
      "city_kana": "トオカマチシ",
      "town": "本町二丁目",
      "town_kana": "ホンチョウニチョウメ",
      "street": null,
      "office_name": null,
      "office_name_kana": null
    },
    {
      "postcode": "9480082",
      "prefecture": "新潟県",
      "prefecture_kana": "ニイガタケン",
      "prefecture_code": 15,
      "city": "十日町市",
      "city_kana": "トオカマチシ",
      "town": "本町三丁目",
      "town_kana": "ホンチョウサンチョウメ",
      "street": null,
      "office_name": null,
      "office_name_kana": null
    },
    {
      "postcode": "9480082",
      "prefecture": "新潟県",
      "prefecture_kana": "ニイガタケン",
      "prefecture_code": 15,
      "city": "十日町市",
      "city_kana": "トオカマチシ",
      "town": "本町四丁目",
      "town_kana": "ホンチョウヨンチョウメ",
      "street": null,
      "office_name": null,
      "office_name_kana": null
    }
  ],
  "0083": [
    {
      "postcode": "9480083",
      "prefecture": "新潟県",
      "prefecture_kana": "ニイガタケン",
      "prefecture_code": 15,
      "city": "十日町市",
      "city_kana": "トオカマチシ",
      "town": "本町一丁目上",
      "town_kana": "ホンチョウイッチョウメカミ",
      "street": null,
      "office_name": null,
      "office_name_kana": null
    },
    {
      "postcode": "9480083",
      "prefecture": "新潟県",
      "prefecture_kana": "ニイガタケン",
      "prefecture_code": 15,
      "city": "十日町市",
      "city_kana": "トオカマチシ",
      "town": "本町一丁目下",
      "town_kana": "ホンチョウイッチョウメシモ",
      "street": null,
      "office_name": null,
      "office_name_kana": null
    },
    {
      "postcode": "9480083",
      "prefecture": "新潟県",
      "prefecture_kana": "ニイガタケン",
      "prefecture_code": 15,
      "city": "十日町市",
      "city_kana": "トオカマチシ",
      "town": "本町西一丁目",
      "town_kana": "ホンチョウニシイッチョウメ",
      "street": null,
      "office_name": null,
      "office_name_kana": null
    },
    {
      "postcode": "9480083",
      "prefecture": "新潟県",
      "prefecture_kana": "ニイガタケン",
      "prefecture_code": 15,
      "city": "十日町市",
      "city_kana": "トオカマチシ",
      "town": "本町東一丁目",
      "town_kana": "ホンチョウヒガシイッチョウメ",
      "street": null,
      "office_name": null,
      "office_name_kana": null
    }
  ],
  "0084": {
    "postcode": "9480084",
    "prefecture": "新潟県",
    "prefecture_kana": "ニイガタケン",
    "prefecture_code": 15,
    "city": "十日町市",
    "city_kana": "トオカマチシ",
    "town": "七軒町",
    "town_kana": "シチケンチョウ",
    "street": null,
    "office_name": null,
    "office_name_kana": null
  },
  "0085": {
    "postcode": "9480085",
    "prefecture": "新潟県",
    "prefecture_kana": "ニイガタケン",
    "prefecture_code": 15,
    "city": "十日町市",
    "city_kana": "トオカマチシ",
    "town": "西寺町",
    "town_kana": "ニシデラチョウ",
    "street": null,
    "office_name": null,
    "office_name_kana": null
  },
  "0086": {
    "postcode": "9480086",
    "prefecture": "新潟県",
    "prefecture_kana": "ニイガタケン",
    "prefecture_code": 15,
    "city": "十日町市",
    "city_kana": "トオカマチシ",
    "town": "加賀糸屋町",
    "town_kana": "カガイトヤチョウ",
    "street": null,
    "office_name": null,
    "office_name_kana": null
  },
  "0087": {
    "postcode": "9480087",
    "prefecture": "新潟県",
    "prefecture_kana": "ニイガタケン",
    "prefecture_code": 15,
    "city": "十日町市",
    "city_kana": "トオカマチシ",
    "town": "関口樋口町",
    "town_kana": "セキグチヒグチチョウ",
    "street": null,
    "office_name": null,
    "office_name_kana": null
  },
  "0088": {
    "postcode": "9480088",
    "prefecture": "新潟県",
    "prefecture_kana": "ニイガタケン",
    "prefecture_code": 15,
    "city": "十日町市",
    "city_kana": "トオカマチシ",
    "town": "駅通り",
    "town_kana": "エキドオリ",
    "street": null,
    "office_name": null,
    "office_name_kana": null
  },
  "0091": {
    "postcode": "9480091",
    "prefecture": "新潟県",
    "prefecture_kana": "ニイガタケン",
    "prefecture_code": 15,
    "city": "十日町市",
    "city_kana": "トオカマチシ",
    "town": "稲荷町三丁目",
    "town_kana": "イナリチョウサンチョウメ",
    "street": null,
    "office_name": null,
    "office_name_kana": null
  },
  "0092": {
    "postcode": "9480092",
    "prefecture": "新潟県",
    "prefecture_kana": "ニイガタケン",
    "prefecture_code": 15,
    "city": "十日町市",
    "city_kana": "トオカマチシ",
    "town": "稲荷町三丁目北",
    "town_kana": "イナリチョウサンチョウメキタ",
    "street": null,
    "office_name": null,
    "office_name_kana": null
  },
  "0093": {
    "postcode": "9480093",
    "prefecture": "新潟県",
    "prefecture_kana": "ニイガタケン",
    "prefecture_code": 15,
    "city": "十日町市",
    "city_kana": "トオカマチシ",
    "town": "稲荷町三丁目南",
    "town_kana": "イナリチョウサンチョウメミナミ",
    "street": null,
    "office_name": null,
    "office_name_kana": null
  },
  "0094": {
    "postcode": "9480094",
    "prefecture": "新潟県",
    "prefecture_kana": "ニイガタケン",
    "prefecture_code": 15,
    "city": "十日町市",
    "city_kana": "トオカマチシ",
    "town": "上島",
    "town_kana": "カミジマ",
    "street": null,
    "office_name": null,
    "office_name_kana": null
  },
  "0095": {
    "postcode": "9480095",
    "prefecture": "新潟県",
    "prefecture_kana": "ニイガタケン",
    "prefecture_code": 15,
    "city": "十日町市",
    "city_kana": "トオカマチシ",
    "town": "下島",
    "town_kana": "シタジマ",
    "street": null,
    "office_name": null,
    "office_name_kana": null
  },
  "0096": {
    "postcode": "9480096",
    "prefecture": "新潟県",
    "prefecture_kana": "ニイガタケン",
    "prefecture_code": 15,
    "city": "十日町市",
    "city_kana": "トオカマチシ",
    "town": "内島",
    "town_kana": "ウチジマ",
    "street": null,
    "office_name": null,
    "office_name_kana": null
  },
  "0101": {
    "postcode": "9480101",
    "prefecture": "新潟県",
    "prefecture_kana": "ニイガタケン",
    "prefecture_code": 15,
    "city": "十日町市",
    "city_kana": "トオカマチシ",
    "town": "稲葉",
    "town_kana": "イナバ",
    "street": null,
    "office_name": null,
    "office_name_kana": null
  },
  "0102": {
    "postcode": "9480102",
    "prefecture": "新潟県",
    "prefecture_kana": "ニイガタケン",
    "prefecture_code": 15,
    "city": "十日町市",
    "city_kana": "トオカマチシ",
    "town": "山谷",
    "town_kana": "ヤマヤ",
    "street": null,
    "office_name": null,
    "office_name_kana": null
  },
  "0103": {
    "postcode": "9480103",
    "prefecture": "新潟県",
    "prefecture_kana": "ニイガタケン",
    "prefecture_code": 15,
    "city": "十日町市",
    "city_kana": "トオカマチシ",
    "town": "小泉",
    "town_kana": "コイズミ",
    "street": null,
    "office_name": null,
    "office_name_kana": null
  },
  "0104": {
    "postcode": "9480104",
    "prefecture": "新潟県",
    "prefecture_kana": "ニイガタケン",
    "prefecture_code": 15,
    "city": "十日町市",
    "city_kana": "トオカマチシ",
    "town": "樽沢",
    "town_kana": "タルサワ",
    "street": null,
    "office_name": null,
    "office_name_kana": null
  },
  "0105": {
    "postcode": "9480105",
    "prefecture": "新潟県",
    "prefecture_kana": "ニイガタケン",
    "prefecture_code": 15,
    "city": "十日町市",
    "city_kana": "トオカマチシ",
    "town": "北鐙坂",
    "town_kana": "キタアブザカ",
    "street": null,
    "office_name": null,
    "office_name_kana": null
  },
  "0106": {
    "postcode": "9480106",
    "prefecture": "新潟県",
    "prefecture_kana": "ニイガタケン",
    "prefecture_code": 15,
    "city": "十日町市",
    "city_kana": "トオカマチシ",
    "town": "南鐙坂",
    "town_kana": "ミナミアブザカ",
    "street": null,
    "office_name": null,
    "office_name_kana": null
  },
  "0107": {
    "postcode": "9480107",
    "prefecture": "新潟県",
    "prefecture_kana": "ニイガタケン",
    "prefecture_code": 15,
    "city": "十日町市",
    "city_kana": "トオカマチシ",
    "town": "高島",
    "town_kana": "タカシマ",
    "street": null,
    "office_name": null,
    "office_name_kana": null
  },
  "0111": {
    "postcode": "9480111",
    "prefecture": "新潟県",
    "prefecture_kana": "ニイガタケン",
    "prefecture_code": 15,
    "city": "十日町市",
    "city_kana": "トオカマチシ",
    "town": "真田甲",
    "town_kana": "サナダコウ",
    "street": null,
    "office_name": null,
    "office_name_kana": null
  },
  "0112": {
    "postcode": "9480112",
    "prefecture": "新潟県",
    "prefecture_kana": "ニイガタケン",
    "prefecture_code": 15,
    "city": "十日町市",
    "city_kana": "トオカマチシ",
    "town": "真田乙",
    "town_kana": "サナダオツ",
    "street": null,
    "office_name": null,
    "office_name_kana": null
  },
  "0113": {
    "postcode": "9480113",
    "prefecture": "新潟県",
    "prefecture_kana": "ニイガタケン",
    "prefecture_code": 15,
    "city": "十日町市",
    "city_kana": "トオカマチシ",
    "town": "真田丁",
    "town_kana": "サナダテイ",
    "street": null,
    "office_name": null,
    "office_name_kana": null
  },
  "0114": {
    "postcode": "9480114",
    "prefecture": "新潟県",
    "prefecture_kana": "ニイガタケン",
    "prefecture_code": 15,
    "city": "十日町市",
    "city_kana": "トオカマチシ",
    "town": "真田丙",
    "town_kana": "サナダヘイ",
    "street": null,
    "office_name": null,
    "office_name_kana": null
  },
  "0121": {
    "postcode": "9480121",
    "prefecture": "新潟県",
    "prefecture_kana": "ニイガタケン",
    "prefecture_code": 15,
    "city": "十日町市",
    "city_kana": "トオカマチシ",
    "town": "新町新田",
    "town_kana": "アラマチシンデン",
    "street": null,
    "office_name": null,
    "office_name_kana": null
  },
  "0122": {
    "postcode": "9480122",
    "prefecture": "新潟県",
    "prefecture_kana": "ニイガタケン",
    "prefecture_code": 15,
    "city": "十日町市",
    "city_kana": "トオカマチシ",
    "town": "上野",
    "town_kana": "ウエノ",
    "street": null,
    "office_name": null,
    "office_name_kana": null
  },
  "0123": {
    "postcode": "9480123",
    "prefecture": "新潟県",
    "prefecture_kana": "ニイガタケン",
    "prefecture_code": 15,
    "city": "十日町市",
    "city_kana": "トオカマチシ",
    "town": "下平新田",
    "town_kana": "シタダイラシンデン",
    "street": null,
    "office_name": null,
    "office_name_kana": null
  },
  "0124": {
    "postcode": "9480124",
    "prefecture": "新潟県",
    "prefecture_kana": "ニイガタケン",
    "prefecture_code": 15,
    "city": "十日町市",
    "city_kana": "トオカマチシ",
    "town": "三領",
    "town_kana": "サンリョウ",
    "street": null,
    "office_name": null,
    "office_name_kana": null
  },
  "0125": {
    "postcode": "9480125",
    "prefecture": "新潟県",
    "prefecture_kana": "ニイガタケン",
    "prefecture_code": 15,
    "city": "十日町市",
    "city_kana": "トオカマチシ",
    "town": "小根岸",
    "town_kana": "コネギシ",
    "street": null,
    "office_name": null,
    "office_name_kana": null
  },
  "0131": {
    "postcode": "9480131",
    "prefecture": "新潟県",
    "prefecture_kana": "ニイガタケン",
    "prefecture_code": 15,
    "city": "十日町市",
    "city_kana": "トオカマチシ",
    "town": "伊勢平治",
    "town_kana": "イセヘイジ",
    "street": null,
    "office_name": null,
    "office_name_kana": null
  },
  "0132": {
    "postcode": "9480132",
    "prefecture": "新潟県",
    "prefecture_kana": "ニイガタケン",
    "prefecture_code": 15,
    "city": "十日町市",
    "city_kana": "トオカマチシ",
    "town": "友重",
    "town_kana": "トモシゲ",
    "street": null,
    "office_name": null,
    "office_name_kana": null
  },
  "0133": {
    "postcode": "9480133",
    "prefecture": "新潟県",
    "prefecture_kana": "ニイガタケン",
    "prefecture_code": 15,
    "city": "十日町市",
    "city_kana": "トオカマチシ",
    "town": "沖立",
    "town_kana": "オキダテ",
    "street": null,
    "office_name": null,
    "office_name_kana": null
  },
  "0134": {
    "postcode": "9480134",
    "prefecture": "新潟県",
    "prefecture_kana": "ニイガタケン",
    "prefecture_code": 15,
    "city": "十日町市",
    "city_kana": "トオカマチシ",
    "town": "上新井",
    "town_kana": "カミアライ",
    "street": null,
    "office_name": null,
    "office_name_kana": null
  },
  "0135": {
    "postcode": "9480135",
    "prefecture": "新潟県",
    "prefecture_kana": "ニイガタケン",
    "prefecture_code": 15,
    "city": "十日町市",
    "city_kana": "トオカマチシ",
    "town": "中屋敷",
    "town_kana": "ナカヤシキ",
    "street": null,
    "office_name": null,
    "office_name_kana": null
  },
  "0136": {
    "postcode": "9480136",
    "prefecture": "新潟県",
    "prefecture_kana": "ニイガタケン",
    "prefecture_code": 15,
    "city": "十日町市",
    "city_kana": "トオカマチシ",
    "town": "高原田",
    "town_kana": "タカハラダ",
    "street": null,
    "office_name": null,
    "office_name_kana": null
  },
  "0141": {
    "postcode": "9480141",
    "prefecture": "新潟県",
    "prefecture_kana": "ニイガタケン",
    "prefecture_code": 15,
    "city": "十日町市",
    "city_kana": "トオカマチシ",
    "town": "霜条",
    "town_kana": "シモジョウ",
    "street": null,
    "office_name": null,
    "office_name_kana": null
  },
  "0142": {
    "postcode": "9480142",
    "prefecture": "新潟県",
    "prefecture_kana": "ニイガタケン",
    "prefecture_code": 15,
    "city": "十日町市",
    "city_kana": "トオカマチシ",
    "town": "東善寺",
    "town_kana": "トウゼンジ",
    "street": null,
    "office_name": null,
    "office_name_kana": null
  },
  "0143": {
    "postcode": "9480143",
    "prefecture": "新潟県",
    "prefecture_kana": "ニイガタケン",
    "prefecture_code": 15,
    "city": "十日町市",
    "city_kana": "トオカマチシ",
    "town": "山野田",
    "town_kana": "ヤマノタ",
    "street": null,
    "office_name": null,
    "office_name_kana": null
  },
  "0144": {
    "postcode": "9480144",
    "prefecture": "新潟県",
    "prefecture_kana": "ニイガタケン",
    "prefecture_code": 15,
    "city": "十日町市",
    "city_kana": "トオカマチシ",
    "town": "水口沢",
    "town_kana": "ミナクチザワ",
    "street": null,
    "office_name": null,
    "office_name_kana": null
  },
  "0145": {
    "postcode": "9480145",
    "prefecture": "新潟県",
    "prefecture_kana": "ニイガタケン",
    "prefecture_code": 15,
    "city": "十日町市",
    "city_kana": "トオカマチシ",
    "town": "坪山",
    "town_kana": "ツボヤマ",
    "street": null,
    "office_name": null,
    "office_name_kana": null
  },
  "0146": {
    "postcode": "9480146",
    "prefecture": "新潟県",
    "prefecture_kana": "ニイガタケン",
    "prefecture_code": 15,
    "city": "十日町市",
    "city_kana": "トオカマチシ",
    "town": "鶴吉",
    "town_kana": "ツルヨシ",
    "street": null,
    "office_name": null,
    "office_name_kana": null
  },
  "0192": {
    "postcode": "9480192",
    "prefecture": "新潟県",
    "prefecture_kana": "ニイガタケン",
    "prefecture_code": 15,
    "city": "十日町市",
    "city_kana": "トオカマチシ",
    "town": "水口沢",
    "town_kana": "ミナクチザワ",
    "street": "１２",
    "office_name": "十日町市役所　川西支所",
    "office_name_kana": "トオカマチシヤクシヨ カワニシシシヨ"
  },
  "0211": {
    "postcode": "9480211",
    "prefecture": "新潟県",
    "prefecture_kana": "ニイガタケン",
    "prefecture_code": 15,
    "city": "十日町市",
    "city_kana": "トオカマチシ",
    "town": "大倉",
    "town_kana": "オオクラ",
    "street": null,
    "office_name": null,
    "office_name_kana": null
  },
  "0212": {
    "postcode": "9480212",
    "prefecture": "新潟県",
    "prefecture_kana": "ニイガタケン",
    "prefecture_code": 15,
    "city": "十日町市",
    "city_kana": "トオカマチシ",
    "town": "岩瀬",
    "town_kana": "イワセ",
    "street": null,
    "office_name": null,
    "office_name_kana": null
  },
  "0213": {
    "postcode": "9480213",
    "prefecture": "新潟県",
    "prefecture_kana": "ニイガタケン",
    "prefecture_code": 15,
    "city": "十日町市",
    "city_kana": "トオカマチシ",
    "town": "赤谷",
    "town_kana": "アカタニ",
    "street": null,
    "office_name": null,
    "office_name_kana": null
  },
  "0214": {
    "postcode": "9480214",
    "prefecture": "新潟県",
    "prefecture_kana": "ニイガタケン",
    "prefecture_code": 15,
    "city": "十日町市",
    "city_kana": "トオカマチシ",
    "town": "中仙田",
    "town_kana": "ナカセンダ",
    "street": null,
    "office_name": null,
    "office_name_kana": null
  },
  "0215": {
    "postcode": "9480215",
    "prefecture": "新潟県",
    "prefecture_kana": "ニイガタケン",
    "prefecture_code": 15,
    "city": "十日町市",
    "city_kana": "トオカマチシ",
    "town": "田戸",
    "town_kana": "タド",
    "street": null,
    "office_name": null,
    "office_name_kana": null
  },
  "0216": {
    "postcode": "9480216",
    "prefecture": "新潟県",
    "prefecture_kana": "ニイガタケン",
    "prefecture_code": 15,
    "city": "十日町市",
    "city_kana": "トオカマチシ",
    "town": "室島",
    "town_kana": "ムロジマ",
    "street": null,
    "office_name": null,
    "office_name_kana": null
  },
  "0217": {
    "postcode": "9480217",
    "prefecture": "新潟県",
    "prefecture_kana": "ニイガタケン",
    "prefecture_code": 15,
    "city": "十日町市",
    "city_kana": "トオカマチシ",
    "town": "高倉",
    "town_kana": "タカクラ",
    "street": null,
    "office_name": null,
    "office_name_kana": null
  },
  "0218": {
    "postcode": "9480218",
    "prefecture": "新潟県",
    "prefecture_kana": "ニイガタケン",
    "prefecture_code": 15,
    "city": "十日町市",
    "city_kana": "トオカマチシ",
    "town": "小脇",
    "town_kana": "コワキ",
    "street": null,
    "office_name": null,
    "office_name_kana": null
  },
  "0219": {
    "postcode": "9480219",
    "prefecture": "新潟県",
    "prefecture_kana": "ニイガタケン",
    "prefecture_code": 15,
    "city": "十日町市",
    "city_kana": "トオカマチシ",
    "town": "越ケ沢",
    "town_kana": "コシガサワ",
    "street": null,
    "office_name": null,
    "office_name_kana": null
  },
  "0301": {
    "postcode": "9480301",
    "prefecture": "新潟県",
    "prefecture_kana": "ニイガタケン",
    "prefecture_code": 15,
    "city": "十日町市",
    "city_kana": "トオカマチシ",
    "town": "野口",
    "town_kana": "ノグチ",
    "street": null,
    "office_name": null,
    "office_name_kana": null
  },
  "0302": {
    "postcode": "9480302",
    "prefecture": "新潟県",
    "prefecture_kana": "ニイガタケン",
    "prefecture_code": 15,
    "city": "十日町市",
    "city_kana": "トオカマチシ",
    "town": "仁田",
    "town_kana": "ニタ",
    "street": null,
    "office_name": null,
    "office_name_kana": null
  },
  "0303": {
    "postcode": "9480303",
    "prefecture": "新潟県",
    "prefecture_kana": "ニイガタケン",
    "prefecture_code": 15,
    "city": "十日町市",
    "city_kana": "トオカマチシ",
    "town": "寺ケ崎",
    "town_kana": "テラガサキ",
    "street": null,
    "office_name": null,
    "office_name_kana": null
  },
  "0304": {
    "postcode": "9480304",
    "prefecture": "新潟県",
    "prefecture_kana": "ニイガタケン",
    "prefecture_code": 15,
    "city": "十日町市",
    "city_kana": "トオカマチシ",
    "town": "木落",
    "town_kana": "キオトシ",
    "street": null,
    "office_name": null,
    "office_name_kana": null
  },
  "0305": {
    "postcode": "9480305",
    "prefecture": "新潟県",
    "prefecture_kana": "ニイガタケン",
    "prefecture_code": 15,
    "city": "十日町市",
    "city_kana": "トオカマチシ",
    "town": "大白倉",
    "town_kana": "オオジラクラ",
    "street": null,
    "office_name": null,
    "office_name_kana": null
  },
  "0306": {
    "postcode": "9480306",
    "prefecture": "新潟県",
    "prefecture_kana": "ニイガタケン",
    "prefecture_code": 15,
    "city": "十日町市",
    "city_kana": "トオカマチシ",
    "town": "小白倉",
    "town_kana": "コジラクラ",
    "street": null,
    "office_name": null,
    "office_name_kana": null
  },
  "8501": {
    "postcode": "9488501",
    "prefecture": "新潟県",
    "prefecture_kana": "ニイガタケン",
    "prefecture_code": 15,
    "city": "十日町市",
    "city_kana": "トオカマチシ",
    "town": "千歳町",
    "town_kana": "チトセチョウ",
    "street": "３丁目３番地",
    "office_name": "十日町市役所",
    "office_name_kana": "トオカマチシヤクシヨ"
  },
  "8502": {
    "postcode": "9488502",
    "prefecture": "新潟県",
    "prefecture_kana": "ニイガタケン",
    "prefecture_code": 15,
    "city": "十日町市",
    "city_kana": "トオカマチシ",
    "town": "宮田町",
    "town_kana": null,
    "street": "１−１８",
    "office_name": "十日町税務署",
    "office_name_kana": "トオカマチゼイムシヨ"
  },
  "8503": {
    "postcode": "9488503",
    "prefecture": "新潟県",
    "prefecture_kana": "ニイガタケン",
    "prefecture_code": 15,
    "city": "十日町市",
    "city_kana": "トオカマチシ",
    "town": "大字山本",
    "town_kana": null,
    "street": "８７３",
    "office_name": "株式会社　関芳",
    "office_name_kana": "カブシキガイシヤ セキヨシ"
  },
  "8504": {
    "postcode": "9488504",
    "prefecture": "新潟県",
    "prefecture_kana": "ニイガタケン",
    "prefecture_code": 15,
    "city": "十日町市",
    "city_kana": "トオカマチシ",
    "town": "本町",
    "town_kana": "ホンチョウ",
    "street": "一丁目上１番地５",
    "office_name": "東北電力ネットワーク　株式会社　十日町電力センター",
    "office_name_kana": "トウホクデンリヨクネツトワ-ク カブシキガイシヤ トオカマチデンリヨクセンタ-"
  },
  "8602": {
    "postcode": "9488602",
    "prefecture": "新潟県",
    "prefecture_kana": "ニイガタケン",
    "prefecture_code": 15,
    "city": "十日町市",
    "city_kana": "トオカマチシ",
    "town": "駅通り",
    "town_kana": "エキドオリ",
    "street": "２０番地",
    "office_name": "株式会社　新川屋",
    "office_name_kana": "カブシキガイシヤ シンカワヤ"
  }
}