{
  "8001": {
    "postcode": "9518001",
    "prefecture": "新潟県",
    "prefecture_kana": "ニイガタケン",
    "prefecture_code": 15,
    "city": "新潟市中央区",
    "city_kana": "ニイガタシチュウオウク",
    "town": "海辺町",
    "town_kana": "ウミベチョウ",
    "street": null,
    "office_name": null,
    "office_name_kana": null
  },
  "8002": {
    "postcode": "9518002",
    "prefecture": "新潟県",
    "prefecture_kana": "ニイガタケン",
    "prefecture_code": 15,
    "city": "新潟市中央区",
    "city_kana": "ニイガタシチュウオウク",
    "town": "船見町",
    "town_kana": "フナミチョウ",
    "street": null,
    "office_name": null,
    "office_name_kana": null
  },
  "8003": {
    "postcode": "9518003",
    "prefecture": "新潟県",
    "prefecture_kana": "ニイガタケン",
    "prefecture_code": 15,
    "city": "新潟市中央区",
    "city_kana": "ニイガタシチュウオウク",
    "town": "雲雀町",
    "town_kana": "ヒバリチョウ",
    "street": null,
    "office_name": null,
    "office_name_kana": null
  },
  "8004": {
    "postcode": "9518004",
    "prefecture": "新潟県",
    "prefecture_kana": "ニイガタケン",
    "prefecture_code": 15,
    "city": "新潟市中央区",
    "city_kana": "ニイガタシチュウオウク",
    "town": "山田町",
    "town_kana": "ヤマダマチ",
    "street": null,
    "office_name": null,
    "office_name_kana": null
  },
  "8005": {
    "postcode": "9518005",
    "prefecture": "新潟県",
    "prefecture_kana": "ニイガタケン",
    "prefecture_code": 15,
    "city": "新潟市中央区",
    "city_kana": "ニイガタシチュウオウク",
    "town": "室町",
    "town_kana": "ムロマチ",
    "street": null,
    "office_name": null,
    "office_name_kana": null
  },
  "8006": {
    "postcode": "9518006",
    "prefecture": "新潟県",
    "prefecture_kana": "ニイガタケン",
    "prefecture_code": 15,
    "city": "新潟市中央区",
    "city_kana": "ニイガタシチュウオウク",
    "town": "附船町",
    "town_kana": "ツケフネチョウ",
    "street": null,
    "office_name": null,
    "office_name_kana": null
  },
  "8007": {
    "postcode": "9518007",
    "prefecture": "新潟県",
    "prefecture_kana": "ニイガタケン",
    "prefecture_code": 15,
    "city": "新潟市中央区",
    "city_kana": "ニイガタシチュウオウク",
    "town": "忠蔵町",
    "town_kana": "チュウゾウマチ",
    "street": null,
    "office_name": null,
    "office_name_kana": null
  },
  "8008": {
    "postcode": "9518008",
    "prefecture": "新潟県",
    "prefecture_kana": "ニイガタケン",
    "prefecture_code": 15,
    "city": "新潟市中央区",
    "city_kana": "ニイガタシチュウオウク",
    "town": "窪田町",
    "town_kana": "クボタマチ",
    "street": null,
    "office_name": null,
    "office_name_kana": null
  },
  "8011": {
    "postcode": "9518011",
    "prefecture": "新潟県",
    "prefecture_kana": "ニイガタケン",
    "prefecture_code": 15,
    "city": "新潟市中央区",
    "city_kana": "ニイガタシチュウオウク",
    "town": "入船町",
    "town_kana": "イリフネチョウ",
    "street": null,
    "office_name": null,
    "office_name_kana": null
  },
  "8012": {
    "postcode": "9518012",
    "prefecture": "新潟県",
    "prefecture_kana": "ニイガタケン",
    "prefecture_code": 15,
    "city": "新潟市中央区",
    "city_kana": "ニイガタシチュウオウク",
    "town": "東入船町",
    "town_kana": "ヒガシイリフネチョウ",
    "street": null,
    "office_name": null,
    "office_name_kana": null
  },
  "8013": {
    "postcode": "9518013",
    "prefecture": "新潟県",
    "prefecture_kana": "ニイガタケン",
    "prefecture_code": 15,
    "city": "新潟市中央区",
    "city_kana": "ニイガタシチュウオウク",
    "town": "柳島町",
    "town_kana": "ヤナギシマチョウ",
    "street": null,
    "office_name": null,
    "office_name_kana": null
  },
  "8014": {
    "postcode": "9518014",
    "prefecture": "新潟県",
    "prefecture_kana": "ニイガタケン",
    "prefecture_code": 15,
    "city": "新潟市中央区",
    "city_kana": "ニイガタシチュウオウク",
    "town": "緑町",
    "town_kana": "ミドリマチ",
    "street": null,
    "office_name": null,
    "office_name_kana": null
  },
  "8015": {
    "postcode": "9518015",
    "prefecture": "新潟県",
    "prefecture_kana": "ニイガタケン",
    "prefecture_code": 15,
    "city": "新潟市中央区",
    "city_kana": "ニイガタシチュウオウク",
    "town": "松岡町",
    "town_kana": "マツオカチョウ",
    "street": null,
    "office_name": null,
    "office_name_kana": null
  },
  "8016": {
    "postcode": "9518016",
    "prefecture": "新潟県",
    "prefecture_kana": "ニイガタケン",
    "prefecture_code": 15,
    "city": "新潟市中央区",
    "city_kana": "ニイガタシチュウオウク",
    "town": "田町",
    "town_kana": "タマチ",
    "street": null,
    "office_name": null,
    "office_name_kana": null
  },
  "8017": {
    "postcode": "9518017",
    "prefecture": "新潟県",
    "prefecture_kana": "ニイガタケン",
    "prefecture_code": 15,
    "city": "新潟市中央区",
    "city_kana": "ニイガタシチュウオウク",
    "town": "艀川岸町",
    "town_kana": "ハシケカワギシチョウ",
    "street": null,
    "office_name": null,
    "office_name_kana": null
  },
  "8018": {
    "postcode": "9518018",
    "prefecture": "新潟県",
    "prefecture_kana": "ニイガタケン",
    "prefecture_code": 15,
    "city": "新潟市中央区",
    "city_kana": "ニイガタシチュウオウク",
    "town": "稲荷町",
    "town_kana": "イナリマチ",
    "street": null,
    "office_name": null,
    "office_name_kana": null
  },
  "8021": {
    "postcode": "9518021",
    "prefecture": "新潟県",
    "prefecture_kana": "ニイガタケン",
    "prefecture_code": 15,
    "city": "新潟市中央区",
    "city_kana": "ニイガタシチュウオウク",
    "town": "曙町",
    "town_kana": "アケボノチョウ",
    "street": null,
    "office_name": null,
    "office_name_kana": null
  },
  "8022": {
    "postcode": "9518022",
    "prefecture": "新潟県",
    "prefecture_kana": "ニイガタケン",
    "prefecture_code": 15,
    "city": "新潟市中央区",
    "city_kana": "ニイガタシチュウオウク",
    "town": "横六番町",
    "town_kana": "ヨコロクバンチョウ",
    "street": null,
    "office_name": null,
    "office_name_kana": null
  },
  "8023": {
    "postcode": "9518023",
    "prefecture": "新潟県",
    "prefecture_kana": "ニイガタケン",
    "prefecture_code": 15,
    "city": "新潟市中央区",
    "city_kana": "ニイガタシチュウオウク",
    "town": "夕栄町",
    "town_kana": "ユウエイチョウ",
    "street": null,
    "office_name": null,
    "office_name_kana": null
  },
  "8024": {
    "postcode": "9518024",
    "prefecture": "新潟県",
    "prefecture_kana": "ニイガタケン",
    "prefecture_code": 15,
    "city": "新潟市中央区",
    "city_kana": "ニイガタシチュウオウク",
    "town": "早川町",
    "town_kana": "ハヤカワチョウ",
    "street": null,
    "office_name": null,
    "office_name_kana": null
  },
  "8025": {
    "postcode": "9518025",
    "prefecture": "新潟県",
    "prefecture_kana": "ニイガタケン",
    "prefecture_code": 15,
    "city": "新潟市中央区",
    "city_kana": "ニイガタシチュウオウク",
    "town": "赤坂町",
    "town_kana": "アカサカチョウ",
    "street": null,
    "office_name": null,
    "office_name_kana": null
  },
  "8026": {
    "postcode": "9518026",
    "prefecture": "新潟県",
    "prefecture_kana": "ニイガタケン",
    "prefecture_code": 15,
    "city": "新潟市中央区",
    "city_kana": "ニイガタシチュウオウク",
    "town": "西湊町通",
    "town_kana": "ニシミナトマチドオリ",
    "street": null,
    "office_name": null,
    "office_name_kana": null
  },
  "8027": {
    "postcode": "9518027",
    "prefecture": "新潟県",
    "prefecture_kana": "ニイガタケン",
    "prefecture_code": 15,
    "city": "新潟市中央区",
    "city_kana": "ニイガタシチュウオウク",
    "town": "湊町通",
    "town_kana": "ミナトマチドオリ",
    "street": null,
    "office_name": null,
    "office_name_kana": null
  },
  "8028": {
    "postcode": "9518028",
    "prefecture": "新潟県",
    "prefecture_kana": "ニイガタケン",
    "prefecture_code": 15,
    "city": "新潟市中央区",
    "city_kana": "ニイガタシチュウオウク",
    "town": "東湊町通",
    "town_kana": "ヒガシミナトマチドオリ",
    "street": null,
    "office_name": null,
    "office_name_kana": null
  },
  "8031": {
    "postcode": "9518031",
    "prefecture": "新潟県",
    "prefecture_kana": "ニイガタケン",
    "prefecture_code": 15,
    "city": "新潟市中央区",
    "city_kana": "ニイガタシチュウオウク",
    "town": "北毘沙門町",
    "town_kana": "キタビシャモンチョウ",
    "street": null,
    "office_name": null,
    "office_name_kana": null
  },
  "8032": {
    "postcode": "9518032",
    "prefecture": "新潟県",
    "prefecture_kana": "ニイガタケン",
    "prefecture_code": 15,
    "city": "新潟市中央区",
    "city_kana": "ニイガタシチュウオウク",
    "town": "見方町",
    "town_kana": "ミカタチョウ",
    "street": null,
    "office_name": null,
    "office_name_kana": null
  },
  "8033": {
    "postcode": "9518033",
    "prefecture": "新潟県",
    "prefecture_kana": "ニイガタケン",
    "prefecture_code": 15,
    "city": "新潟市中央区",
    "city_kana": "ニイガタシチュウオウク",
    "town": "豊照町",
    "town_kana": "トヨテルチョウ",
    "street": null,
    "office_name": null,
    "office_name_kana": null
  },
  "8034": {
    "postcode": "9518034",
    "prefecture": "新潟県",
    "prefecture_kana": "ニイガタケン",
    "prefecture_code": 15,
    "city": "新潟市中央区",
    "city_kana": "ニイガタシチュウオウク",
    "town": "魁町",
    "town_kana": "サキガケチョウ",
    "street": null,
    "office_name": null,
    "office_name_kana": null
  },
  "8035": {
    "postcode": "9518035",
    "prefecture": "新潟県",
    "prefecture_kana": "ニイガタケン",
    "prefecture_code": 15,
    "city": "新潟市中央区",
    "city_kana": "ニイガタシチュウオウク",
    "town": "船場町",
    "town_kana": "フナバチョウ",
    "street": null,
    "office_name": null,
    "office_name_kana": null
  },
  "8036": {
    "postcode": "9518036",
    "prefecture": "新潟県",
    "prefecture_kana": "ニイガタケン",
    "prefecture_code": 15,
    "city": "新潟市中央区",
    "city_kana": "ニイガタシチュウオウク",
    "town": "芳町",
    "town_kana": "ヨシチョウ",
    "street": null,
    "office_name": null,
    "office_name_kana": null
  },
  "8037": {
    "postcode": "9518037",
    "prefecture": "新潟県",
    "prefecture_kana": "ニイガタケン",
    "prefecture_code": 15,
    "city": "新潟市中央区",
    "city_kana": "ニイガタシチュウオウク",
    "town": "相生町",
    "town_kana": "アイオイチョウ",
    "street": null,
    "office_name": null,
    "office_name_kana": null
  },
  "8038": {
    "postcode": "9518038",
    "prefecture": "新潟県",
    "prefecture_kana": "ニイガタケン",
    "prefecture_code": 15,
    "city": "新潟市中央区",
    "city_kana": "ニイガタシチュウオウク",
    "town": "南毘沙門町",
    "town_kana": "ミナミビシャモンチョウ",
    "street": null,
    "office_name": null,
    "office_name_kana": null
  },
  "8041": {
    "postcode": "9518041",
    "prefecture": "新潟県",
    "prefecture_kana": "ニイガタケン",
    "prefecture_code": 15,
    "city": "新潟市中央区",
    "city_kana": "ニイガタシチュウオウク",
    "town": "本間町",
    "town_kana": "ホンマチョウ",
    "street": null,
    "office_name": null,
    "office_name_kana": null
  },
  "8042": {
    "postcode": "9518042",
    "prefecture": "新潟県",
    "prefecture_kana": "ニイガタケン",
    "prefecture_code": 15,
    "city": "新潟市中央区",
    "city_kana": "ニイガタシチュウオウク",
    "town": "住吉町",
    "town_kana": "スミヨシチョウ",
    "street": null,
    "office_name": null,
    "office_name_kana": null
  },
  "8043": {
    "postcode": "9518043",
    "prefecture": "新潟県",
    "prefecture_kana": "ニイガタケン",
    "prefecture_code": 15,
    "city": "新潟市中央区",
    "city_kana": "ニイガタシチュウオウク",
    "town": "西厩島町",
    "town_kana": "ニシウマヤジマチョウ",
    "street": null,
    "office_name": null,
    "office_name_kana": null
  },
  "8044": {
    "postcode": "9518044",
    "prefecture": "新潟県",
    "prefecture_kana": "ニイガタケン",
    "prefecture_code": 15,
    "city": "新潟市中央区",
    "city_kana": "ニイガタシチュウオウク",
    "town": "東厩島町",
    "town_kana": "ヒガシウマヤジマチョウ",
    "street": null,
    "office_name": null,
    "office_name_kana": null
  },
  "8045": {
    "postcode": "9518045",
    "prefecture": "新潟県",
    "prefecture_kana": "ニイガタケン",
    "prefecture_code": 15,
    "city": "新潟市中央区",
    "city_kana": "ニイガタシチュウオウク",
    "town": "並木町",
    "town_kana": "ナミキチョウ",
    "street": null,
    "office_name": null,
    "office_name_kana": null
  },
  "8046": {
    "postcode": "9518046",
    "prefecture": "新潟県",
    "prefecture_kana": "ニイガタケン",
    "prefecture_code": 15,
    "city": "新潟市中央区",
    "city_kana": "ニイガタシチュウオウク",
    "town": "秣川岸通",
    "town_kana": "マグサカワギシドオリ",
    "street": null,
    "office_name": null,
    "office_name_kana": null
  },
  "8047": {
    "postcode": "9518047",
    "prefecture": "新潟県",
    "prefecture_kana": "ニイガタケン",
    "prefecture_code": 15,
    "city": "新潟市中央区",
    "city_kana": "ニイガタシチュウオウク",
    "town": "南多門町",
    "town_kana": "ミナミタモンチョウ",
    "street": null,
    "office_name": null,
    "office_name_kana": null
  },
  "8048": {
    "postcode": "9518048",
    "prefecture": "新潟県",
    "prefecture_kana": "ニイガタケン",
    "prefecture_code": 15,
    "city": "新潟市中央区",
    "city_kana": "ニイガタシチュウオウク",
    "town": "北多門町",
    "town_kana": "キタタモンチョウ",
    "street": null,
    "office_name": null,
    "office_name_kana": null
  },
  "8051": {
    "postcode": "9518051",
    "prefecture": "新潟県",
    "prefecture_kana": "ニイガタケン",
    "prefecture_code": 15,
    "city": "新潟市中央区",
    "city_kana": "ニイガタシチュウオウク",
    "town": "新島町通",
    "town_kana": "シンシマチョウドオリ",
    "street": null,
    "office_name": null,
    "office_name_kana": null
  },
  "8052": {
    "postcode": "9518052",
    "prefecture": "新潟県",
    "prefecture_kana": "ニイガタケン",
    "prefecture_code": 15,
    "city": "新潟市中央区",
    "city_kana": "ニイガタシチュウオウク",
    "town": "下大川前通",
    "town_kana": "シモオオカワマエドオリ",
    "street": null,
    "office_name": null,
    "office_name_kana": null
  },
  "8053": {
    "postcode": "9518053",
    "prefecture": "新潟県",
    "prefecture_kana": "ニイガタケン",
    "prefecture_code": 15,
    "city": "新潟市中央区",
    "city_kana": "ニイガタシチュウオウク",
    "town": "川端町",
    "town_kana": "カワバタチョウ",
    "street": null,
    "office_name": null,
    "office_name_kana": null
  },
  "8054": {
    "postcode": "9518054",
    "prefecture": "新潟県",
    "prefecture_kana": "ニイガタケン",
    "prefecture_code": 15,
    "city": "新潟市中央区",
    "city_kana": "ニイガタシチュウオウク",
    "town": "礎町通上一ノ町",
    "town_kana": "イシズエチョウドオリカミイチノチョウ",
    "street": null,
    "office_name": null,
    "office_name_kana": null
  },
  "8055": {
    "postcode": "9518055",
    "prefecture": "新潟県",
    "prefecture_kana": "ニイガタケン",
    "prefecture_code": 15,
    "city": "新潟市中央区",
    "city_kana": "ニイガタシチュウオウク",
    "town": "礎町通",
    "town_kana": "イシズエチョウドオリ",
    "street": null,
    "office_name": null,
    "office_name_kana": null
  },
  "8056": {
    "postcode": "9518056",
    "prefecture": "新潟県",
    "prefecture_kana": "ニイガタケン",
    "prefecture_code": 15,
    "city": "新潟市中央区",
    "city_kana": "ニイガタシチュウオウク",
    "town": "花町",
    "town_kana": "ハナチョウ",
    "street": null,
    "office_name": null,
    "office_name_kana": null
  },
  "8057": {
    "postcode": "9518057",
    "prefecture": "新潟県",
    "prefecture_kana": "ニイガタケン",
    "prefecture_code": 15,
    "city": "新潟市中央区",
    "city_kana": "ニイガタシチュウオウク",
    "town": "月町",
    "town_kana": "ツキチョウ",
    "street": null,
    "office_name": null,
    "office_name_kana": null
  },
  "8058": {
    "postcode": "9518058",
    "prefecture": "新潟県",
    "prefecture_kana": "ニイガタケン",
    "prefecture_code": 15,
    "city": "新潟市中央区",
    "city_kana": "ニイガタシチュウオウク",
    "town": "雪町",
    "town_kana": "ユキチョウ",
    "street": null,
    "office_name": null,
    "office_name_kana": null
  },
  "8061": {
    "postcode": "9518061",
    "prefecture": "新潟県",
    "prefecture_kana": "ニイガタケン",
    "prefecture_code": 15,
    "city": "新潟市中央区",
    "city_kana": "ニイガタシチュウオウク",
    "town": "西堀通",
    "town_kana": "ニシボリドオリ",
    "street": null,
    "office_name": null,
    "office_name_kana": null
  },
  "8062": {
    "postcode": "9518062",
    "prefecture": "新潟県",
    "prefecture_kana": "ニイガタケン",
    "prefecture_code": 15,
    "city": "新潟市中央区",
    "city_kana": "ニイガタシチュウオウク",
    "town": "西堀前通",
    "town_kana": "ニシボリマエドオリ",
    "street": null,
    "office_name": null,
    "office_name_kana": null
  },
  "8063": {
    "postcode": "9518063",
    "prefecture": "新潟県",
    "prefecture_kana": "ニイガタケン",
    "prefecture_code": 15,
    "city": "新潟市中央区",
    "city_kana": "ニイガタシチュウオウク",
    "town": "古町通",
    "town_kana": "フルマチドオリ",
    "street": null,
    "office_name": null,
    "office_name_kana": null
  },
  "8064": {
    "postcode": "9518064",
    "prefecture": "新潟県",
    "prefecture_kana": "ニイガタケン",
    "prefecture_code": 15,
    "city": "新潟市中央区",
    "city_kana": "ニイガタシチュウオウク",
    "town": "横一番町",
    "town_kana": "ヨコイチバンチョウ",
    "street": null,
    "office_name": null,
    "office_name_kana": null
  },
  "8065": {
    "postcode": "9518065",
    "prefecture": "新潟県",
    "prefecture_kana": "ニイガタケン",
    "prefecture_code": 15,
    "city": "新潟市中央区",
    "city_kana": "ニイガタシチュウオウク",
    "town": "東堀通",
    "town_kana": "ヒガシボリドオリ",
    "street": null,
    "office_name": null,
    "office_name_kana": null
  },
  "8066": {
    "postcode": "9518066",
    "prefecture": "新潟県",
    "prefecture_kana": "ニイガタケン",
    "prefecture_code": 15,
    "city": "新潟市中央区",
    "city_kana": "ニイガタシチュウオウク",
    "town": "東堀前通",
    "town_kana": "ヒガシボリマエドオリ",
    "street": null,
    "office_name": null,
    "office_name_kana": null
  },
  "8067": {
    "postcode": "9518067",
    "prefecture": "新潟県",
    "prefecture_kana": "ニイガタケン",
    "prefecture_code": 15,
    "city": "新潟市中央区",
    "city_kana": "ニイガタシチュウオウク",
    "town": "本町通",
    "town_kana": "ホンチョウドオリ",
    "street": null,
    "office_name": null,
    "office_name_kana": null
  },
  "8068": {
    "postcode": "9518068",
    "prefecture": "新潟県",
    "prefecture_kana": "ニイガタケン",
    "prefecture_code": 15,
    "city": "新潟市中央区",
    "city_kana": "ニイガタシチュウオウク",
    "town": "上大川前通",
    "town_kana": "カミオオカワマエドオリ",
    "street": null,
    "office_name": null,
    "office_name_kana": null
  },
  "8071": {
    "postcode": "9518071",
    "prefecture": "新潟県",
    "prefecture_kana": "ニイガタケン",
    "prefecture_code": 15,
    "city": "新潟市中央区",
    "city_kana": "ニイガタシチュウオウク",
    "town": "栄町",
    "town_kana": "サカエマチ",
    "street": null,
    "office_name": null,
    "office_name_kana": null
  },
  "8072": {
    "postcode": "9518072",
    "prefecture": "新潟県",
    "prefecture_kana": "ニイガタケン",
    "prefecture_code": 15,
    "city": "新潟市中央区",
    "city_kana": "ニイガタシチュウオウク",
    "town": "浮洲町",
    "town_kana": "ウキスチョウ",
    "street": null,
    "office_name": null,
    "office_name_kana": null
  },
  "8073": {
    "postcode": "9518073",
    "prefecture": "新潟県",
    "prefecture_kana": "ニイガタケン",
    "prefecture_code": 15,
    "city": "新潟市中央区",
    "city_kana": "ニイガタシチュウオウク",
    "town": "寿町",
    "town_kana": "コトブキチョウ",
    "street": null,
    "office_name": null,
    "office_name_kana": null
  },
  "8074": {
    "postcode": "9518074",
    "prefecture": "新潟県",
    "prefecture_kana": "ニイガタケン",
    "prefecture_code": 15,
    "city": "新潟市中央区",
    "city_kana": "ニイガタシチュウオウク",
    "town": "祝町",
    "town_kana": "イワイマチ",
    "street": null,
    "office_name": null,
    "office_name_kana": null
  },
  "8075": {
    "postcode": "9518075",
    "prefecture": "新潟県",
    "prefecture_kana": "ニイガタケン",
    "prefecture_code": 15,
    "city": "新潟市中央区",
    "city_kana": "ニイガタシチュウオウク",
    "town": "元祝町",
    "town_kana": "モトイワイマチ",
    "street": null,
    "office_name": null,
    "office_name_kana": null
  },
  "8076": {
    "postcode": "9518076",
    "prefecture": "新潟県",
    "prefecture_kana": "ニイガタケン",
    "prefecture_code": 15,
    "city": "新潟市中央区",
    "city_kana": "ニイガタシチュウオウク",
    "town": "翁町",
    "town_kana": "オキナマチ",
    "street": null,
    "office_name": null,
    "office_name_kana": null
  },
  "8077": {
    "postcode": "9518077",
    "prefecture": "新潟県",
    "prefecture_kana": "ニイガタケン",
    "prefecture_code": 15,
    "city": "新潟市中央区",
    "city_kana": "ニイガタシチュウオウク",
    "town": "烏帽子町",
    "town_kana": "エボシチョウ",
    "street": null,
    "office_name": null,
    "office_name_kana": null
  },
  "8078": {
    "postcode": "9518078",
    "prefecture": "新潟県",
    "prefecture_kana": "ニイガタケン",
    "prefecture_code": 15,
    "city": "新潟市中央区",
    "city_kana": "ニイガタシチュウオウク",
    "town": "四ツ屋町",
    "town_kana": "ヨツヤチョウ",
    "street": null,
    "office_name": null,
    "office_name_kana": null
  },
  "8081": {
    "postcode": "9518081",
    "prefecture": "新潟県",
    "prefecture_kana": "ニイガタケン",
    "prefecture_code": 15,
    "city": "新潟市中央区",
    "city_kana": "ニイガタシチュウオウク",
    "town": "寄附町",
    "town_kana": "キフチョウ",
    "street": null,
    "office_name": null,
    "office_name_kana": null
  },
  "8082": {
    "postcode": "9518082",
    "prefecture": "新潟県",
    "prefecture_kana": "ニイガタケン",
    "prefecture_code": 15,
    "city": "新潟市中央区",
    "city_kana": "ニイガタシチュウオウク",
    "town": "西受地町",
    "town_kana": "ニシウケチマチ",
    "street": null,
    "office_name": null,
    "office_name_kana": null
  },
  "8083": {
    "postcode": "9518083",
    "prefecture": "新潟県",
    "prefecture_kana": "ニイガタケン",
    "prefecture_code": 15,
    "city": "新潟市中央区",
    "city_kana": "ニイガタシチュウオウク",
    "town": "横七番町通",
    "town_kana": "ヨコシチバンチョウドオリ",
    "street": null,
    "office_name": null,
    "office_name_kana": null
  },
  "8084": {
    "postcode": "9518084",
    "prefecture": "新潟県",
    "prefecture_kana": "ニイガタケン",
    "prefecture_code": 15,
    "city": "新潟市中央区",
    "city_kana": "ニイガタシチュウオウク",
    "town": "元下島町",
    "town_kana": "モトシモシマチョウ",
    "street": null,
    "office_name": null,
    "office_name_kana": null
  },
  "8085": {
    "postcode": "9518085",
    "prefecture": "新潟県",
    "prefecture_kana": "ニイガタケン",
    "prefecture_code": 15,
    "city": "新潟市中央区",
    "city_kana": "ニイガタシチュウオウク",
    "town": "寺山町",
    "town_kana": "テラヤマチョウ",
    "street": null,
    "office_name": null,
    "office_name_kana": null
  },
  "8086": {
    "postcode": "9518086",
    "prefecture": "新潟県",
    "prefecture_kana": "ニイガタケン",
    "prefecture_code": 15,
    "city": "新潟市中央区",
    "city_kana": "ニイガタシチュウオウク",
    "town": "寄合町",
    "town_kana": "ヨリアイチョウ",
    "street": null,
    "office_name": null,
    "office_name_kana": null
  },
  "8087": {
    "postcode": "9518087",
    "prefecture": "新潟県",
    "prefecture_kana": "ニイガタケン",
    "prefecture_code": 15,
    "city": "新潟市中央区",
    "city_kana": "ニイガタシチュウオウク",
    "town": "東受地町",
    "town_kana": "ヒガシウケチマチ",
    "street": null,
    "office_name": null,
    "office_name_kana": null
  },
  "8088": {
    "postcode": "9518088",
    "prefecture": "新潟県",
    "prefecture_kana": "ニイガタケン",
    "prefecture_code": 15,
    "city": "新潟市中央区",
    "city_kana": "ニイガタシチュウオウク",
    "town": "菅根町",
    "town_kana": "スガネチョウ",
    "street": null,
    "office_name": null,
    "office_name_kana": null
  },
  "8101": {
    "postcode": "9518101",
    "prefecture": "新潟県",
    "prefecture_kana": "ニイガタケン",
    "prefecture_code": 15,
    "city": "新潟市中央区",
    "city_kana": "ニイガタシチュウオウク",
    "town": "西船見町",
    "town_kana": "ニシフナミチョウ",
    "street": null,
    "office_name": null,
    "office_name_kana": null
  },
  "8102": {
    "postcode": "9518102",
    "prefecture": "新潟県",
    "prefecture_kana": "ニイガタケン",
    "prefecture_code": 15,
    "city": "新潟市中央区",
    "city_kana": "ニイガタシチュウオウク",
    "town": "二葉町",
    "town_kana": "フタバチョウ",
    "street": null,
    "office_name": null,
    "office_name_kana": null
  },
  "8103": {
    "postcode": "9518103",
    "prefecture": "新潟県",
    "prefecture_kana": "ニイガタケン",
    "prefecture_code": 15,
    "city": "新潟市中央区",
    "city_kana": "ニイガタシチュウオウク",
    "town": "田中町",
    "town_kana": "タナカマチ",
    "street": null,
    "office_name": null,
    "office_name_kana": null
  },
  "8104": {
    "postcode": "9518104",
    "prefecture": "新潟県",
    "prefecture_kana": "ニイガタケン",
    "prefecture_code": 15,
    "city": "新潟市中央区",
    "city_kana": "ニイガタシチュウオウク",
    "town": "西大畑町",
    "town_kana": "ニシオオハタチョウ",
    "street": null,
    "office_name": null,
    "office_name_kana": null
  },
  "8105": {
    "postcode": "9518105",
    "prefecture": "新潟県",
    "prefecture_kana": "ニイガタケン",
    "prefecture_code": 15,
    "city": "新潟市中央区",
    "city_kana": "ニイガタシチュウオウク",
    "town": "北大畑町",
    "town_kana": "キタオオハタチョウ",
    "street": null,
    "office_name": null,
    "office_name_kana": null
  },
  "8106": {
    "postcode": "9518106",
    "prefecture": "新潟県",
    "prefecture_kana": "ニイガタケン",
    "prefecture_code": 15,
    "city": "新潟市中央区",
    "city_kana": "ニイガタシチュウオウク",
    "town": "東大畑通",
    "town_kana": "ヒガシオオハタドオリ",
    "street": null,
    "office_name": null,
    "office_name_kana": null
  },
  "8107": {
    "postcode": "9518107",
    "prefecture": "新潟県",
    "prefecture_kana": "ニイガタケン",
    "prefecture_code": 15,
    "city": "新潟市中央区",
    "city_kana": "ニイガタシチュウオウク",
    "town": "南大畑町",
    "town_kana": "ミナミオオハタチョウ",
    "street": null,
    "office_name": null,
    "office_name_kana": null
  },
  "8108": {
    "postcode": "9518108",
    "prefecture": "新潟県",
    "prefecture_kana": "ニイガタケン",
    "prefecture_code": 15,
    "city": "新潟市中央区",
    "city_kana": "ニイガタシチュウオウク",
    "town": "中大畑町",
    "town_kana": "ナカオオハタチョウ",
    "street": null,
    "office_name": null,
    "office_name_kana": null
  },
  "8111": {
    "postcode": "9518111",
    "prefecture": "新潟県",
    "prefecture_kana": "ニイガタケン",
    "prefecture_code": 15,
    "city": "新潟市中央区",
    "city_kana": "ニイガタシチュウオウク",
    "town": "北浜通",
    "town_kana": "キタハマドオリ",
    "street": null,
    "office_name": null,
    "office_name_kana": null
  },
  "8112": {
    "postcode": "9518112",
    "prefecture": "新潟県",
    "prefecture_kana": "ニイガタケン",
    "prefecture_code": 15,
    "city": "新潟市中央区",
    "city_kana": "ニイガタシチュウオウク",
    "town": "南浜通",
    "town_kana": "ミナミハマドオリ",
    "street": null,
    "office_name": null,
    "office_name_kana": null
  },
  "8113": {
    "postcode": "9518113",
    "prefecture": "新潟県",
    "prefecture_kana": "ニイガタケン",
    "prefecture_code": 15,
    "city": "新潟市中央区",
    "city_kana": "ニイガタシチュウオウク",
    "town": "寄居町",
    "town_kana": "ヨリイチョウ",
    "street": null,
    "office_name": null,
    "office_name_kana": null
  },
  "8114": {
    "postcode": "9518114",
    "prefecture": "新潟県",
    "prefecture_kana": "ニイガタケン",
    "prefecture_code": 15,
    "city": "新潟市中央区",
    "city_kana": "ニイガタシチュウオウク",
    "town": "営所通",
    "town_kana": "エイショドオリ",
    "street": null,
    "office_name": null,
    "office_name_kana": null
  },
  "8115": {
    "postcode": "9518115",
    "prefecture": "新潟県",
    "prefecture_kana": "ニイガタケン",
    "prefecture_code": 15,
    "city": "新潟市中央区",
    "city_kana": "ニイガタシチュウオウク",
    "town": "寺裏通",
    "town_kana": "テラウラドオリ",
    "street": null,
    "office_name": null,
    "office_name_kana": null
  },
  "8116": {
    "postcode": "9518116",
    "prefecture": "新潟県",
    "prefecture_kana": "ニイガタケン",
    "prefecture_code": 15,
    "city": "新潟市中央区",
    "city_kana": "ニイガタシチュウオウク",
    "town": "東中通",
    "town_kana": "ヒガシナカドオリ",
    "street": null,
    "office_name": null,
    "office_name_kana": null
  },
  "8117": {
    "postcode": "9518117",
    "prefecture": "新潟県",
    "prefecture_kana": "ニイガタケン",
    "prefecture_code": 15,
    "city": "新潟市中央区",
    "city_kana": "ニイガタシチュウオウク",
    "town": "南横堀町",
    "town_kana": "ミナミヨコボリチョウ",
    "street": null,
    "office_name": null,
    "office_name_kana": null
  },
  "8118": {
    "postcode": "9518118",
    "prefecture": "新潟県",
    "prefecture_kana": "ニイガタケン",
    "prefecture_code": 15,
    "city": "新潟市中央区",
    "city_kana": "ニイガタシチュウオウク",
    "town": "西中町",
    "town_kana": "ニシナカマチ",
    "street": null,
    "office_name": null,
    "office_name_kana": null
  },
  "8121": {
    "postcode": "9518121",
    "prefecture": "新潟県",
    "prefecture_kana": "ニイガタケン",
    "prefecture_code": 15,
    "city": "新潟市中央区",
    "city_kana": "ニイガタシチュウオウク",
    "town": "水道町",
    "town_kana": "スイドウチョウ",
    "street": null,
    "office_name": null,
    "office_name_kana": null
  },
  "8122": {
    "postcode": "9518122",
    "prefecture": "新潟県",
    "prefecture_kana": "ニイガタケン",
    "prefecture_code": 15,
    "city": "新潟市中央区",
    "city_kana": "ニイガタシチュウオウク",
    "town": "旭町通",
    "town_kana": "アサヒマチドオリ",
    "street": null,
    "office_name": null,
    "office_name_kana": null
  },
  "8123": {
    "postcode": "9518123",
    "prefecture": "新潟県",
    "prefecture_kana": "ニイガタケン",
    "prefecture_code": 15,
    "city": "新潟市中央区",
    "city_kana": "ニイガタシチュウオウク",
    "town": "下旭町",
    "town_kana": "シモアサヒマチ",
    "street": null,
    "office_name": null,
    "office_name_kana": null
  },
  "8124": {
    "postcode": "9518124",
    "prefecture": "新潟県",
    "prefecture_kana": "ニイガタケン",
    "prefecture_code": 15,
    "city": "新潟市中央区",
    "city_kana": "ニイガタシチュウオウク",
    "town": "医学町通",
    "town_kana": "イガクチョウドオリ",
    "street": null,
    "office_name": null,
    "office_name_kana": null
  },
  "8125": {
    "postcode": "9518125",
    "prefecture": "新潟県",
    "prefecture_kana": "ニイガタケン",
    "prefecture_code": 15,
    "city": "新潟市中央区",
    "city_kana": "ニイガタシチュウオウク",
    "town": "学校裏町",
    "town_kana": "ガッコウウラマチ",
    "street": null,
    "office_name": null,
    "office_name_kana": null
  },
  "8126": {
    "postcode": "9518126",
    "prefecture": "新潟県",
    "prefecture_kana": "ニイガタケン",
    "prefecture_code": 15,
    "city": "新潟市中央区",
    "city_kana": "ニイガタシチュウオウク",
    "town": "学校町通",
    "town_kana": "ガッコウチョウドオリ",
    "street": null,
    "office_name": null,
    "office_name_kana": null
  },
  "8127": {
    "postcode": "9518127",
    "prefecture": "新潟県",
    "prefecture_kana": "ニイガタケン",
    "prefecture_code": 15,
    "city": "新潟市中央区",
    "city_kana": "ニイガタシチュウオウク",
    "town": "関屋下川原町",
    "town_kana": "セキヤシモカワラチョウ",
    "street": null,
    "office_name": null,
    "office_name_kana": null
  },
  "8131": {
    "postcode": "9518131",
    "prefecture": "新潟県",
    "prefecture_kana": "ニイガタケン",
    "prefecture_code": 15,
    "city": "新潟市中央区",
    "city_kana": "ニイガタシチュウオウク",
    "town": "白山浦",
    "town_kana": "ハクサンウラ",
    "street": null,
    "office_name": null,
    "office_name_kana": null
  },
  "8132": {
    "postcode": "9518132",
    "prefecture": "新潟県",
    "prefecture_kana": "ニイガタケン",
    "prefecture_code": 15,
    "city": "新潟市中央区",
    "city_kana": "ニイガタシチュウオウク",
    "town": "一番堀通町",
    "town_kana": "イチバンボリドオリチョウ",
    "street": null,
    "office_name": null,
    "office_name_kana": null
  },
  "8133": {
    "postcode": "9518133",
    "prefecture": "新潟県",
    "prefecture_kana": "ニイガタケン",
    "prefecture_code": 15,
    "city": "新潟市中央区",
    "city_kana": "ニイガタシチュウオウク",
    "town": "川岸町",
    "town_kana": "カワギシチョウ",
    "street": null,
    "office_name": null,
    "office_name_kana": null
  },
  "8134": [
    {
      "postcode": "9518134",
      "prefecture": "新潟県",
      "prefecture_kana": "ニイガタケン",
      "prefecture_code": 15,
      "city": "新潟市中央区",
      "city_kana": "ニイガタシチュウオウク",
      "town": "関屋",
      "town_kana": "セキヤ",
      "street": null,
      "office_name": null,
      "office_name_kana": null
    },
    {
      "postcode": "9518134",
      "prefecture": "新潟県",
      "prefecture_kana": "ニイガタケン",
      "prefecture_code": 15,
      "city": "新潟市西区",
      "city_kana": "ニイガタシニシク",
      "town": "関屋",
      "town_kana": "セキヤ",
      "street": null,
      "office_name": null,
      "office_name_kana": null
    }
  ],
  "8135": {
    "postcode": "9518135",
    "prefecture": "新潟県",
    "prefecture_kana": "ニイガタケン",
    "prefecture_code": 15,
    "city": "新潟市中央区",
    "city_kana": "ニイガタシチュウオウク",
    "town": "関屋新町通",
    "town_kana": "セキヤシンマチドオリ",
    "street": null,
    "office_name": null,
    "office_name_kana": null
  },
  "8136": {
    "postcode": "9518136",
    "prefecture": "新潟県",
    "prefecture_kana": "ニイガタケン",
    "prefecture_code": 15,
    "city": "新潟市中央区",
    "city_kana": "ニイガタシチュウオウク",
    "town": "関屋田町",
    "town_kana": "セキヤタマチ",
    "street": null,
    "office_name": null,
    "office_name_kana": null
  },
  "8137": {
    "postcode": "9518137",
    "prefecture": "新潟県",
    "prefecture_kana": "ニイガタケン",
    "prefecture_code": 15,
    "city": "新潟市中央区",
    "city_kana": "ニイガタシチュウオウク",
    "town": "白山浦新町通",
    "town_kana": "ハクサンウラシンマチドオリ",
    "street": null,
    "office_name": null,
    "office_name_kana": null
  },
  "8141": {
    "postcode": "9518141",
    "prefecture": "新潟県",
    "prefecture_kana": "ニイガタケン",
    "prefecture_code": 15,
    "city": "新潟市中央区",
    "city_kana": "ニイガタシチュウオウク",
    "town": "関新",
    "town_kana": "セキシン",
    "street": null,
    "office_name": null,
    "office_name_kana": null
  },
  "8142": {
    "postcode": "9518142",
    "prefecture": "新潟県",
    "prefecture_kana": "ニイガタケン",
    "prefecture_code": 15,
    "city": "新潟市中央区",
    "city_kana": "ニイガタシチュウオウク",
    "town": "関屋大川前",
    "town_kana": "セキヤオオカワマエ",
    "street": null,
    "office_name": null,
    "office_name_kana": null
  },
  "8143": {
    "postcode": "9518143",
    "prefecture": "新潟県",
    "prefecture_kana": "ニイガタケン",
    "prefecture_code": 15,
    "city": "新潟市中央区",
    "city_kana": "ニイガタシチュウオウク",
    "town": "関屋恵町",
    "town_kana": "セキヤメグミチョウ",
    "street": null,
    "office_name": null,
    "office_name_kana": null
  },
  "8144": {
    "postcode": "9518144",
    "prefecture": "新潟県",
    "prefecture_kana": "ニイガタケン",
    "prefecture_code": 15,
    "city": "新潟市中央区",
    "city_kana": "ニイガタシチュウオウク",
    "town": "関南町",
    "town_kana": "セキナミチョウ",
    "street": null,
    "office_name": null,
    "office_name_kana": null
  },
  "8145": {
    "postcode": "9518145",
    "prefecture": "新潟県",
    "prefecture_kana": "ニイガタケン",
    "prefecture_code": 15,
    "city": "新潟市中央区",
    "city_kana": "ニイガタシチュウオウク",
    "town": "有明台",
    "town_kana": "アリアケダイ",
    "street": null,
    "office_name": null,
    "office_name_kana": null
  },
  "8146": {
    "postcode": "9518146",
    "prefecture": "新潟県",
    "prefecture_kana": "ニイガタケン",
    "prefecture_code": 15,
    "city": "新潟市中央区",
    "city_kana": "ニイガタシチュウオウク",
    "town": "有明大橋町",
    "town_kana": "アリアケオオハシチョウ",
    "street": null,
    "office_name": null,
    "office_name_kana": null
  },
  "8147": {
    "postcode": "9518147",
    "prefecture": "新潟県",
    "prefecture_kana": "ニイガタケン",
    "prefecture_code": 15,
    "city": "新潟市中央区",
    "city_kana": "ニイガタシチュウオウク",
    "town": "弥生町",
    "town_kana": "ヤヨイチョウ",
    "street": null,
    "office_name": null,
    "office_name_kana": null
  },
  "8151": {
    "postcode": "9518151",
    "prefecture": "新潟県",
    "prefecture_kana": "ニイガタケン",
    "prefecture_code": 15,
    "city": "新潟市中央区",
    "city_kana": "ニイガタシチュウオウク",
    "town": "浜浦町",
    "town_kana": "ハマウラチョウ",
    "street": null,
    "office_name": null,
    "office_name_kana": null
  },
  "8152": {
    "postcode": "9518152",
    "prefecture": "新潟県",
    "prefecture_kana": "ニイガタケン",
    "prefecture_code": 15,
    "city": "新潟市中央区",
    "city_kana": "ニイガタシチュウオウク",
    "town": "信濃町",
    "town_kana": "シナノマチ",
    "street": null,
    "office_name": null,
    "office_name_kana": null
  },
  "8153": {
    "postcode": "9518153",
    "prefecture": "新潟県",
    "prefecture_kana": "ニイガタケン",
    "prefecture_code": 15,
    "city": "新潟市中央区",
    "city_kana": "ニイガタシチュウオウク",
    "town": "文京町",
    "town_kana": "ブンキョウチョウ",
    "street": null,
    "office_name": null,
    "office_name_kana": null
  },
  "8154": {
    "postcode": "9518154",
    "prefecture": "新潟県",
    "prefecture_kana": "ニイガタケン",
    "prefecture_code": 15,
    "city": "新潟市中央区",
    "city_kana": "ニイガタシチュウオウク",
    "town": "堀割町",
    "town_kana": "ホリワリチョウ",
    "street": null,
    "office_name": null,
    "office_name_kana": null
  },
  "8155": {
    "postcode": "9518155",
    "prefecture": "新潟県",
    "prefecture_kana": "ニイガタケン",
    "prefecture_code": 15,
    "city": "新潟市西区",
    "city_kana": "ニイガタシニシク",
    "town": "関屋堀割町",
    "town_kana": "セキヤホリワリチョウ",
    "street": null,
    "office_name": null,
    "office_name_kana": null
  },
  "8156": {
    "postcode": "9518156",
    "prefecture": "新潟県",
    "prefecture_kana": "ニイガタケン",
    "prefecture_code": 15,
    "city": "新潟市中央区",
    "city_kana": "ニイガタシチュウオウク",
    "town": "汐見台",
    "town_kana": "シオミダイ",
    "street": null,
    "office_name": null,
    "office_name_kana": null
  },
  "8161": {
    "postcode": "9518161",
    "prefecture": "新潟県",
    "prefecture_kana": "ニイガタケン",
    "prefecture_code": 15,
    "city": "新潟市中央区",
    "city_kana": "ニイガタシチュウオウク",
    "town": "関屋松波町",
    "town_kana": "セキヤマツナミチョウ",
    "street": null,
    "office_name": null,
    "office_name_kana": null
  },
  "8162": {
    "postcode": "9518162",
    "prefecture": "新潟県",
    "prefecture_kana": "ニイガタケン",
    "prefecture_code": 15,
    "city": "新潟市中央区",
    "city_kana": "ニイガタシチュウオウク",
    "town": "関屋本村町",
    "town_kana": "セキヤホンソンチョウ",
    "street": null,
    "office_name": null,
    "office_name_kana": null
  },
  "8163": {
    "postcode": "9518163",
    "prefecture": "新潟県",
    "prefecture_kana": "ニイガタケン",
    "prefecture_code": 15,
    "city": "新潟市中央区",
    "city_kana": "ニイガタシチュウオウク",
    "town": "関屋御船蔵町",
    "town_kana": "セキヤオフナグラチョウ",
    "street": null,
    "office_name": null,
    "office_name_kana": null
  },
  "8164": {
    "postcode": "9518164",
    "prefecture": "新潟県",
    "prefecture_kana": "ニイガタケン",
    "prefecture_code": 15,
    "city": "新潟市中央区",
    "city_kana": "ニイガタシチュウオウク",
    "town": "関屋昭和町",
    "town_kana": "セキヤショウワチョウ",
    "street": null,
    "office_name": null,
    "office_name_kana": null
  },
  "8165": {
    "postcode": "9518165",
    "prefecture": "新潟県",
    "prefecture_kana": "ニイガタケン",
    "prefecture_code": 15,
    "city": "新潟市中央区",
    "city_kana": "ニイガタシチュウオウク",
    "town": "関屋金鉢山町",
    "town_kana": "セキヤカナバチヤマチョウ",
    "street": null,
    "office_name": null,
    "office_name_kana": null
  },
  "8166": {
    "postcode": "9518166",
    "prefecture": "新潟県",
    "prefecture_kana": "ニイガタケン",
    "prefecture_code": 15,
    "city": "新潟市中央区",
    "city_kana": "ニイガタシチュウオウク",
    "town": "関屋浜松町",
    "town_kana": "セキヤハママツチョウ",
    "street": null,
    "office_name": null,
    "office_name_kana": null
  },
  "8167": {
    "postcode": "9518167",
    "prefecture": "新潟県",
    "prefecture_kana": "ニイガタケン",
    "prefecture_code": 15,
    "city": "新潟市中央区",
    "city_kana": "ニイガタシチュウオウク",
    "town": "関屋金衛町",
    "town_kana": "セキヤキンエイチョウ",
    "street": null,
    "office_name": null,
    "office_name_kana": null
  },
  "8502": {
    "postcode": "9518502",
    "prefecture": "新潟県",
    "prefecture_kana": "ニイガタケン",
    "prefecture_code": 15,
    "city": "新潟市中央区",
    "city_kana": "ニイガタシチュウオウク",
    "town": "西大畑町",
    "town_kana": "ニシオオハタチョウ",
    "street": "５１９１",
    "office_name": "新潟地方検察庁",
    "office_name_kana": "ニイガタチホウケンサツチヨウ"
  },
  "8503": {
    "postcode": "9518503",
    "prefecture": "新潟県",
    "prefecture_kana": "ニイガタケン",
    "prefecture_code": 15,
    "city": "新潟市中央区",
    "city_kana": "ニイガタシチュウオウク",
    "town": "川岸町",
    "town_kana": "カワギシチョウ",
    "street": "１丁目５３",
    "office_name": "福田道路　株式会社",
    "office_name_kana": "フクダドウロ カブシキガイシヤ"
  },
  "8504": {
    "postcode": "9518504",
    "prefecture": "新潟県",
    "prefecture_kana": "ニイガタケン",
    "prefecture_code": 15,
    "city": "新潟市中央区",
    "city_kana": "ニイガタシチュウオウク",
    "town": "西大畑町",
    "town_kana": "ニシオオハタチョウ",
    "street": "５１９１",
    "office_name": "新潟地方法務局",
    "office_name_kana": "ニイガタチホウホウムキヨク"
  },
  "8507": {
    "postcode": "9518507",
    "prefecture": "新潟県",
    "prefecture_kana": "ニイガタケン",
    "prefecture_code": 15,
    "city": "新潟市中央区",
    "city_kana": "ニイガタシチュウオウク",
    "town": "西堀前通６番町",
    "town_kana": null,
    "street": "８９４番地１",
    "office_name": "新潟地下開発　株式会社",
    "office_name_kana": "ニイガタチカカイハツ カブシキガイシヤ"
  },
  "8508": {
    "postcode": "9518508",
    "prefecture": "新潟県",
    "prefecture_kana": "ニイガタケン",
    "prefecture_code": 15,
    "city": "新潟市中央区",
    "city_kana": "ニイガタシチュウオウク",
    "town": "川岸町",
    "town_kana": "カワギシチョウ",
    "street": "１丁目４９",
    "office_name": "新潟放送局（ＮＨＫ　新潟放送局）",
    "office_name_kana": "ニイガタホウソウキヨク(エヌエイチケ- ニイガタホウソウキヨク)"
  },
  "8510": {
    "postcode": "9518510",
    "prefecture": "新潟県",
    "prefecture_kana": "ニイガタケン",
    "prefecture_code": 15,
    "city": "新潟市中央区",
    "city_kana": "ニイガタシチュウオウク",
    "town": "旭町通１番町",
    "town_kana": null,
    "street": "７５７",
    "office_name": "新潟大学　医学部",
    "office_name_kana": "ニイガタダイガク イガクブ"
  },
  "8511": {
    "postcode": "9518511",
    "prefecture": "新潟県",
    "prefecture_kana": "ニイガタケン",
    "prefecture_code": 15,
    "city": "新潟市中央区",
    "city_kana": "ニイガタシチュウオウク",
    "town": "学校町通１番町",
    "town_kana": null,
    "street": "１",
    "office_name": "新潟地方裁判所",
    "office_name_kana": "ニイガタチホウサイバンシヨ"
  },
  "8512": {
    "postcode": "9518512",
    "prefecture": "新潟県",
    "prefecture_kana": "ニイガタケン",
    "prefecture_code": 15,
    "city": "新潟市中央区",
    "city_kana": "ニイガタシチュウオウク",
    "town": "学校町通１番町",
    "town_kana": null,
    "street": "１",
    "office_name": "新潟簡易裁判所",
    "office_name_kana": "ニイガタカンイサイバンシヨ"
  },
  "8513": {
    "postcode": "9518513",
    "prefecture": "新潟県",
    "prefecture_kana": "ニイガタケン",
    "prefecture_code": 15,
    "city": "新潟市中央区",
    "city_kana": "ニイガタシチュウオウク",
    "town": "川岸町",
    "town_kana": "カワギシチョウ",
    "street": "１丁目５４番１",
    "office_name": "新潟家庭裁判所",
    "office_name_kana": "ニイガタカテイサイバンシヨ"
  },
  "8514": {
    "postcode": "9518514",
    "prefecture": "新潟県",
    "prefecture_kana": "ニイガタケン",
    "prefecture_code": 15,
    "city": "新潟市中央区",
    "city_kana": "ニイガタシチュウオウク",
    "town": "学校町通２番町",
    "town_kana": null,
    "street": "５２７４",
    "office_name": "新潟大学　歯学部・歯学部附属病院",
    "office_name_kana": "ニイガタダイガク シガクブ・シガクブフゾクビヨウイン"
  },
  "8518": {
    "postcode": "9518518",
    "prefecture": "新潟県",
    "prefecture_kana": "ニイガタケン",
    "prefecture_code": 15,
    "city": "新潟市中央区",
    "city_kana": "ニイガタシチュウオウク",
    "town": "旭町通２番町",
    "town_kana": null,
    "street": "７４６",
    "office_name": "新潟大学　医学部保健学科",
    "office_name_kana": "ニイガタダイガク イガクブホケンガツカ"
  },
  "8519": {
    "postcode": "9518519",
    "prefecture": "新潟県",
    "prefecture_kana": "ニイガタケン",
    "prefecture_code": 15,
    "city": "新潟市中央区",
    "city_kana": "ニイガタシチュウオウク",
    "town": "東堀通７番町",
    "town_kana": null,
    "street": "１０１７番地１",
    "office_name": "東日本電信電話　株式会社　新潟支店",
    "office_name_kana": "ヒガシニホンデンシンデンワ カブシキカイシヤ ニイガタシテン"
  },
  "8520": {
    "postcode": "9518520",
    "prefecture": "新潟県",
    "prefecture_kana": "ニイガタケン",
    "prefecture_code": 15,
    "city": "新潟市中央区",
    "city_kana": "ニイガタシチュウオウク",
    "town": "旭町通１番町",
    "town_kana": null,
    "street": "７５４",
    "office_name": "新潟大学　医歯学総合病院",
    "office_name_kana": "ニイガタダイガク イシガクソウゴウビヨウイン"
  },
  "8521": {
    "postcode": "9518521",
    "prefecture": "新潟県",
    "prefecture_kana": "ニイガタケン",
    "prefecture_code": 15,
    "city": "新潟市中央区",
    "city_kana": "ニイガタシチュウオウク",
    "town": "下大川前通６ノ町",
    "town_kana": null,
    "street": "２２３０−１９",
    "office_name": "株式会社　新潟テレビ２１",
    "office_name_kana": "カブシキガイシヤ ニイガタテレビニジユウイチ"
  },
  "8528": {
    "postcode": "9518528",
    "prefecture": "新潟県",
    "prefecture_kana": "ニイガタケン",
    "prefecture_code": 15,
    "city": "新潟市中央区",
    "city_kana": "ニイガタシチュウオウク",
    "town": "東堀前通６番町",
    "town_kana": null,
    "street": "１０６１",
    "office_name": "環境をサポートする　株式会社　キラメキ",
    "office_name_kana": "カンキヨウヲサポ-トスル カブシキガイシヤ キラメキ"
  },
  "8531": {
    "postcode": "9518531",
    "prefecture": "新潟県",
    "prefecture_kana": "ニイガタケン",
    "prefecture_code": 15,
    "city": "新潟市中央区",
    "city_kana": "ニイガタシチュウオウク",
    "town": "上大川前通８番町",
    "town_kana": null,
    "street": "１２５１−１",
    "office_name": "新和証券　株式会社",
    "office_name_kana": "シンワシヨウケン カブシキカイシヤ"
  },
  "8533": {
    "postcode": "9518533",
    "prefecture": "新潟県",
    "prefecture_kana": "ニイガタケン",
    "prefecture_code": 15,
    "city": "新潟市中央区",
    "city_kana": "ニイガタシチュウオウク",
    "town": "関新",
    "town_kana": "セキシン",
    "street": "２丁目１番５３号",
    "office_name": "ミサワホーム北越　株式会社",
    "office_name_kana": "ミサワホ-ムホクエツ カブシキガイシヤ"
  },
  "8535": {
    "postcode": "9518535",
    "prefecture": "新潟県",
    "prefecture_kana": "ニイガタケン",
    "prefecture_code": 15,
    "city": "新潟市中央区",
    "city_kana": "ニイガタシチュウオウク",
    "town": "西大畑町",
    "town_kana": "ニシオオハタチョウ",
    "street": "５２１４",
    "office_name": "新潟大学教育学部附属学校",
    "office_name_kana": "ニイガタダイガクキヨウイクガクブフゾクガツコウ"
  },
  "8536": {
    "postcode": "9518536",
    "prefecture": "新潟県",
    "prefecture_kana": "ニイガタケン",
    "prefecture_code": 15,
    "city": "新潟市中央区",
    "city_kana": "ニイガタシチュウオウク",
    "town": "上大川前通５番町",
    "town_kana": null,
    "street": "６８番地１",
    "office_name": "日本通運　（株）　新潟支店",
    "office_name_kana": "ニホンツウウン カブシキガイシヤ ニイガタシテン"
  },
  "8540": {
    "postcode": "9518540",
    "prefecture": "新潟県",
    "prefecture_kana": "ニイガタケン",
    "prefecture_code": 15,
    "city": "新潟市中央区",
    "city_kana": "ニイガタシチュウオウク",
    "town": "上大川前通６番町",
    "town_kana": null,
    "street": "１１７８番地ストークビル柾谷小路",
    "office_name": "東光商事　株式会社",
    "office_name_kana": "トウコウシヨウジ カブシキガイシヤ"
  },
  "8544": {
    "postcode": "9518544",
    "prefecture": "新潟県",
    "prefecture_kana": "ニイガタケン",
    "prefecture_code": 15,
    "city": "新潟市中央区",
    "city_kana": "ニイガタシチュウオウク",
    "town": "関屋下川原町",
    "town_kana": "セキヤシモカワラチョウ",
    "street": "２丁目６３５",
    "office_name": "新潟県立　新潟高等学校　通信制",
    "office_name_kana": "ニイガタケンリツ ニイガタコウトウガツコウ ツウシンセイ"
  },
  "8550": {
    "postcode": "9518550",
    "prefecture": "新潟県",
    "prefecture_kana": "ニイガタケン",
    "prefecture_code": 15,
    "city": "新潟市中央区",
    "city_kana": "ニイガタシチュウオウク",
    "town": "学校町通１番町",
    "town_kana": null,
    "street": "６０２−１",
    "office_name": "新潟市役所",
    "office_name_kana": "ニイガタシヤクシヨ"
  },
  "8551": {
    "postcode": "9518551",
    "prefecture": "新潟県",
    "prefecture_kana": "ニイガタケン",
    "prefecture_code": 15,
    "city": "新潟市中央区",
    "city_kana": "ニイガタシチュウオウク",
    "town": "白山浦",
    "town_kana": "ハクサンウラ",
    "street": "１丁目３３６",
    "office_name": "読売新聞社　新潟支局",
    "office_name_kana": "ヨミウリシンブンシヤ ニイガタシキヨク"
  },
  "8552": {
    "postcode": "9518552",
    "prefecture": "新潟県",
    "prefecture_kana": "ニイガタケン",
    "prefecture_code": 15,
    "city": "新潟市中央区",
    "city_kana": "ニイガタシチュウオウク",
    "town": "西堀通６番町",
    "town_kana": null,
    "street": "８６６番地",
    "office_name": "新潟市郵送証明センター",
    "office_name_kana": "ニイガタシユウソウシヨウメイセンタ-"
  },
  "8553": {
    "postcode": "9518553",
    "prefecture": "新潟県",
    "prefecture_kana": "ニイガタケン",
    "prefecture_code": 15,
    "city": "新潟市中央区",
    "city_kana": "ニイガタシチュウオウク",
    "town": "西堀通６番町",
    "town_kana": null,
    "street": "８６６番地ＮＥＸＴ２１",
    "office_name": "新潟市中央区役所",
    "office_name_kana": "ニイガタシチユウオウクヤクシヨ"
  },
  "8554": {
    "postcode": "9518554",
    "prefecture": "新潟県",
    "prefecture_kana": "ニイガタケン",
    "prefecture_code": 15,
    "city": "新潟市中央区",
    "city_kana": "ニイガタシチュウオウク",
    "town": "古町通７番町",
    "town_kana": null,
    "street": "１０１０",
    "office_name": "新潟市役所　ふるまち庁舎",
    "office_name_kana": "ニイガタシヤクシヨ フルマチチヨウシヤ"
  },
  "8555": {
    "postcode": "9518555",
    "prefecture": "新潟県",
    "prefecture_kana": "ニイガタケン",
    "prefecture_code": 15,
    "city": "新潟市中央区",
    "city_kana": "ニイガタシチュウオウク",
    "town": "西船見町",
    "town_kana": "ニシフナミチョウ",
    "street": "５９３２番地４４５",
    "office_name": "新潟市水族館　マリンピア日本海",
    "office_name_kana": "ニイガタシスイゾクカン マリンピアニホンカイ"
  },
  "8556": {
    "postcode": "9518556",
    "prefecture": "新潟県",
    "prefecture_kana": "ニイガタケン",
    "prefecture_code": 15,
    "city": "新潟市中央区",
    "city_kana": "ニイガタシチュウオウク",
    "town": "西大畑町",
    "town_kana": "ニシオオハタチョウ",
    "street": "５１９１番地９",
    "office_name": "新潟市美術館",
    "office_name_kana": "ニイガタシビジユツカン"
  },
  "8560": {
    "postcode": "9518560",
    "prefecture": "新潟県",
    "prefecture_kana": "ニイガタケン",
    "prefecture_code": 15,
    "city": "新潟市中央区",
    "city_kana": "ニイガタシチュウオウク",
    "town": "関屋下川原町",
    "town_kana": "セキヤシモカワラチョウ",
    "street": "１丁目３−３",
    "office_name": "新潟市水道局",
    "office_name_kana": "ニイガタシスイドウキヨク"
  },
  "8566": {
    "postcode": "9518566",
    "prefecture": "新潟県",
    "prefecture_kana": "ニイガタケン",
    "prefecture_code": 15,
    "city": "新潟市中央区",
    "city_kana": "ニイガタシチュウオウク",
    "town": "川岸町",
    "town_kana": "カワギシチョウ",
    "street": "２丁目１５−３",
    "office_name": "新潟県立　がんセンター新潟病院",
    "office_name_kana": "ニイガタケンリツ ガンセンタ-ニイガタビヨウイン"
  },
  "8567": {
    "postcode": "9518567",
    "prefecture": "新潟県",
    "prefecture_kana": "ニイガタケン",
    "prefecture_code": 15,
    "city": "新潟市中央区",
    "city_kana": "ニイガタシチュウオウク",
    "town": "東中通２番町",
    "town_kana": null,
    "street": "２７９",
    "office_name": "源川医科器械　株式会社",
    "office_name_kana": "ミナガワイカキカイ カブシキガイシヤ"
  },
  "8570": {
    "postcode": "9518570",
    "prefecture": "新潟県",
    "prefecture_kana": "ニイガタケン",
    "prefecture_code": 15,
    "city": "新潟市中央区",
    "city_kana": "ニイガタシチュウオウク",
    "town": "東中通１番町",
    "town_kana": null,
    "street": "１８９−３",
    "office_name": "新潟県　信用農業協同組合連合会",
    "office_name_kana": "ニイガタケン シンヨウノウギヨウキヨウドウクミアイレンゴウカイ"
  },
  "8580": {
    "postcode": "9518580",
    "prefecture": "新潟県",
    "prefecture_kana": "ニイガタケン",
    "prefecture_code": 15,
    "city": "新潟市中央区",
    "city_kana": "ニイガタシチュウオウク",
    "town": "浜浦町",
    "town_kana": "ハマウラチョウ",
    "street": "１丁目８",
    "office_name": "日本歯科大学　新潟歯学部",
    "office_name_kana": "ニツポンシカダイガク ニイガタシガクブ"
  },
  "8581": {
    "postcode": "9518581",
    "prefecture": "新潟県",
    "prefecture_kana": "ニイガタケン",
    "prefecture_code": 15,
    "city": "新潟市中央区",
    "city_kana": "ニイガタシチュウオウク",
    "town": "医学町通２番町",
    "town_kana": null,
    "street": "１３",
    "office_name": "社団法人　新潟県医師会",
    "office_name_kana": "シヤダンホウジン ニイガタケンイシカイ"
  },
  "8585": {
    "postcode": "9518585",
    "prefecture": "新潟県",
    "prefecture_kana": "ニイガタケン",
    "prefecture_code": 15,
    "city": "新潟市中央区",
    "city_kana": "ニイガタシチュウオウク",
    "town": "旭町通１番町",
    "town_kana": null,
    "street": "７５７",
    "office_name": "新潟大学　脳研究所",
    "office_name_kana": "ニイガタダイガク ノウケンキユウシヨ"
  },
  "8586": {
    "postcode": "9518586",
    "prefecture": "新潟県",
    "prefecture_kana": "ニイガタケン",
    "prefecture_code": 15,
    "city": "新潟市中央区",
    "city_kana": "ニイガタシチュウオウク",
    "town": "附船町",
    "town_kana": "ツケフネチョウ",
    "street": "１丁目４４０１",
    "office_name": "北陸瓦斯　株式会社　新潟営業所",
    "office_name_kana": "ホクリクガス カブシキカイシヤ ニイガタエイギヨウシヨ"
  },
  "8601": {
    "postcode": "9518601",
    "prefecture": "新潟県",
    "prefecture_kana": "ニイガタケン",
    "prefecture_code": 15,
    "city": "新潟市中央区",
    "city_kana": "ニイガタシチュウオウク",
    "town": "東堀前通７番町",
    "town_kana": null,
    "street": "１０７１−１（新潟中郵便局私書箱第９号）",
    "office_name": "株式会社　第四銀行",
    "office_name_kana": "カブシキガイシヤ ダイシギンコウ"
  },
  "8610": {
    "postcode": "9518610",
    "prefecture": "新潟県",
    "prefecture_kana": "ニイガタケン",
    "prefecture_code": 15,
    "city": "新潟市中央区",
    "city_kana": "ニイガタシチュウオウク",
    "town": "下大川前通４ノ町",
    "town_kana": null,
    "street": "２２３０−１２（新潟中郵便局私書箱第３７号）",
    "office_name": "敦井産業　株式会社",
    "office_name_kana": "アツイサンギヨウ カブシキカイシヤ"
  },
  "8611": {
    "postcode": "9518611",
    "prefecture": "新潟県",
    "prefecture_kana": "ニイガタケン",
    "prefecture_code": 15,
    "city": "新潟市中央区",
    "city_kana": "ニイガタシチュウオウク",
    "town": "本町通７番町",
    "town_kana": null,
    "street": "１０９３−２（新潟中郵便局私書箱第５７号）",
    "office_name": "大和證券　株式会社　新潟支店",
    "office_name_kana": "ダイワシヨウケン カブシキガイシヤ ニイガタシテン"
  },
  "8612": {
    "postcode": "9518612",
    "prefecture": "新潟県",
    "prefecture_kana": "ニイガタケン",
    "prefecture_code": 15,
    "city": "新潟市中央区",
    "city_kana": "ニイガタシチュウオウク",
    "town": "東堀前通８番町",
    "town_kana": null,
    "street": "１３６７（新潟中郵便局私書箱第６６号）",
    "office_name": "株式会社　加島屋",
    "office_name_kana": "カブシキガイシヤ カシマヤ"
  },
  "8620": {
    "postcode": "9518620",
    "prefecture": "新潟県",
    "prefecture_kana": "ニイガタケン",
    "prefecture_code": 15,
    "city": "新潟市中央区",
    "city_kana": "ニイガタシチュウオウク",
    "town": "西堀通３番町",
    "town_kana": null,
    "street": "２５８−２４（新潟中郵便局私書箱第１号）",
    "office_name": "株式会社　新潟日報社",
    "office_name_kana": "カブシキガイシヤ ニイガタニツポウシヤ"
  },
  "8622": {
    "postcode": "9518622",
    "prefecture": "新潟県",
    "prefecture_kana": "ニイガタケン",
    "prefecture_code": 15,
    "city": "新潟市中央区",
    "city_kana": "ニイガタシチュウオウク",
    "town": "寄居町",
    "town_kana": "ヨリイチョウ",
    "street": "３４４（新潟中郵便局私書箱第４号）",
    "office_name": "日本銀行　新潟支店",
    "office_name_kana": "ニツポンギンコウ ニイガタシテン"
  },
  "8625": {
    "postcode": "9518625",
    "prefecture": "新潟県",
    "prefecture_kana": "ニイガタケン",
    "prefecture_code": 15,
    "city": "新潟市中央区",
    "city_kana": "ニイガタシチュウオウク",
    "town": "川岸町",
    "town_kana": "カワギシチョウ",
    "street": "１丁目４９",
    "office_name": "関東信越国税局　業務センター新潟分室",
    "office_name_kana": "カントウシンエツコクゼイキヨク ギヨウムセンタ-ニイガタブンシツ"
  },
  "8629": {
    "postcode": "9518629",
    "prefecture": "新潟県",
    "prefecture_kana": "ニイガタケン",
    "prefecture_code": 15,
    "city": "新潟市中央区",
    "city_kana": "ニイガタシチュウオウク",
    "town": "南横堀町",
    "town_kana": "ミナミヨコボリチョウ",
    "street": "２９４−１（新潟中郵便局私書箱第１２９号）",
    "office_name": "新潟県　農業団体健康保険組合",
    "office_name_kana": "ニイガタケン ノウギヨウダンタイケンコウホケンクミアイ"
  },
  "8630": {
    "postcode": "9518630",
    "prefecture": "新潟県",
    "prefecture_kana": "ニイガタケン",
    "prefecture_code": 15,
    "city": "新潟市中央区",
    "city_kana": "ニイガタシチュウオウク",
    "town": "上大川前通六番町",
    "town_kana": null,
    "street": "１１７８番地の１",
    "office_name": "三井住友信託銀行　株式会社　新潟支店",
    "office_name_kana": "ミツイスミトモシンタクギンコウ カブシキガイシヤ ニイガタシテン"
  },
  "8632": {
    "postcode": "9518632",
    "prefecture": "新潟県",
    "prefecture_kana": "ニイガタケン",
    "prefecture_code": 15,
    "city": "新潟市中央区",
    "city_kana": "ニイガタシチュウオウク",
    "town": "礎町通４ノ町",
    "town_kana": null,
    "street": "２１００（新潟中郵便局私書箱第３２号）",
    "office_name": "株式会社　高助",
    "office_name_kana": "カブシキガイシヤ タカスケ"
  },
  "8633": {
    "postcode": "9518633",
    "prefecture": "新潟県",
    "prefecture_kana": "ニイガタケン",
    "prefecture_code": 15,
    "city": "新潟市中央区",
    "city_kana": "ニイガタシチュウオウク",
    "town": "上大川前通５番町",
    "town_kana": null,
    "street": "８４番地",
    "office_name": "東北電力　株式会社　新潟支店",
    "office_name_kana": "トウホクデンリヨク カブシキガイシヤ ニイガタシテン"
  },
  "8640": {
    "postcode": "9518640",
    "prefecture": "新潟県",
    "prefecture_kana": "ニイガタケン",
    "prefecture_code": 15,
    "city": "新潟市中央区",
    "city_kana": "ニイガタシチュウオウク",
    "town": "古町通７番町",
    "town_kana": null,
    "street": "１０１０番地",
    "office_name": "新潟県信用保証協会",
    "office_name_kana": "ニイガタケンシンヨウホシヨウキヨウカイ"
  },
  "8650": {
    "postcode": "9518650",
    "prefecture": "新潟県",
    "prefecture_kana": "ニイガタケン",
    "prefecture_code": 15,
    "city": "新潟市中央区",
    "city_kana": "ニイガタシチュウオウク",
    "town": "西湊町通３ノ町",
    "town_kana": null,
    "street": "３３００−３（新潟中郵便局私書箱第１３号）",
    "office_name": "株式会社　本間組",
    "office_name_kana": "カブシキガイシヤ ホンマグミ"
  },
  "8655": {
    "postcode": "9518655",
    "prefecture": "新潟県",
    "prefecture_kana": "ニイガタケン",
    "prefecture_code": 15,
    "city": "新潟市中央区",
    "city_kana": "ニイガタシチュウオウク",
    "town": "川岸町",
    "town_kana": "カワギシチョウ",
    "street": "３丁目１８（新潟中郵便局私書箱第７３号）",
    "office_name": "株式会社　新潟放送",
    "office_name_kana": "カブシキガイシヤ ニイガタホウソウ"
  },
  "8666": {
    "postcode": "9518666",
    "prefecture": "新潟県",
    "prefecture_kana": "ニイガタケン",
    "prefecture_code": 15,
    "city": "新潟市中央区",
    "city_kana": "ニイガタシチュウオウク",
    "town": "西堀通５番町",
    "town_kana": null,
    "street": "８５５−１（新潟中郵便局私書箱第１２４号）",
    "office_name": "新潟信用金庫",
    "office_name_kana": "ニイガタシンヨウキンコ"
  },
  "8668": {
    "postcode": "9518668",
    "prefecture": "新潟県",
    "prefecture_kana": "ニイガタケン",
    "prefecture_code": 15,
    "city": "新潟市中央区",
    "city_kana": "ニイガタシチュウオウク",
    "town": "一番堀通町",
    "town_kana": "イチバンボリドオリチョウ",
    "street": "３−１０（新潟中郵便局私書箱第４８号）",
    "office_name": "株式会社　福田組",
    "office_name_kana": "カブシキガイシヤ フクダグミ"
  },
  "8678": {
    "postcode": "9518678",
    "prefecture": "新潟県",
    "prefecture_kana": "ニイガタケン",
    "prefecture_code": 15,
    "city": "新潟市中央区",
    "city_kana": "ニイガタシチュウオウク",
    "town": "東中通１番町",
    "town_kana": null,
    "street": "８６（新潟中郵便局私書箱第２７号）",
    "office_name": "新潟県　経済農業協合組合連合会",
    "office_name_kana": "ニイガタケン ケイザイノウギヨウキヨウドウクミアイレンゴウカイ"
  },
  "8680": {
    "postcode": "9518680",
    "prefecture": "新潟県",
    "prefecture_kana": "ニイガタケン",
    "prefecture_code": 15,
    "city": "新潟市中央区",
    "city_kana": "ニイガタシチュウオウク",
    "town": "白山浦",
    "town_kana": "ハクサンウラ",
    "street": "２丁目１８０−５（新潟中郵便局私書箱第１１５号）",
    "office_name": "財団法人　新潟県保健衛生センター",
    "office_name_kana": "ザイダンホウジン ニイガタケンホケンエイセイセンタ-"
  },
  "8685": {
    "postcode": "9518685",
    "prefecture": "新潟県",
    "prefecture_kana": "ニイガタケン",
    "prefecture_code": 15,
    "city": "新潟市中央区",
    "city_kana": "ニイガタシチュウオウク",
    "town": "西大畑町",
    "town_kana": "ニシオオハタチョウ",
    "street": "５１９１（新潟中郵便局私書箱第７４号）",
    "office_name": "新潟税務署",
    "office_name_kana": "ニイガタゼイムシヨ"
  },
  "8686": {
    "postcode": "9518686",
    "prefecture": "新潟県",
    "prefecture_kana": "ニイガタケン",
    "prefecture_code": 15,
    "city": "新潟市中央区",
    "city_kana": "ニイガタシチュウオウク",
    "town": "営所通１番町",
    "town_kana": null,
    "street": "３０２−１（新潟中郵便局私書箱第７８号）",
    "office_name": "新潟縣　信用組合",
    "office_name_kana": "ニイガタケン シンヨウクミアイ"
  }
}