{
  "0000": {
    "postcode": "9560000",
    "prefecture": "新潟県",
    "prefecture_kana": "ニイガタケン",
    "prefecture_code": 15,
    "city": "新潟市秋葉区",
    "city_kana": "ニイガタシアキハク",
    "town": "",
    "town_kana": "",
    "street": null,
    "office_name": null,
    "office_name_kana": null
  },
  "0001": {
    "postcode": "9560001",
    "prefecture": "新潟県",
    "prefecture_kana": "ニイガタケン",
    "prefecture_code": 15,
    "city": "新潟市秋葉区",
    "city_kana": "ニイガタシアキハク",
    "town": "覚路津",
    "town_kana": "カクロヅ",
    "street": null,
    "office_name": null,
    "office_name_kana": null
  },
  "0002": {
    "postcode": "9560002",
    "prefecture": "新潟県",
    "prefecture_kana": "ニイガタケン",
    "prefecture_code": 15,
    "city": "新潟市秋葉区",
    "city_kana": "ニイガタシアキハク",
    "town": "市之瀬",
    "town_kana": "イチノセ",
    "street": null,
    "office_name": null,
    "office_name_kana": null
  },
  "0003": {
    "postcode": "9560003",
    "prefecture": "新潟県",
    "prefecture_kana": "ニイガタケン",
    "prefecture_code": 15,
    "city": "新潟市秋葉区",
    "city_kana": "ニイガタシアキハク",
    "town": "長割",
    "town_kana": "オサワリ",
    "street": null,
    "office_name": null,
    "office_name_kana": null
  },
  "0004": {
    "postcode": "9560004",
    "prefecture": "新潟県",
    "prefecture_kana": "ニイガタケン",
    "prefecture_code": 15,
    "city": "新潟市秋葉区",
    "city_kana": "ニイガタシアキハク",
    "town": "大鹿",
    "town_kana": "オオジカ",
    "street": null,
    "office_name": null,
    "office_name_kana": null
  },
  "0005": {
    "postcode": "9560005",
    "prefecture": "新潟県",
    "prefecture_kana": "ニイガタケン",
    "prefecture_code": 15,
    "city": "新潟市秋葉区",
    "city_kana": "ニイガタシアキハク",
    "town": "栗宮",
    "town_kana": "クリミヤ",
    "street": null,
    "office_name": null,
    "office_name_kana": null
  },
  "0006": {
    "postcode": "9560006",
    "prefecture": "新潟県",
    "prefecture_kana": "ニイガタケン",
    "prefecture_code": 15,
    "city": "新潟市秋葉区",
    "city_kana": "ニイガタシアキハク",
    "town": "小戸上組",
    "town_kana": "コドカミグミ",
    "street": null,
    "office_name": null,
    "office_name_kana": null
  },
  "0007": {
    "postcode": "9560007",
    "prefecture": "新潟県",
    "prefecture_kana": "ニイガタケン",
    "prefecture_code": 15,
    "city": "新潟市秋葉区",
    "city_kana": "ニイガタシアキハク",
    "town": "小戸下組",
    "town_kana": "コドシモグミ",
    "street": null,
    "office_name": null,
    "office_name_kana": null
  },
  "0011": {
    "postcode": "9560011",
    "prefecture": "新潟県",
    "prefecture_kana": "ニイガタケン",
    "prefecture_code": 15,
    "city": "新潟市秋葉区",
    "city_kana": "ニイガタシアキハク",
    "town": "車場",
    "town_kana": "クルマバ",
    "street": null,
    "office_name": null,
    "office_name_kana": null
  },
  "0012": {
    "postcode": "9560012",
    "prefecture": "新潟県",
    "prefecture_kana": "ニイガタケン",
    "prefecture_code": 15,
    "city": "新潟市秋葉区",
    "city_kana": "ニイガタシアキハク",
    "town": "荻野町",
    "town_kana": "オギノチョウ",
    "street": null,
    "office_name": null,
    "office_name_kana": null
  },
  "0013": {
    "postcode": "9560013",
    "prefecture": "新潟県",
    "prefecture_kana": "ニイガタケン",
    "prefecture_code": 15,
    "city": "新潟市秋葉区",
    "city_kana": "ニイガタシアキハク",
    "town": "田島",
    "town_kana": "タジマ",
    "street": null,
    "office_name": null,
    "office_name_kana": null
  },
  "0014": {
    "postcode": "9560014",
    "prefecture": "新潟県",
    "prefecture_kana": "ニイガタケン",
    "prefecture_code": 15,
    "city": "新潟市秋葉区",
    "city_kana": "ニイガタシアキハク",
    "town": "福島",
    "town_kana": "フクジマ",
    "street": null,
    "office_name": null,
    "office_name_kana": null
  },
  "0015": {
    "postcode": "9560015",
    "prefecture": "新潟県",
    "prefecture_kana": "ニイガタケン",
    "prefecture_code": 15,
    "city": "新潟市秋葉区",
    "city_kana": "ニイガタシアキハク",
    "town": "川口",
    "town_kana": "カワグチ",
    "street": null,
    "office_name": null,
    "office_name_kana": null
  },
  "0016": {
    "postcode": "9560016",
    "prefecture": "新潟県",
    "prefecture_kana": "ニイガタケン",
    "prefecture_code": 15,
    "city": "新潟市秋葉区",
    "city_kana": "ニイガタシアキハク",
    "town": "こがね町",
    "town_kana": "コガネチョウ",
    "street": null,
    "office_name": null,
    "office_name_kana": null
  },
  "0017": {
    "postcode": "9560017",
    "prefecture": "新潟県",
    "prefecture_kana": "ニイガタケン",
    "prefecture_code": 15,
    "city": "新潟市秋葉区",
    "city_kana": "ニイガタシアキハク",
    "town": "あおば通",
    "town_kana": "アオバドオリ",
    "street": null,
    "office_name": null,
    "office_name_kana": null
  },
  "0021": {
    "postcode": "9560021",
    "prefecture": "新潟県",
    "prefecture_kana": "ニイガタケン",
    "prefecture_code": 15,
    "city": "新潟市秋葉区",
    "city_kana": "ニイガタシアキハク",
    "town": "北上新田",
    "town_kana": "キタカミシンデン",
    "street": null,
    "office_name": null,
    "office_name_kana": null
  },
  "0022": {
    "postcode": "9560022",
    "prefecture": "新潟県",
    "prefecture_kana": "ニイガタケン",
    "prefecture_code": 15,
    "city": "新潟市秋葉区",
    "city_kana": "ニイガタシアキハク",
    "town": "さつき野",
    "town_kana": "サツキノ",
    "street": null,
    "office_name": null,
    "office_name_kana": null
  },
  "0023": {
    "postcode": "9560023",
    "prefecture": "新潟県",
    "prefecture_kana": "ニイガタケン",
    "prefecture_code": 15,
    "city": "新潟市秋葉区",
    "city_kana": "ニイガタシアキハク",
    "town": "美幸町",
    "town_kana": "ミユキチョウ",
    "street": null,
    "office_name": null,
    "office_name_kana": null
  },
  "0024": {
    "postcode": "9560024",
    "prefecture": "新潟県",
    "prefecture_kana": "ニイガタケン",
    "prefecture_code": 15,
    "city": "新潟市秋葉区",
    "city_kana": "ニイガタシアキハク",
    "town": "山谷町",
    "town_kana": "ヤマヤチョウ",
    "street": null,
    "office_name": null,
    "office_name_kana": null
  },
  "0025": {
    "postcode": "9560025",
    "prefecture": "新潟県",
    "prefecture_kana": "ニイガタケン",
    "prefecture_code": 15,
    "city": "新潟市秋葉区",
    "city_kana": "ニイガタシアキハク",
    "town": "古田",
    "town_kana": "コダ",
    "street": null,
    "office_name": null,
    "office_name_kana": null
  },
  "0026": {
    "postcode": "9560026",
    "prefecture": "新潟県",
    "prefecture_kana": "ニイガタケン",
    "prefecture_code": 15,
    "city": "新潟市秋葉区",
    "city_kana": "ニイガタシアキハク",
    "town": "北潟",
    "town_kana": "キタガタ",
    "street": null,
    "office_name": null,
    "office_name_kana": null
  },
  "0027": {
    "postcode": "9560027",
    "prefecture": "新潟県",
    "prefecture_kana": "ニイガタケン",
    "prefecture_code": 15,
    "city": "新潟市秋葉区",
    "city_kana": "ニイガタシアキハク",
    "town": "美善",
    "town_kana": "ミヨシ",
    "street": null,
    "office_name": null,
    "office_name_kana": null
  },
  "0031": {
    "postcode": "9560031",
    "prefecture": "新潟県",
    "prefecture_kana": "ニイガタケン",
    "prefecture_code": 15,
    "city": "新潟市秋葉区",
    "city_kana": "ニイガタシアキハク",
    "town": "新津",
    "town_kana": "ニイツ",
    "street": null,
    "office_name": null,
    "office_name_kana": null
  },
  "0032": {
    "postcode": "9560032",
    "prefecture": "新潟県",
    "prefecture_kana": "ニイガタケン",
    "prefecture_code": 15,
    "city": "新潟市秋葉区",
    "city_kana": "ニイガタシアキハク",
    "town": "南町",
    "town_kana": "ミナミチョウ",
    "street": null,
    "office_name": null,
    "office_name_kana": null
  },
  "0033": {
    "postcode": "9560033",
    "prefecture": "新潟県",
    "prefecture_kana": "ニイガタケン",
    "prefecture_code": 15,
    "city": "新潟市秋葉区",
    "city_kana": "ニイガタシアキハク",
    "town": "新栄町",
    "town_kana": "シンエイチョウ",
    "street": null,
    "office_name": null,
    "office_name_kana": null
  },
  "0034": {
    "postcode": "9560034",
    "prefecture": "新潟県",
    "prefecture_kana": "ニイガタケン",
    "prefecture_code": 15,
    "city": "新潟市秋葉区",
    "city_kana": "ニイガタシアキハク",
    "town": "新津緑町",
    "town_kana": "ニイツミドリチョウ",
    "street": null,
    "office_name": null,
    "office_name_kana": null
  },
  "0035": {
    "postcode": "9560035",
    "prefecture": "新潟県",
    "prefecture_kana": "ニイガタケン",
    "prefecture_code": 15,
    "city": "新潟市秋葉区",
    "city_kana": "ニイガタシアキハク",
    "town": "程島",
    "town_kana": "ホドジマ",
    "street": null,
    "office_name": null,
    "office_name_kana": null
  },
  "0036": {
    "postcode": "9560036",
    "prefecture": "新潟県",
    "prefecture_kana": "ニイガタケン",
    "prefecture_code": 15,
    "city": "新潟市秋葉区",
    "city_kana": "ニイガタシアキハク",
    "town": "中村",
    "town_kana": "ナカムラ",
    "street": null,
    "office_name": null,
    "office_name_kana": null
  },
  "0037": {
    "postcode": "9560037",
    "prefecture": "新潟県",
    "prefecture_kana": "ニイガタケン",
    "prefecture_code": 15,
    "city": "新潟市秋葉区",
    "city_kana": "ニイガタシアキハク",
    "town": "西古津",
    "town_kana": "ニシフルツ",
    "street": null,
    "office_name": null,
    "office_name_kana": null
  },
  "0041": {
    "postcode": "9560041",
    "prefecture": "新潟県",
    "prefecture_kana": "ニイガタケン",
    "prefecture_code": 15,
    "city": "新潟市秋葉区",
    "city_kana": "ニイガタシアキハク",
    "town": "小屋場",
    "town_kana": "コヤバ",
    "street": null,
    "office_name": null,
    "office_name_kana": null
  },
  "0043": {
    "postcode": "9560043",
    "prefecture": "新潟県",
    "prefecture_kana": "ニイガタケン",
    "prefecture_code": 15,
    "city": "新潟市秋葉区",
    "city_kana": "ニイガタシアキハク",
    "town": "梅ノ木",
    "town_kana": "ウメノキ",
    "street": null,
    "office_name": null,
    "office_name_kana": null
  },
  "0044": {
    "postcode": "9560044",
    "prefecture": "新潟県",
    "prefecture_kana": "ニイガタケン",
    "prefecture_code": 15,
    "city": "新潟市秋葉区",
    "city_kana": "ニイガタシアキハク",
    "town": "浦興野",
    "town_kana": "ウラゴヤ",
    "street": null,
    "office_name": null,
    "office_name_kana": null
  },
  "0045": {
    "postcode": "9560045",
    "prefecture": "新潟県",
    "prefecture_kana": "ニイガタケン",
    "prefecture_code": 15,
    "city": "新潟市秋葉区",
    "city_kana": "ニイガタシアキハク",
    "town": "子成場",
    "town_kana": "コナシバ",
    "street": null,
    "office_name": null,
    "office_name_kana": null
  },
  "0046": {
    "postcode": "9560046",
    "prefecture": "新潟県",
    "prefecture_kana": "ニイガタケン",
    "prefecture_code": 15,
    "city": "新潟市秋葉区",
    "city_kana": "ニイガタシアキハク",
    "town": "出戸",
    "town_kana": "デト",
    "street": null,
    "office_name": null,
    "office_name_kana": null
  },
  "0051": {
    "postcode": "9560051",
    "prefecture": "新潟県",
    "prefecture_kana": "ニイガタケン",
    "prefecture_code": 15,
    "city": "新潟市秋葉区",
    "city_kana": "ニイガタシアキハク",
    "town": "三枚潟",
    "town_kana": "サンマイガタ",
    "street": null,
    "office_name": null,
    "office_name_kana": null
  },
  "0052": {
    "postcode": "9560052",
    "prefecture": "新潟県",
    "prefecture_kana": "ニイガタケン",
    "prefecture_code": 15,
    "city": "新潟市秋葉区",
    "city_kana": "ニイガタシアキハク",
    "town": "三津屋",
    "town_kana": "ミツヤ",
    "street": null,
    "office_name": null,
    "office_name_kana": null
  },
  "0053": {
    "postcode": "9560053",
    "prefecture": "新潟県",
    "prefecture_kana": "ニイガタケン",
    "prefecture_code": 15,
    "city": "新潟市秋葉区",
    "city_kana": "ニイガタシアキハク",
    "town": "野方",
    "town_kana": "ノガタ",
    "street": null,
    "office_name": null,
    "office_name_kana": null
  },
  "0054": {
    "postcode": "9560054",
    "prefecture": "新潟県",
    "prefecture_kana": "ニイガタケン",
    "prefecture_code": 15,
    "city": "新潟市秋葉区",
    "city_kana": "ニイガタシアキハク",
    "town": "大秋",
    "town_kana": "オオアキ",
    "street": null,
    "office_name": null,
    "office_name_kana": null
  },
  "0055": {
    "postcode": "9560055",
    "prefecture": "新潟県",
    "prefecture_kana": "ニイガタケン",
    "prefecture_code": 15,
    "city": "新潟市秋葉区",
    "city_kana": "ニイガタシアキハク",
    "town": "川根",
    "town_kana": "カワネ",
    "street": null,
    "office_name": null,
    "office_name_kana": null
  },
  "0056": {
    "postcode": "9560056",
    "prefecture": "新潟県",
    "prefecture_kana": "ニイガタケン",
    "prefecture_code": 15,
    "city": "新潟市秋葉区",
    "city_kana": "ニイガタシアキハク",
    "town": "蕨曽根",
    "town_kana": "ワラビソネ",
    "street": null,
    "office_name": null,
    "office_name_kana": null
  },
  "0057": {
    "postcode": "9560057",
    "prefecture": "新潟県",
    "prefecture_kana": "ニイガタケン",
    "prefecture_code": 15,
    "city": "新潟市秋葉区",
    "city_kana": "ニイガタシアキハク",
    "town": "新津四ツ興野",
    "town_kana": "ニイツヨツゴヤ",
    "street": null,
    "office_name": null,
    "office_name_kana": null
  },
  "0101": {
    "postcode": "9560101",
    "prefecture": "新潟県",
    "prefecture_kana": "ニイガタケン",
    "prefecture_code": 15,
    "city": "新潟市秋葉区",
    "city_kana": "ニイガタシアキハク",
    "town": "小須戸",
    "town_kana": "コスド",
    "street": null,
    "office_name": null,
    "office_name_kana": null
  },
  "0111": {
    "postcode": "9560111",
    "prefecture": "新潟県",
    "prefecture_kana": "ニイガタケン",
    "prefecture_code": 15,
    "city": "新潟市秋葉区",
    "city_kana": "ニイガタシアキハク",
    "town": "竜玄",
    "town_kana": "リュウゲン",
    "street": null,
    "office_name": null,
    "office_name_kana": null
  },
  "0112": {
    "postcode": "9560112",
    "prefecture": "新潟県",
    "prefecture_kana": "ニイガタケン",
    "prefecture_code": 15,
    "city": "新潟市秋葉区",
    "city_kana": "ニイガタシアキハク",
    "town": "新保",
    "town_kana": "シンボ",
    "street": null,
    "office_name": null,
    "office_name_kana": null
  },
  "0113": {
    "postcode": "9560113",
    "prefecture": "新潟県",
    "prefecture_kana": "ニイガタケン",
    "prefecture_code": 15,
    "city": "新潟市秋葉区",
    "city_kana": "ニイガタシアキハク",
    "town": "矢代田",
    "town_kana": "ヤシロダ",
    "street": null,
    "office_name": null,
    "office_name_kana": null
  },
  "0114": {
    "postcode": "9560114",
    "prefecture": "新潟県",
    "prefecture_kana": "ニイガタケン",
    "prefecture_code": 15,
    "city": "新潟市秋葉区",
    "city_kana": "ニイガタシアキハク",
    "town": "天ヶ沢",
    "town_kana": "アマガサワ",
    "street": null,
    "office_name": null,
    "office_name_kana": null
  },
  "0115": {
    "postcode": "9560115",
    "prefecture": "新潟県",
    "prefecture_kana": "ニイガタケン",
    "prefecture_code": 15,
    "city": "新潟市秋葉区",
    "city_kana": "ニイガタシアキハク",
    "town": "鎌倉",
    "town_kana": "カマクラ",
    "street": null,
    "office_name": null,
    "office_name_kana": null
  },
  "0116": {
    "postcode": "9560116",
    "prefecture": "新潟県",
    "prefecture_kana": "ニイガタケン",
    "prefecture_code": 15,
    "city": "新潟市秋葉区",
    "city_kana": "ニイガタシアキハク",
    "town": "舟戸",
    "town_kana": "フナト",
    "street": null,
    "office_name": null,
    "office_name_kana": null
  },
  "0117": {
    "postcode": "9560117",
    "prefecture": "新潟県",
    "prefecture_kana": "ニイガタケン",
    "prefecture_code": 15,
    "city": "新潟市秋葉区",
    "city_kana": "ニイガタシアキハク",
    "town": "松ヶ丘",
    "town_kana": "マツガオカ",
    "street": null,
    "office_name": null,
    "office_name_kana": null
  },
  "0121": {
    "postcode": "9560121",
    "prefecture": "新潟県",
    "prefecture_kana": "ニイガタケン",
    "prefecture_code": 15,
    "city": "新潟市秋葉区",
    "city_kana": "ニイガタシアキハク",
    "town": "横川浜",
    "town_kana": "ヨコガワハマ",
    "street": null,
    "office_name": null,
    "office_name_kana": null
  },
  "0122": {
    "postcode": "9560122",
    "prefecture": "新潟県",
    "prefecture_kana": "ニイガタケン",
    "prefecture_code": 15,
    "city": "新潟市秋葉区",
    "city_kana": "ニイガタシアキハク",
    "town": "小向",
    "town_kana": "コムカイ",
    "street": null,
    "office_name": null,
    "office_name_kana": null
  },
  "0123": {
    "postcode": "9560123",
    "prefecture": "新潟県",
    "prefecture_kana": "ニイガタケン",
    "prefecture_code": 15,
    "city": "新潟市秋葉区",
    "city_kana": "ニイガタシアキハク",
    "town": "水田",
    "town_kana": "スイタ",
    "street": null,
    "office_name": null,
    "office_name_kana": null
  },
  "0192": {
    "postcode": "9560192",
    "prefecture": "新潟県",
    "prefecture_kana": "ニイガタケン",
    "prefecture_code": 15,
    "city": "新潟市秋葉区",
    "city_kana": "ニイガタシアキハク",
    "town": "小須戸",
    "town_kana": "コスド",
    "street": "１２０",
    "office_name": "新潟市秋葉区役所　小須戸出張所",
    "office_name_kana": "ニイガタシアキハクヤクシヨ コスドシユツチヨウジヨ"
  },
  "0801": {
    "postcode": "9560801",
    "prefecture": "新潟県",
    "prefecture_kana": "ニイガタケン",
    "prefecture_code": 15,
    "city": "新潟市秋葉区",
    "city_kana": "ニイガタシアキハク",
    "town": "大蔵",
    "town_kana": "ダイゾウ",
    "street": null,
    "office_name": null,
    "office_name_kana": null
  },
  "0802": {
    "postcode": "9560802",
    "prefecture": "新潟県",
    "prefecture_kana": "ニイガタケン",
    "prefecture_code": 15,
    "city": "新潟市秋葉区",
    "city_kana": "ニイガタシアキハク",
    "town": "七日町",
    "town_kana": "ナノカマチ",
    "street": null,
    "office_name": null,
    "office_name_kana": null
  },
  "0803": {
    "postcode": "9560803",
    "prefecture": "新潟県",
    "prefecture_kana": "ニイガタケン",
    "prefecture_code": 15,
    "city": "新潟市秋葉区",
    "city_kana": "ニイガタシアキハク",
    "town": "結",
    "town_kana": "ムスブ",
    "street": null,
    "office_name": null,
    "office_name_kana": null
  },
  "0804": {
    "postcode": "9560804",
    "prefecture": "新潟県",
    "prefecture_kana": "ニイガタケン",
    "prefecture_code": 15,
    "city": "新潟市秋葉区",
    "city_kana": "ニイガタシアキハク",
    "town": "荻島",
    "town_kana": "オギジマ",
    "street": null,
    "office_name": null,
    "office_name_kana": null
  },
  "0805": {
    "postcode": "9560805",
    "prefecture": "新潟県",
    "prefecture_kana": "ニイガタケン",
    "prefecture_code": 15,
    "city": "新潟市秋葉区",
    "city_kana": "ニイガタシアキハク",
    "town": "中野",
    "town_kana": "ナカノ",
    "street": null,
    "office_name": null,
    "office_name_kana": null
  },
  "0806": {
    "postcode": "9560806",
    "prefecture": "新潟県",
    "prefecture_kana": "ニイガタケン",
    "prefecture_code": 15,
    "city": "新潟市秋葉区",
    "city_kana": "ニイガタシアキハク",
    "town": "みそら野",
    "town_kana": "ミソラノ",
    "street": null,
    "office_name": null,
    "office_name_kana": null
  },
  "0811": {
    "postcode": "9560811",
    "prefecture": "新潟県",
    "prefecture_kana": "ニイガタケン",
    "prefecture_code": 15,
    "city": "新潟市秋葉区",
    "city_kana": "ニイガタシアキハク",
    "town": "満願寺",
    "town_kana": "マンガンジ",
    "street": null,
    "office_name": null,
    "office_name_kana": null
  },
  "0812": {
    "postcode": "9560812",
    "prefecture": "新潟県",
    "prefecture_kana": "ニイガタケン",
    "prefecture_code": 15,
    "city": "新潟市秋葉区",
    "city_kana": "ニイガタシアキハク",
    "town": "中新田",
    "town_kana": "ナカシンデン",
    "street": null,
    "office_name": null,
    "office_name_kana": null
  },
  "0813": {
    "postcode": "9560813",
    "prefecture": "新潟県",
    "prefecture_kana": "ニイガタケン",
    "prefecture_code": 15,
    "city": "新潟市秋葉区",
    "city_kana": "ニイガタシアキハク",
    "town": "大安寺",
    "town_kana": "ダイアンジ",
    "street": null,
    "office_name": null,
    "office_name_kana": null
  },
  "0814": {
    "postcode": "9560814",
    "prefecture": "新潟県",
    "prefecture_kana": "ニイガタケン",
    "prefecture_code": 15,
    "city": "新潟市秋葉区",
    "city_kana": "ニイガタシアキハク",
    "town": "東金沢",
    "town_kana": "ヒガシカナザワ",
    "street": null,
    "office_name": null,
    "office_name_kana": null
  },
  "0815": {
    "postcode": "9560815",
    "prefecture": "新潟県",
    "prefecture_kana": "ニイガタケン",
    "prefecture_code": 15,
    "city": "新潟市秋葉区",
    "city_kana": "ニイガタシアキハク",
    "town": "新金沢町",
    "town_kana": "シンカナザワチョウ",
    "street": null,
    "office_name": null,
    "office_name_kana": null
  },
  "0816": {
    "postcode": "9560816",
    "prefecture": "新潟県",
    "prefecture_kana": "ニイガタケン",
    "prefecture_code": 15,
    "city": "新潟市秋葉区",
    "city_kana": "ニイガタシアキハク",
    "town": "新津東町",
    "town_kana": "ニイツヒガシチョウ",
    "street": null,
    "office_name": null,
    "office_name_kana": null
  },
  "0817": {
    "postcode": "9560817",
    "prefecture": "新潟県",
    "prefecture_kana": "ニイガタケン",
    "prefecture_code": 15,
    "city": "新潟市秋葉区",
    "city_kana": "ニイガタシアキハク",
    "town": "古田ノ内大野開",
    "town_kana": "コダノウチオオノビラキ",
    "street": null,
    "office_name": null,
    "office_name_kana": null
  },
  "0818": {
    "postcode": "9560818",
    "prefecture": "新潟県",
    "prefecture_kana": "ニイガタケン",
    "prefecture_code": 15,
    "city": "新潟市秋葉区",
    "city_kana": "ニイガタシアキハク",
    "town": "西金沢",
    "town_kana": "ニシカナザワ",
    "street": null,
    "office_name": null,
    "office_name_kana": null
  },
  "0821": {
    "postcode": "9560821",
    "prefecture": "新潟県",
    "prefecture_kana": "ニイガタケン",
    "prefecture_code": 15,
    "city": "新潟市秋葉区",
    "city_kana": "ニイガタシアキハク",
    "town": "六郷",
    "town_kana": "ロクゴウ",
    "street": null,
    "office_name": null,
    "office_name_kana": null
  },
  "0822": {
    "postcode": "9560822",
    "prefecture": "新潟県",
    "prefecture_kana": "ニイガタケン",
    "prefecture_code": 15,
    "city": "新潟市秋葉区",
    "city_kana": "ニイガタシアキハク",
    "town": "新郷屋",
    "town_kana": "シンゴヤ",
    "street": null,
    "office_name": null,
    "office_name_kana": null
  },
  "0823": {
    "postcode": "9560823",
    "prefecture": "新潟県",
    "prefecture_kana": "ニイガタケン",
    "prefecture_code": 15,
    "city": "新潟市秋葉区",
    "city_kana": "ニイガタシアキハク",
    "town": "金屋",
    "town_kana": "カナヤ",
    "street": null,
    "office_name": null,
    "office_name_kana": null
  },
  "0824": {
    "postcode": "9560824",
    "prefecture": "新潟県",
    "prefecture_kana": "ニイガタケン",
    "prefecture_code": 15,
    "city": "新潟市秋葉区",
    "city_kana": "ニイガタシアキハク",
    "town": "市新",
    "town_kana": "イチシン",
    "street": null,
    "office_name": null,
    "office_name_kana": null
  },
  "0825": {
    "postcode": "9560825",
    "prefecture": "新潟県",
    "prefecture_kana": "ニイガタケン",
    "prefecture_code": 15,
    "city": "新潟市秋葉区",
    "city_kana": "ニイガタシアキハク",
    "town": "下新",
    "town_kana": "シモシン",
    "street": null,
    "office_name": null,
    "office_name_kana": null
  },
  "0826": {
    "postcode": "9560826",
    "prefecture": "新潟県",
    "prefecture_kana": "ニイガタケン",
    "prefecture_code": 15,
    "city": "新潟市秋葉区",
    "city_kana": "ニイガタシアキハク",
    "town": "岡田",
    "town_kana": "オカダ",
    "street": null,
    "office_name": null,
    "office_name_kana": null
  },
  "0827": {
    "postcode": "9560827",
    "prefecture": "新潟県",
    "prefecture_kana": "ニイガタケン",
    "prefecture_code": 15,
    "city": "新潟市秋葉区",
    "city_kana": "ニイガタシアキハク",
    "town": "大関",
    "town_kana": "オオセキ",
    "street": null,
    "office_name": null,
    "office_name_kana": null
  },
  "0828": {
    "postcode": "9560828",
    "prefecture": "新潟県",
    "prefecture_kana": "ニイガタケン",
    "prefecture_code": 15,
    "city": "新潟市秋葉区",
    "city_kana": "ニイガタシアキハク",
    "town": "北",
    "town_kana": "キタ",
    "street": null,
    "office_name": null,
    "office_name_kana": null
  },
  "0831": {
    "postcode": "9560831",
    "prefecture": "新潟県",
    "prefecture_kana": "ニイガタケン",
    "prefecture_code": 15,
    "city": "新潟市秋葉区",
    "city_kana": "ニイガタシアキハク",
    "town": "中沢町",
    "town_kana": "ナカザワチョウ",
    "street": null,
    "office_name": null,
    "office_name_kana": null
  },
  "0832": {
    "postcode": "9560832",
    "prefecture": "新潟県",
    "prefecture_kana": "ニイガタケン",
    "prefecture_code": 15,
    "city": "新潟市秋葉区",
    "city_kana": "ニイガタシアキハク",
    "town": "秋葉",
    "town_kana": "アキハ",
    "street": null,
    "office_name": null,
    "office_name_kana": null
  },
  "0833": {
    "postcode": "9560833",
    "prefecture": "新潟県",
    "prefecture_kana": "ニイガタケン",
    "prefecture_code": 15,
    "city": "新潟市秋葉区",
    "city_kana": "ニイガタシアキハク",
    "town": "草水町",
    "town_kana": "クソウズチョウ",
    "street": null,
    "office_name": null,
    "office_name_kana": null
  },
  "0834": {
    "postcode": "9560834",
    "prefecture": "新潟県",
    "prefecture_kana": "ニイガタケン",
    "prefecture_code": 15,
    "city": "新潟市秋葉区",
    "city_kana": "ニイガタシアキハク",
    "town": "小口",
    "town_kana": "コグチ",
    "street": null,
    "office_name": null,
    "office_name_kana": null
  },
  "0835": {
    "postcode": "9560835",
    "prefecture": "新潟県",
    "prefecture_kana": "ニイガタケン",
    "prefecture_code": 15,
    "city": "新潟市秋葉区",
    "city_kana": "ニイガタシアキハク",
    "town": "朝日",
    "town_kana": "アサヒ",
    "street": null,
    "office_name": null,
    "office_name_kana": null
  },
  "0836": {
    "postcode": "9560836",
    "prefecture": "新潟県",
    "prefecture_kana": "ニイガタケン",
    "prefecture_code": 15,
    "city": "新潟市秋葉区",
    "city_kana": "ニイガタシアキハク",
    "town": "田家",
    "town_kana": "タイ",
    "street": null,
    "office_name": null,
    "office_name_kana": null
  },
  "0837": {
    "postcode": "9560837",
    "prefecture": "新潟県",
    "prefecture_kana": "ニイガタケン",
    "prefecture_code": 15,
    "city": "新潟市秋葉区",
    "city_kana": "ニイガタシアキハク",
    "town": "吉岡町",
    "town_kana": "ヨシオカチョウ",
    "street": null,
    "office_name": null,
    "office_name_kana": null
  },
  "0841": {
    "postcode": "9560841",
    "prefecture": "新潟県",
    "prefecture_kana": "ニイガタケン",
    "prefecture_code": 15,
    "city": "新潟市秋葉区",
    "city_kana": "ニイガタシアキハク",
    "town": "東島",
    "town_kana": "ヒガシジマ",
    "street": null,
    "office_name": null,
    "office_name_kana": null
  },
  "0842": {
    "postcode": "9560842",
    "prefecture": "新潟県",
    "prefecture_kana": "ニイガタケン",
    "prefecture_code": 15,
    "city": "新潟市秋葉区",
    "city_kana": "ニイガタシアキハク",
    "town": "西島",
    "town_kana": "ニシジマ",
    "street": null,
    "office_name": null,
    "office_name_kana": null
  },
  "0843": {
    "postcode": "9560843",
    "prefecture": "新潟県",
    "prefecture_kana": "ニイガタケン",
    "prefecture_code": 15,
    "city": "新潟市秋葉区",
    "city_kana": "ニイガタシアキハク",
    "town": "割町",
    "town_kana": "ワリマチ",
    "street": null,
    "office_name": null,
    "office_name_kana": null
  },
  "0844": {
    "postcode": "9560844",
    "prefecture": "新潟県",
    "prefecture_kana": "ニイガタケン",
    "prefecture_code": 15,
    "city": "新潟市秋葉区",
    "city_kana": "ニイガタシアキハク",
    "town": "塩谷",
    "town_kana": "シオダニ",
    "street": null,
    "office_name": null,
    "office_name_kana": null
  },
  "0845": {
    "postcode": "9560845",
    "prefecture": "新潟県",
    "prefecture_kana": "ニイガタケン",
    "prefecture_code": 15,
    "city": "新潟市秋葉区",
    "city_kana": "ニイガタシアキハク",
    "town": "金津",
    "town_kana": "カナヅ",
    "street": null,
    "office_name": null,
    "office_name_kana": null
  },
  "0846": {
    "postcode": "9560846",
    "prefecture": "新潟県",
    "prefecture_kana": "ニイガタケン",
    "prefecture_code": 15,
    "city": "新潟市秋葉区",
    "city_kana": "ニイガタシアキハク",
    "town": "蒲ヶ沢",
    "town_kana": "ガワガサワ",
    "street": null,
    "office_name": null,
    "office_name_kana": null
  },
  "0847": {
    "postcode": "9560847",
    "prefecture": "新潟県",
    "prefecture_kana": "ニイガタケン",
    "prefecture_code": 15,
    "city": "新潟市秋葉区",
    "city_kana": "ニイガタシアキハク",
    "town": "古津",
    "town_kana": "フルツ",
    "street": null,
    "office_name": null,
    "office_name_kana": null
  },
  "0851": {
    "postcode": "9560851",
    "prefecture": "新潟県",
    "prefecture_kana": "ニイガタケン",
    "prefecture_code": 15,
    "city": "新潟市秋葉区",
    "city_kana": "ニイガタシアキハク",
    "town": "金沢町",
    "town_kana": "カナザワチョウ",
    "street": null,
    "office_name": null,
    "office_name_kana": null
  },
  "0852": {
    "postcode": "9560852",
    "prefecture": "新潟県",
    "prefecture_kana": "ニイガタケン",
    "prefecture_code": 15,
    "city": "新潟市秋葉区",
    "city_kana": "ニイガタシアキハク",
    "town": "柄目木",
    "town_kana": "ガラメキ",
    "street": null,
    "office_name": null,
    "office_name_kana": null
  },
  "0853": {
    "postcode": "9560853",
    "prefecture": "新潟県",
    "prefecture_kana": "ニイガタケン",
    "prefecture_code": 15,
    "city": "新潟市秋葉区",
    "city_kana": "ニイガタシアキハク",
    "town": "飯柳",
    "town_kana": "イヤナギ",
    "street": null,
    "office_name": null,
    "office_name_kana": null
  },
  "0854": {
    "postcode": "9560854",
    "prefecture": "新潟県",
    "prefecture_kana": "ニイガタケン",
    "prefecture_code": 15,
    "city": "新潟市秋葉区",
    "city_kana": "ニイガタシアキハク",
    "town": "滝谷町",
    "town_kana": "タキヤチョウ",
    "street": null,
    "office_name": null,
    "office_name_kana": null
  },
  "0855": {
    "postcode": "9560855",
    "prefecture": "新潟県",
    "prefecture_kana": "ニイガタケン",
    "prefecture_code": 15,
    "city": "新潟市秋葉区",
    "city_kana": "ニイガタシアキハク",
    "town": "滝谷本町",
    "town_kana": "タキヤホンチョウ",
    "street": null,
    "office_name": null,
    "office_name_kana": null
  },
  "0861": {
    "postcode": "9560861",
    "prefecture": "新潟県",
    "prefecture_kana": "ニイガタケン",
    "prefecture_code": 15,
    "city": "新潟市秋葉区",
    "city_kana": "ニイガタシアキハク",
    "town": "北上",
    "town_kana": "キタカミ",
    "street": null,
    "office_name": null,
    "office_name_kana": null
  },
  "0862": {
    "postcode": "9560862",
    "prefecture": "新潟県",
    "prefecture_kana": "ニイガタケン",
    "prefecture_code": 15,
    "city": "新潟市秋葉区",
    "city_kana": "ニイガタシアキハク",
    "town": "新町",
    "town_kana": "シンマチ",
    "street": null,
    "office_name": null,
    "office_name_kana": null
  },
  "0863": {
    "postcode": "9560863",
    "prefecture": "新潟県",
    "prefecture_kana": "ニイガタケン",
    "prefecture_code": 15,
    "city": "新潟市秋葉区",
    "city_kana": "ニイガタシアキハク",
    "town": "日宝町",
    "town_kana": "ニッポウチョウ",
    "street": null,
    "office_name": null,
    "office_name_kana": null
  },
  "0864": {
    "postcode": "9560864",
    "prefecture": "新潟県",
    "prefecture_kana": "ニイガタケン",
    "prefecture_code": 15,
    "city": "新潟市秋葉区",
    "city_kana": "ニイガタシアキハク",
    "town": "新津本町",
    "town_kana": "ニイツホンチョウ",
    "street": null,
    "office_name": null,
    "office_name_kana": null
  },
  "0865": {
    "postcode": "9560865",
    "prefecture": "新潟県",
    "prefecture_kana": "ニイガタケン",
    "prefecture_code": 15,
    "city": "新潟市秋葉区",
    "city_kana": "ニイガタシアキハク",
    "town": "善道町",
    "town_kana": "ゼンドウチョウ",
    "street": null,
    "office_name": null,
    "office_name_kana": null
  },
  "0866": {
    "postcode": "9560866",
    "prefecture": "新潟県",
    "prefecture_kana": "ニイガタケン",
    "prefecture_code": 15,
    "city": "新潟市秋葉区",
    "city_kana": "ニイガタシアキハク",
    "town": "下興野町",
    "town_kana": "シモゴヤチョウ",
    "street": null,
    "office_name": null,
    "office_name_kana": null
  },
  "0867": {
    "postcode": "9560867",
    "prefecture": "新潟県",
    "prefecture_kana": "ニイガタケン",
    "prefecture_code": 15,
    "city": "新潟市秋葉区",
    "city_kana": "ニイガタシアキハク",
    "town": "下興野",
    "town_kana": "シモゴヤ",
    "street": null,
    "office_name": null,
    "office_name_kana": null
  },
  "8601": {
    "postcode": "9568601",
    "prefecture": "新潟県",
    "prefecture_kana": "ニイガタケン",
    "prefecture_code": 15,
    "city": "新潟市秋葉区",
    "city_kana": "ニイガタシアキハク",
    "town": "程島",
    "town_kana": "ホドジマ",
    "street": "２００９",
    "office_name": "新潟市秋葉区役所",
    "office_name_kana": "ニイガタシアキハクヤクシヨ"
  },
  "8602": {
    "postcode": "9568602",
    "prefecture": "新潟県",
    "prefecture_kana": "ニイガタケン",
    "prefecture_code": 15,
    "city": "新潟市秋葉区",
    "city_kana": "ニイガタシアキハク",
    "town": "善道町",
    "town_kana": "ゼンドウチョウ",
    "street": "１丁目６−３８（新津郵便局私書箱第１０号）",
    "office_name": "新津税務署",
    "office_name_kana": "ニイツゼイムシヨ"
  },
  "8603": {
    "postcode": "9568603",
    "prefecture": "新潟県",
    "prefecture_kana": "ニイガタケン",
    "prefecture_code": 15,
    "city": "新潟市秋葉区",
    "city_kana": "ニイガタシアキハク",
    "town": "東島",
    "town_kana": "ヒガシジマ",
    "street": "２６５番地１",
    "office_name": "新潟薬科大学",
    "office_name_kana": "ニイガタヤツカダイガク"
  },
  "8625": {
    "postcode": "9568625",
    "prefecture": "新潟県",
    "prefecture_kana": "ニイガタケン",
    "prefecture_code": 15,
    "city": "新潟市秋葉区",
    "city_kana": "ニイガタシアキハク",
    "town": "新津",
    "town_kana": "ニイツ",
    "street": "４５２４−１",
    "office_name": "新潟地域振興局",
    "office_name_kana": "ニイガタチイキシンコウキヨク"
  },
  "8635": {
    "postcode": "9568635",
    "prefecture": "新潟県",
    "prefecture_kana": "ニイガタケン",
    "prefecture_code": 15,
    "city": "新潟市秋葉区",
    "city_kana": "ニイガタシアキハク",
    "town": "程島",
    "town_kana": "ホドジマ",
    "street": "２００９秋葉区役所５階",
    "office_name": "新潟地域振興局　農林振興部",
    "office_name_kana": "ニイガタチイキシンコウキヨク ノウリンシンコウブ"
  }
}