{
  "0000": {
    "postcode": "9570000",
    "prefecture": "新潟県",
    "prefecture_kana": "ニイガタケン",
    "prefecture_code": 15,
    "city": "新発田市",
    "city_kana": "シバタシ",
    "town": "",
    "town_kana": "",
    "street": null,
    "office_name": null,
    "office_name_kana": null
  },
  "0001": {
    "postcode": "9570001",
    "prefecture": "新潟県",
    "prefecture_kana": "ニイガタケン",
    "prefecture_code": 15,
    "city": "新発田市",
    "city_kana": "シバタシ",
    "town": "道賀",
    "town_kana": "ドウガ",
    "street": null,
    "office_name": null,
    "office_name_kana": null
  },
  "0002": {
    "postcode": "9570002",
    "prefecture": "新潟県",
    "prefecture_kana": "ニイガタケン",
    "prefecture_code": 15,
    "city": "新発田市",
    "city_kana": "シバタシ",
    "town": "中谷内",
    "town_kana": "ナカヤチ",
    "street": null,
    "office_name": null,
    "office_name_kana": null
  },
  "0003": {
    "postcode": "9570003",
    "prefecture": "新潟県",
    "prefecture_kana": "ニイガタケン",
    "prefecture_code": 15,
    "city": "新発田市",
    "city_kana": "シバタシ",
    "town": "桑ノ口",
    "town_kana": "クワノグチ",
    "street": null,
    "office_name": null,
    "office_name_kana": null
  },
  "0004": {
    "postcode": "9570004",
    "prefecture": "新潟県",
    "prefecture_kana": "ニイガタケン",
    "prefecture_code": 15,
    "city": "新発田市",
    "city_kana": "シバタシ",
    "town": "西名柄",
    "town_kana": "ニシナガラ",
    "street": null,
    "office_name": null,
    "office_name_kana": null
  },
  "0005": {
    "postcode": "9570005",
    "prefecture": "新潟県",
    "prefecture_kana": "ニイガタケン",
    "prefecture_code": 15,
    "city": "新発田市",
    "city_kana": "シバタシ",
    "town": "長畑",
    "town_kana": "ナガバタケ",
    "street": null,
    "office_name": null,
    "office_name_kana": null
  },
  "0006": {
    "postcode": "9570006",
    "prefecture": "新潟県",
    "prefecture_kana": "ニイガタケン",
    "prefecture_code": 15,
    "city": "新発田市",
    "city_kana": "シバタシ",
    "town": "中田町",
    "town_kana": "ナカタチョウ",
    "street": null,
    "office_name": null,
    "office_name_kana": null
  },
  "0007": {
    "postcode": "9570007",
    "prefecture": "新潟県",
    "prefecture_kana": "ニイガタケン",
    "prefecture_code": 15,
    "city": "新発田市",
    "city_kana": "シバタシ",
    "town": "小舟町",
    "town_kana": "コフネチョウ",
    "street": null,
    "office_name": null,
    "office_name_kana": null
  },
  "0011": {
    "postcode": "9570011",
    "prefecture": "新潟県",
    "prefecture_kana": "ニイガタケン",
    "prefecture_code": 15,
    "city": "新発田市",
    "city_kana": "シバタシ",
    "town": "島潟",
    "town_kana": "シマガタ",
    "street": null,
    "office_name": null,
    "office_name_kana": null
  },
  "0012": {
    "postcode": "9570012",
    "prefecture": "新潟県",
    "prefecture_kana": "ニイガタケン",
    "prefecture_code": 15,
    "city": "新発田市",
    "city_kana": "シバタシ",
    "town": "東塚ノ目",
    "town_kana": "ヒガシツカノメ",
    "street": null,
    "office_name": null,
    "office_name_kana": null
  },
  "0013": {
    "postcode": "9570013",
    "prefecture": "新潟県",
    "prefecture_kana": "ニイガタケン",
    "prefecture_code": 15,
    "city": "新発田市",
    "city_kana": "シバタシ",
    "town": "板敷",
    "town_kana": "イタジキ",
    "street": null,
    "office_name": null,
    "office_name_kana": null
  },
  "0014": {
    "postcode": "9570014",
    "prefecture": "新潟県",
    "prefecture_kana": "ニイガタケン",
    "prefecture_code": 15,
    "city": "新発田市",
    "city_kana": "シバタシ",
    "town": "金谷",
    "town_kana": "カナヤ",
    "street": null,
    "office_name": null,
    "office_name_kana": null
  },
  "0015": {
    "postcode": "9570015",
    "prefecture": "新潟県",
    "prefecture_kana": "ニイガタケン",
    "prefecture_code": 15,
    "city": "新発田市",
    "city_kana": "シバタシ",
    "town": "東新町",
    "town_kana": "トウシンチョウ",
    "street": null,
    "office_name": null,
    "office_name_kana": null
  },
  "0016": {
    "postcode": "9570016",
    "prefecture": "新潟県",
    "prefecture_kana": "ニイガタケン",
    "prefecture_code": 15,
    "city": "新発田市",
    "city_kana": "シバタシ",
    "town": "豊町",
    "town_kana": "ユタカチョウ",
    "street": null,
    "office_name": null,
    "office_name_kana": null
  },
  "0017": {
    "postcode": "9570017",
    "prefecture": "新潟県",
    "prefecture_kana": "ニイガタケン",
    "prefecture_code": 15,
    "city": "新発田市",
    "city_kana": "シバタシ",
    "town": "新富町",
    "town_kana": "シントミチョウ",
    "street": null,
    "office_name": null,
    "office_name_kana": null
  },
  "0018": {
    "postcode": "9570018",
    "prefecture": "新潟県",
    "prefecture_kana": "ニイガタケン",
    "prefecture_code": 15,
    "city": "新発田市",
    "city_kana": "シバタシ",
    "town": "緑町",
    "town_kana": "ミドリチョウ",
    "street": null,
    "office_name": null,
    "office_name_kana": null
  },
  "0021": {
    "postcode": "9570021",
    "prefecture": "新潟県",
    "prefecture_kana": "ニイガタケン",
    "prefecture_code": 15,
    "city": "新発田市",
    "city_kana": "シバタシ",
    "town": "五十公野",
    "town_kana": "イジミノ",
    "street": null,
    "office_name": null,
    "office_name_kana": null
  },
  "0022": {
    "postcode": "9570022",
    "prefecture": "新潟県",
    "prefecture_kana": "ニイガタケン",
    "prefecture_code": 15,
    "city": "新発田市",
    "city_kana": "シバタシ",
    "town": "古寺",
    "town_kana": "フルテラ",
    "street": null,
    "office_name": null,
    "office_name_kana": null
  },
  "0023": {
    "postcode": "9570023",
    "prefecture": "新潟県",
    "prefecture_kana": "ニイガタケン",
    "prefecture_code": 15,
    "city": "新発田市",
    "city_kana": "シバタシ",
    "town": "下新保",
    "town_kana": "シモシンボ",
    "street": null,
    "office_name": null,
    "office_name_kana": null
  },
  "0024": {
    "postcode": "9570024",
    "prefecture": "新潟県",
    "prefecture_kana": "ニイガタケン",
    "prefecture_code": 15,
    "city": "新発田市",
    "city_kana": "シバタシ",
    "town": "上新保",
    "town_kana": "カミシンボ",
    "street": null,
    "office_name": null,
    "office_name_kana": null
  },
  "0025": {
    "postcode": "9570025",
    "prefecture": "新潟県",
    "prefecture_kana": "ニイガタケン",
    "prefecture_code": 15,
    "city": "新発田市",
    "city_kana": "シバタシ",
    "town": "上内竹",
    "town_kana": "カミナイダケ",
    "street": null,
    "office_name": null,
    "office_name_kana": null
  },
  "0026": {
    "postcode": "9570026",
    "prefecture": "新潟県",
    "prefecture_kana": "ニイガタケン",
    "prefecture_code": 15,
    "city": "新発田市",
    "city_kana": "シバタシ",
    "town": "下内竹",
    "town_kana": "シモナイダケ",
    "street": null,
    "office_name": null,
    "office_name_kana": null
  },
  "0027": {
    "postcode": "9570027",
    "prefecture": "新潟県",
    "prefecture_kana": "ニイガタケン",
    "prefecture_code": 15,
    "city": "新発田市",
    "city_kana": "シバタシ",
    "town": "六日町",
    "town_kana": "ムイカマチ",
    "street": null,
    "office_name": null,
    "office_name_kana": null
  },
  "0028": {
    "postcode": "9570028",
    "prefecture": "新潟県",
    "prefecture_kana": "ニイガタケン",
    "prefecture_code": 15,
    "city": "新発田市",
    "city_kana": "シバタシ",
    "town": "山崎",
    "town_kana": "ヤマザキ",
    "street": null,
    "office_name": null,
    "office_name_kana": null
  },
  "0031": {
    "postcode": "9570031",
    "prefecture": "新潟県",
    "prefecture_kana": "ニイガタケン",
    "prefecture_code": 15,
    "city": "新発田市",
    "city_kana": "シバタシ",
    "town": "小友",
    "town_kana": "オドモ",
    "street": null,
    "office_name": null,
    "office_name_kana": null
  },
  "0032": {
    "postcode": "9570032",
    "prefecture": "新潟県",
    "prefecture_kana": "ニイガタケン",
    "prefecture_code": 15,
    "city": "新発田市",
    "city_kana": "シバタシ",
    "town": "八幡新田",
    "town_kana": "ヤワタシンデン",
    "street": null,
    "office_name": null,
    "office_name_kana": null
  },
  "0033": {
    "postcode": "9570033",
    "prefecture": "新潟県",
    "prefecture_kana": "ニイガタケン",
    "prefecture_code": 15,
    "city": "新発田市",
    "city_kana": "シバタシ",
    "town": "八幡",
    "town_kana": "ヤワタ",
    "street": null,
    "office_name": null,
    "office_name_kana": null
  },
  "0034": {
    "postcode": "9570034",
    "prefecture": "新潟県",
    "prefecture_kana": "ニイガタケン",
    "prefecture_code": 15,
    "city": "新発田市",
    "city_kana": "シバタシ",
    "town": "小見",
    "town_kana": "オミ",
    "street": null,
    "office_name": null,
    "office_name_kana": null
  },
  "0035": {
    "postcode": "9570035",
    "prefecture": "新潟県",
    "prefecture_kana": "ニイガタケン",
    "prefecture_code": 15,
    "city": "新発田市",
    "city_kana": "シバタシ",
    "town": "丑首",
    "town_kana": "ウシクビ",
    "street": null,
    "office_name": null,
    "office_name_kana": null
  },
  "0036": {
    "postcode": "9570036",
    "prefecture": "新潟県",
    "prefecture_kana": "ニイガタケン",
    "prefecture_code": 15,
    "city": "新発田市",
    "city_kana": "シバタシ",
    "town": "米倉",
    "town_kana": "ヨネクラ",
    "street": null,
    "office_name": null,
    "office_name_kana": null
  },
  "0037": {
    "postcode": "9570037",
    "prefecture": "新潟県",
    "prefecture_kana": "ニイガタケン",
    "prefecture_code": 15,
    "city": "新発田市",
    "city_kana": "シバタシ",
    "town": "江口",
    "town_kana": "エグチ",
    "street": null,
    "office_name": null,
    "office_name_kana": null
  },
  "0041": {
    "postcode": "9570041",
    "prefecture": "新潟県",
    "prefecture_kana": "ニイガタケン",
    "prefecture_code": 15,
    "city": "新発田市",
    "city_kana": "シバタシ",
    "town": "浦新田",
    "town_kana": "ウラシンデン",
    "street": null,
    "office_name": null,
    "office_name_kana": null
  },
  "0042": {
    "postcode": "9570042",
    "prefecture": "新潟県",
    "prefecture_kana": "ニイガタケン",
    "prefecture_code": 15,
    "city": "新発田市",
    "city_kana": "シバタシ",
    "town": "浦",
    "town_kana": "ウラ",
    "street": null,
    "office_name": null,
    "office_name_kana": null
  },
  "0043": {
    "postcode": "9570043",
    "prefecture": "新潟県",
    "prefecture_kana": "ニイガタケン",
    "prefecture_code": 15,
    "city": "新発田市",
    "city_kana": "シバタシ",
    "town": "大崎",
    "town_kana": "オオサキ",
    "street": null,
    "office_name": null,
    "office_name_kana": null
  },
  "0044": {
    "postcode": "9570044",
    "prefecture": "新潟県",
    "prefecture_kana": "ニイガタケン",
    "prefecture_code": 15,
    "city": "新発田市",
    "city_kana": "シバタシ",
    "town": "松岡",
    "town_kana": "マツオカ",
    "street": null,
    "office_name": null,
    "office_name_kana": null
  },
  "0045": {
    "postcode": "9570045",
    "prefecture": "新潟県",
    "prefecture_kana": "ニイガタケン",
    "prefecture_code": 15,
    "city": "新発田市",
    "city_kana": "シバタシ",
    "town": "荒川",
    "town_kana": "アラカワ",
    "street": null,
    "office_name": null,
    "office_name_kana": null
  },
  "0046": {
    "postcode": "9570046",
    "prefecture": "新潟県",
    "prefecture_kana": "ニイガタケン",
    "prefecture_code": 15,
    "city": "新発田市",
    "city_kana": "シバタシ",
    "town": "上中山",
    "town_kana": "カミナカヤマ",
    "street": null,
    "office_name": null,
    "office_name_kana": null
  },
  "0047": {
    "postcode": "9570047",
    "prefecture": "新潟県",
    "prefecture_kana": "ニイガタケン",
    "prefecture_code": 15,
    "city": "新発田市",
    "city_kana": "シバタシ",
    "town": "法正橋",
    "town_kana": "ホウジョウバシ",
    "street": null,
    "office_name": null,
    "office_name_kana": null
  },
  "0048": {
    "postcode": "9570048",
    "prefecture": "新潟県",
    "prefecture_kana": "ニイガタケン",
    "prefecture_code": 15,
    "city": "新発田市",
    "city_kana": "シバタシ",
    "town": "瑞波",
    "town_kana": "ミズナミ",
    "street": null,
    "office_name": null,
    "office_name_kana": null
  },
  "0051": {
    "postcode": "9570051",
    "prefecture": "新潟県",
    "prefecture_kana": "ニイガタケン",
    "prefecture_code": 15,
    "city": "新発田市",
    "city_kana": "シバタシ",
    "town": "城北町",
    "town_kana": "ジョウホクチョウ",
    "street": null,
    "office_name": null,
    "office_name_kana": null
  },
  "0052": {
    "postcode": "9570052",
    "prefecture": "新潟県",
    "prefecture_kana": "ニイガタケン",
    "prefecture_code": 15,
    "city": "新発田市",
    "city_kana": "シバタシ",
    "town": "大手町",
    "town_kana": "オオテマチ",
    "street": null,
    "office_name": null,
    "office_name_kana": null
  },
  "0053": {
    "postcode": "9570053",
    "prefecture": "新潟県",
    "prefecture_kana": "ニイガタケン",
    "prefecture_code": 15,
    "city": "新発田市",
    "city_kana": "シバタシ",
    "town": "中央町",
    "town_kana": "チュウオウチョウ",
    "street": null,
    "office_name": null,
    "office_name_kana": null
  },
  "0054": {
    "postcode": "9570054",
    "prefecture": "新潟県",
    "prefecture_kana": "ニイガタケン",
    "prefecture_code": 15,
    "city": "新発田市",
    "city_kana": "シバタシ",
    "town": "本町",
    "town_kana": "ホンチョウ",
    "street": null,
    "office_name": null,
    "office_name_kana": null
  },
  "0055": {
    "postcode": "9570055",
    "prefecture": "新潟県",
    "prefecture_kana": "ニイガタケン",
    "prefecture_code": 15,
    "city": "新発田市",
    "city_kana": "シバタシ",
    "town": "諏訪町",
    "town_kana": "スワチョウ",
    "street": null,
    "office_name": null,
    "office_name_kana": null
  },
  "0056": {
    "postcode": "9570056",
    "prefecture": "新潟県",
    "prefecture_kana": "ニイガタケン",
    "prefecture_code": 15,
    "city": "新発田市",
    "city_kana": "シバタシ",
    "town": "大栄町",
    "town_kana": "ダイエイチョウ",
    "street": null,
    "office_name": null,
    "office_name_kana": null
  },
  "0057": {
    "postcode": "9570057",
    "prefecture": "新潟県",
    "prefecture_kana": "ニイガタケン",
    "prefecture_code": 15,
    "city": "新発田市",
    "city_kana": "シバタシ",
    "town": "御幸町",
    "town_kana": "ミユキチョウ",
    "street": null,
    "office_name": null,
    "office_name_kana": null
  },
  "0058": {
    "postcode": "9570058",
    "prefecture": "新潟県",
    "prefecture_kana": "ニイガタケン",
    "prefecture_code": 15,
    "city": "新発田市",
    "city_kana": "シバタシ",
    "town": "西園町",
    "town_kana": "ニシゾノチョウ",
    "street": null,
    "office_name": null,
    "office_name_kana": null
  },
  "0061": {
    "postcode": "9570061",
    "prefecture": "新潟県",
    "prefecture_kana": "ニイガタケン",
    "prefecture_code": 15,
    "city": "新発田市",
    "city_kana": "シバタシ",
    "town": "住吉町",
    "town_kana": "スミヨシチョウ",
    "street": null,
    "office_name": null,
    "office_name_kana": null
  },
  "0062": {
    "postcode": "9570062",
    "prefecture": "新潟県",
    "prefecture_kana": "ニイガタケン",
    "prefecture_code": 15,
    "city": "新発田市",
    "city_kana": "シバタシ",
    "town": "富塚町",
    "town_kana": "トミツカチョウ",
    "street": null,
    "office_name": null,
    "office_name_kana": null
  },
  "0063": {
    "postcode": "9570063",
    "prefecture": "新潟県",
    "prefecture_kana": "ニイガタケン",
    "prefecture_code": 15,
    "city": "新発田市",
    "city_kana": "シバタシ",
    "town": "新栄町",
    "town_kana": "シンエイチョウ",
    "street": null,
    "office_name": null,
    "office_name_kana": null
  },
  "0064": {
    "postcode": "9570064",
    "prefecture": "新潟県",
    "prefecture_kana": "ニイガタケン",
    "prefecture_code": 15,
    "city": "新発田市",
    "city_kana": "シバタシ",
    "town": "奥山新保",
    "town_kana": "オクヤマシンボ",
    "street": null,
    "office_name": null,
    "office_name_kana": null
  },
  "0065": {
    "postcode": "9570065",
    "prefecture": "新潟県",
    "prefecture_kana": "ニイガタケン",
    "prefecture_code": 15,
    "city": "新発田市",
    "city_kana": "シバタシ",
    "town": "舟入町",
    "town_kana": "フネイリチョウ",
    "street": null,
    "office_name": null,
    "office_name_kana": null
  },
  "0066": {
    "postcode": "9570066",
    "prefecture": "新潟県",
    "prefecture_kana": "ニイガタケン",
    "prefecture_code": 15,
    "city": "新発田市",
    "city_kana": "シバタシ",
    "town": "舟入",
    "town_kana": "フナイリ",
    "street": null,
    "office_name": null,
    "office_name_kana": null
  },
  "0067": {
    "postcode": "9570067",
    "prefecture": "新潟県",
    "prefecture_kana": "ニイガタケン",
    "prefecture_code": 15,
    "city": "新発田市",
    "city_kana": "シバタシ",
    "town": "中曽根町",
    "town_kana": "ナカソネチョウ",
    "street": null,
    "office_name": null,
    "office_name_kana": null
  },
  "0071": {
    "postcode": "9570071",
    "prefecture": "新潟県",
    "prefecture_kana": "ニイガタケン",
    "prefecture_code": 15,
    "city": "新発田市",
    "city_kana": "シバタシ",
    "town": "曽根",
    "town_kana": "ソネ",
    "street": null,
    "office_name": null,
    "office_name_kana": null
  },
  "0072": {
    "postcode": "9570072",
    "prefecture": "新潟県",
    "prefecture_kana": "ニイガタケン",
    "prefecture_code": 15,
    "city": "新発田市",
    "city_kana": "シバタシ",
    "town": "日渡",
    "town_kana": "ヒワタシ",
    "street": null,
    "office_name": null,
    "office_name_kana": null
  },
  "0073": {
    "postcode": "9570073",
    "prefecture": "新潟県",
    "prefecture_kana": "ニイガタケン",
    "prefecture_code": 15,
    "city": "新発田市",
    "city_kana": "シバタシ",
    "town": "弓越",
    "town_kana": "ミコシ",
    "street": null,
    "office_name": null,
    "office_name_kana": null
  },
  "0074": {
    "postcode": "9570074",
    "prefecture": "新潟県",
    "prefecture_kana": "ニイガタケン",
    "prefecture_code": 15,
    "city": "新発田市",
    "city_kana": "シバタシ",
    "town": "北蓑口",
    "town_kana": "キタミノグチ",
    "street": null,
    "office_name": null,
    "office_name_kana": null
  },
  "0075": {
    "postcode": "9570075",
    "prefecture": "新潟県",
    "prefecture_kana": "ニイガタケン",
    "prefecture_code": 15,
    "city": "新発田市",
    "city_kana": "シバタシ",
    "town": "西蓑口",
    "town_kana": "ニシミノグチ",
    "street": null,
    "office_name": null,
    "office_name_kana": null
  },
  "0076": {
    "postcode": "9570076",
    "prefecture": "新潟県",
    "prefecture_kana": "ニイガタケン",
    "prefecture_code": 15,
    "city": "新発田市",
    "city_kana": "シバタシ",
    "town": "西宮内",
    "town_kana": "ニシミヤウチ",
    "street": null,
    "office_name": null,
    "office_name_kana": null
  },
  "0077": {
    "postcode": "9570077",
    "prefecture": "新潟県",
    "prefecture_kana": "ニイガタケン",
    "prefecture_code": 15,
    "city": "新発田市",
    "city_kana": "シバタシ",
    "town": "則清",
    "town_kana": "ノリキヨ",
    "street": null,
    "office_name": null,
    "office_name_kana": null
  },
  "0078": {
    "postcode": "9570078",
    "prefecture": "新潟県",
    "prefecture_kana": "ニイガタケン",
    "prefecture_code": 15,
    "city": "新発田市",
    "city_kana": "シバタシ",
    "town": "則清新田",
    "town_kana": "ノリキヨシンデン",
    "street": null,
    "office_name": null,
    "office_name_kana": null
  },
  "0081": {
    "postcode": "9570081",
    "prefecture": "新潟県",
    "prefecture_kana": "ニイガタケン",
    "prefecture_code": 15,
    "city": "新発田市",
    "city_kana": "シバタシ",
    "town": "上中沢",
    "town_kana": "カミナカザワ",
    "street": null,
    "office_name": null,
    "office_name_kana": null
  },
  "0082": {
    "postcode": "9570082",
    "prefecture": "新潟県",
    "prefecture_kana": "ニイガタケン",
    "prefecture_code": 15,
    "city": "新発田市",
    "city_kana": "シバタシ",
    "town": "佐々木",
    "town_kana": "ササキ",
    "street": null,
    "office_name": null,
    "office_name_kana": null
  },
  "0083": {
    "postcode": "9570083",
    "prefecture": "新潟県",
    "prefecture_kana": "ニイガタケン",
    "prefecture_code": 15,
    "city": "新発田市",
    "city_kana": "シバタシ",
    "town": "下興野",
    "town_kana": "シモコウヤ",
    "street": null,
    "office_name": null,
    "office_name_kana": null
  },
  "0084": {
    "postcode": "9570084",
    "prefecture": "新潟県",
    "prefecture_kana": "ニイガタケン",
    "prefecture_code": 15,
    "city": "新発田市",
    "city_kana": "シバタシ",
    "town": "飯島甲",
    "town_kana": "イイジマコウ",
    "street": null,
    "office_name": null,
    "office_name_kana": null
  },
  "0085": {
    "postcode": "9570085",
    "prefecture": "新潟県",
    "prefecture_kana": "ニイガタケン",
    "prefecture_code": 15,
    "city": "新発田市",
    "city_kana": "シバタシ",
    "town": "飯島乙",
    "town_kana": "イイジマオツ",
    "street": null,
    "office_name": null,
    "office_name_kana": null
  },
  "0086": {
    "postcode": "9570086",
    "prefecture": "新潟県",
    "prefecture_kana": "ニイガタケン",
    "prefecture_code": 15,
    "city": "新発田市",
    "city_kana": "シバタシ",
    "town": "飯島新田",
    "town_kana": "イイジマシンデン",
    "street": null,
    "office_name": null,
    "office_name_kana": null
  },
  "0087": {
    "postcode": "9570087",
    "prefecture": "新潟県",
    "prefecture_kana": "ニイガタケン",
    "prefecture_code": 15,
    "city": "新発田市",
    "city_kana": "シバタシ",
    "town": "砂山",
    "town_kana": "スナヤマ",
    "street": null,
    "office_name": null,
    "office_name_kana": null
  },
  "0091": {
    "postcode": "9570091",
    "prefecture": "新潟県",
    "prefecture_kana": "ニイガタケン",
    "prefecture_code": 15,
    "city": "新発田市",
    "city_kana": "シバタシ",
    "town": "太田新田",
    "town_kana": "オオタシンデン",
    "street": null,
    "office_name": null,
    "office_name_kana": null
  },
  "0092": {
    "postcode": "9570092",
    "prefecture": "新潟県",
    "prefecture_kana": "ニイガタケン",
    "prefecture_code": 15,
    "city": "新発田市",
    "city_kana": "シバタシ",
    "town": "鳥穴",
    "town_kana": "トリアナ",
    "street": null,
    "office_name": null,
    "office_name_kana": null
  },
  "0100": {
    "postcode": "9570100",
    "prefecture": "新潟県",
    "prefecture_kana": "ニイガタケン",
    "prefecture_code": 15,
    "city": "北蒲原郡聖籠町",
    "city_kana": "キタカンバラグンセイロウマチ",
    "town": "",
    "town_kana": "",
    "street": null,
    "office_name": null,
    "office_name_kana": null
  },
  "0101": {
    "postcode": "9570101",
    "prefecture": "新潟県",
    "prefecture_kana": "ニイガタケン",
    "prefecture_code": 15,
    "city": "北蒲原郡聖籠町",
    "city_kana": "キタカンバラグンセイロウマチ",
    "town": "東港",
    "town_kana": "ヒガシコウ",
    "street": null,
    "office_name": null,
    "office_name_kana": null
  },
  "0102": {
    "postcode": "9570102",
    "prefecture": "新潟県",
    "prefecture_kana": "ニイガタケン",
    "prefecture_code": 15,
    "city": "北蒲原郡聖籠町",
    "city_kana": "キタカンバラグンセイロウマチ",
    "town": "位守町",
    "town_kana": "イモリチョウ",
    "street": null,
    "office_name": null,
    "office_name_kana": null
  },
  "0103": {
    "postcode": "9570103",
    "prefecture": "新潟県",
    "prefecture_kana": "ニイガタケン",
    "prefecture_code": 15,
    "city": "北蒲原郡聖籠町",
    "city_kana": "キタカンバラグンセイロウマチ",
    "town": "網代浜",
    "town_kana": "アジロハマ",
    "street": null,
    "office_name": null,
    "office_name_kana": null
  },
  "0104": {
    "postcode": "9570104",
    "prefecture": "新潟県",
    "prefecture_kana": "ニイガタケン",
    "prefecture_code": 15,
    "city": "北蒲原郡聖籠町",
    "city_kana": "キタカンバラグンセイロウマチ",
    "town": "亀塚",
    "town_kana": "カメヅカ",
    "street": null,
    "office_name": null,
    "office_name_kana": null
  },
  "0105": {
    "postcode": "9570105",
    "prefecture": "新潟県",
    "prefecture_kana": "ニイガタケン",
    "prefecture_code": 15,
    "city": "北蒲原郡聖籠町",
    "city_kana": "キタカンバラグンセイロウマチ",
    "town": "次第浜",
    "town_kana": "シダイハマ",
    "street": null,
    "office_name": null,
    "office_name_kana": null
  },
  "0106": {
    "postcode": "9570106",
    "prefecture": "新潟県",
    "prefecture_kana": "ニイガタケン",
    "prefecture_code": 15,
    "city": "北蒲原郡聖籠町",
    "city_kana": "キタカンバラグンセイロウマチ",
    "town": "蓮潟",
    "town_kana": "ハスガタ",
    "street": null,
    "office_name": null,
    "office_name_kana": null
  },
  "0111": {
    "postcode": "9570111",
    "prefecture": "新潟県",
    "prefecture_kana": "ニイガタケン",
    "prefecture_code": 15,
    "city": "北蒲原郡聖籠町",
    "city_kana": "キタカンバラグンセイロウマチ",
    "town": "真野",
    "town_kana": "マノ",
    "street": null,
    "office_name": null,
    "office_name_kana": null
  },
  "0112": {
    "postcode": "9570112",
    "prefecture": "新潟県",
    "prefecture_kana": "ニイガタケン",
    "prefecture_code": 15,
    "city": "北蒲原郡聖籠町",
    "city_kana": "キタカンバラグンセイロウマチ",
    "town": "道賀新田",
    "town_kana": "ドウガシンデン",
    "street": null,
    "office_name": null,
    "office_name_kana": null
  },
  "0113": {
    "postcode": "9570113",
    "prefecture": "新潟県",
    "prefecture_kana": "ニイガタケン",
    "prefecture_code": 15,
    "city": "北蒲原郡聖籠町",
    "city_kana": "キタカンバラグンセイロウマチ",
    "town": "上大谷内",
    "town_kana": "カミオオヤチ",
    "street": null,
    "office_name": null,
    "office_name_kana": null
  },
  "0114": {
    "postcode": "9570114",
    "prefecture": "新潟県",
    "prefecture_kana": "ニイガタケン",
    "prefecture_code": 15,
    "city": "北蒲原郡聖籠町",
    "city_kana": "キタカンバラグンセイロウマチ",
    "town": "丸潟",
    "town_kana": "マルガタ",
    "street": null,
    "office_name": null,
    "office_name_kana": null
  },
  "0115": {
    "postcode": "9570115",
    "prefecture": "新潟県",
    "prefecture_kana": "ニイガタケン",
    "prefecture_code": 15,
    "city": "北蒲原郡聖籠町",
    "city_kana": "キタカンバラグンセイロウマチ",
    "town": "桃山",
    "town_kana": "モモヤマ",
    "street": null,
    "office_name": null,
    "office_name_kana": null
  },
  "0116": {
    "postcode": "9570116",
    "prefecture": "新潟県",
    "prefecture_kana": "ニイガタケン",
    "prefecture_code": 15,
    "city": "北蒲原郡聖籠町",
    "city_kana": "キタカンバラグンセイロウマチ",
    "town": "山倉",
    "town_kana": "ヤマグラ",
    "street": null,
    "office_name": null,
    "office_name_kana": null
  },
  "0117": {
    "postcode": "9570117",
    "prefecture": "新潟県",
    "prefecture_kana": "ニイガタケン",
    "prefecture_code": 15,
    "city": "北蒲原郡聖籠町",
    "city_kana": "キタカンバラグンセイロウマチ",
    "town": "諏訪山",
    "town_kana": "スワヤマ",
    "street": null,
    "office_name": null,
    "office_name_kana": null
  },
  "0121": {
    "postcode": "9570121",
    "prefecture": "新潟県",
    "prefecture_kana": "ニイガタケン",
    "prefecture_code": 15,
    "city": "北蒲原郡聖籠町",
    "city_kana": "キタカンバラグンセイロウマチ",
    "town": "大夫",
    "town_kana": "ダイブ",
    "street": null,
    "office_name": null,
    "office_name_kana": null
  },
  "0122": {
    "postcode": "9570122",
    "prefecture": "新潟県",
    "prefecture_kana": "ニイガタケン",
    "prefecture_code": 15,
    "city": "北蒲原郡聖籠町",
    "city_kana": "キタカンバラグンセイロウマチ",
    "town": "三賀",
    "town_kana": "サンガ",
    "street": null,
    "office_name": null,
    "office_name_kana": null
  },
  "0123": {
    "postcode": "9570123",
    "prefecture": "新潟県",
    "prefecture_kana": "ニイガタケン",
    "prefecture_code": 15,
    "city": "北蒲原郡聖籠町",
    "city_kana": "キタカンバラグンセイロウマチ",
    "town": "二本松",
    "town_kana": "ニホンマツ",
    "street": null,
    "office_name": null,
    "office_name_kana": null
  },
  "0124": {
    "postcode": "9570124",
    "prefecture": "新潟県",
    "prefecture_kana": "ニイガタケン",
    "prefecture_code": 15,
    "city": "北蒲原郡聖籠町",
    "city_kana": "キタカンバラグンセイロウマチ",
    "town": "蓮野",
    "town_kana": "ハスノ",
    "street": null,
    "office_name": null,
    "office_name_kana": null
  },
  "0125": {
    "postcode": "9570125",
    "prefecture": "新潟県",
    "prefecture_kana": "ニイガタケン",
    "prefecture_code": 15,
    "city": "北蒲原郡聖籠町",
    "city_kana": "キタカンバラグンセイロウマチ",
    "town": "別條",
    "town_kana": "ベッジョウ",
    "street": null,
    "office_name": null,
    "office_name_kana": null
  },
  "0126": {
    "postcode": "9570126",
    "prefecture": "新潟県",
    "prefecture_kana": "ニイガタケン",
    "prefecture_code": 15,
    "city": "北蒲原郡聖籠町",
    "city_kana": "キタカンバラグンセイロウマチ",
    "town": "大夫興野",
    "town_kana": "ダイブコウヤ",
    "street": null,
    "office_name": null,
    "office_name_kana": null
  },
  "0127": {
    "postcode": "9570127",
    "prefecture": "新潟県",
    "prefecture_kana": "ニイガタケン",
    "prefecture_code": 15,
    "city": "北蒲原郡聖籠町",
    "city_kana": "キタカンバラグンセイロウマチ",
    "town": "藤寄",
    "town_kana": "フジヨセ",
    "street": null,
    "office_name": null,
    "office_name_kana": null
  },
  "0192": {
    "postcode": "9570192",
    "prefecture": "新潟県",
    "prefecture_kana": "ニイガタケン",
    "prefecture_code": 15,
    "city": "北蒲原郡聖籠町",
    "city_kana": "キタカンバラグンセイロウマチ",
    "town": "大字諏訪山",
    "town_kana": null,
    "street": "１６３５−４",
    "office_name": "聖籠町役場",
    "office_name_kana": "セイロウマチヤクバ"
  },
  "0193": {
    "postcode": "9570193",
    "prefecture": "新潟県",
    "prefecture_kana": "ニイガタケン",
    "prefecture_code": 15,
    "city": "北蒲原郡聖籠町",
    "city_kana": "キタカンバラグンセイロウマチ",
    "town": "東港",
    "town_kana": "ヒガシコウ",
    "street": "７丁目１−１",
    "office_name": "新潟県　警察本部運転免許センター",
    "office_name_kana": "ニイガタケン ケイサツホンブウンテンメンキヨセンタ-"
  },
  "0195": {
    "postcode": "9570195",
    "prefecture": "新潟県",
    "prefecture_kana": "ニイガタケン",
    "prefecture_code": 15,
    "city": "北蒲原郡聖籠町",
    "city_kana": "キタカンバラグンセイロウマチ",
    "town": "東港",
    "town_kana": "ヒガシコウ",
    "street": "１丁目１６１２−３",
    "office_name": "日本海エル・エヌ・ジー　株式会社",
    "office_name_kana": "ニホンカイエル・エヌ・ジ- カブシキガイシヤ"
  },
  "0196": {
    "postcode": "9570196",
    "prefecture": "新潟県",
    "prefecture_kana": "ニイガタケン",
    "prefecture_code": 15,
    "city": "北蒲原郡聖籠町",
    "city_kana": "キタカンバラグンセイロウマチ",
    "town": "位守町",
    "town_kana": "イモリチョウ",
    "street": "１６０−１９",
    "office_name": "株式会社　堀川",
    "office_name_kana": "カブシキガイシヤ ホリカワ"
  },
  "0197": {
    "postcode": "9570197",
    "prefecture": "新潟県",
    "prefecture_kana": "ニイガタケン",
    "prefecture_code": 15,
    "city": "北蒲原郡聖籠町",
    "city_kana": "キタカンバラグンセイロウマチ",
    "town": "東港",
    "town_kana": "ヒガシコウ",
    "street": "６丁目８６１−５",
    "office_name": "グローバルウェーハズ・ジャパン　株式会社",
    "office_name_kana": "グロ-バルウエ-ハズ・ジヤパン カブシキガイシヤ"
  },
  "0201": {
    "postcode": "9570201",
    "prefecture": "新潟県",
    "prefecture_kana": "ニイガタケン",
    "prefecture_code": 15,
    "city": "新発田市",
    "city_kana": "シバタシ",
    "town": "真中",
    "town_kana": "マナカ",
    "street": null,
    "office_name": null,
    "office_name_kana": null
  },
  "0202": {
    "postcode": "9570202",
    "prefecture": "新潟県",
    "prefecture_kana": "ニイガタケン",
    "prefecture_code": 15,
    "city": "新発田市",
    "city_kana": "シバタシ",
    "town": "古田",
    "town_kana": "コダ",
    "street": null,
    "office_name": null,
    "office_name_kana": null
  },
  "0203": {
    "postcode": "9570203",
    "prefecture": "新潟県",
    "prefecture_kana": "ニイガタケン",
    "prefecture_code": 15,
    "city": "新発田市",
    "city_kana": "シバタシ",
    "town": "下中沢",
    "town_kana": "シモナカザワ",
    "street": null,
    "office_name": null,
    "office_name_kana": null
  },
  "0204": {
    "postcode": "9570204",
    "prefecture": "新潟県",
    "prefecture_kana": "ニイガタケン",
    "prefecture_code": 15,
    "city": "新発田市",
    "city_kana": "シバタシ",
    "town": "稲荷岡",
    "town_kana": "イナリオカ",
    "street": null,
    "office_name": null,
    "office_name_kana": null
  },
  "0205": {
    "postcode": "9570205",
    "prefecture": "新潟県",
    "prefecture_kana": "ニイガタケン",
    "prefecture_code": 15,
    "city": "新発田市",
    "city_kana": "シバタシ",
    "town": "関井",
    "town_kana": "セキイ",
    "street": null,
    "office_name": null,
    "office_name_kana": null
  },
  "0206": {
    "postcode": "9570206",
    "prefecture": "新潟県",
    "prefecture_kana": "ニイガタケン",
    "prefecture_code": 15,
    "city": "新発田市",
    "city_kana": "シバタシ",
    "town": "福岡",
    "town_kana": "フクオカ",
    "street": null,
    "office_name": null,
    "office_name_kana": null
  },
  "0207": {
    "postcode": "9570207",
    "prefecture": "新潟県",
    "prefecture_kana": "ニイガタケン",
    "prefecture_code": 15,
    "city": "新発田市",
    "city_kana": "シバタシ",
    "town": "富島",
    "town_kana": "トミジマ",
    "street": null,
    "office_name": null,
    "office_name_kana": null
  },
  "0212": {
    "postcode": "9570212",
    "prefecture": "新潟県",
    "prefecture_kana": "ニイガタケン",
    "prefecture_code": 15,
    "city": "新発田市",
    "city_kana": "シバタシ",
    "town": "片桐",
    "town_kana": "カタギリ",
    "street": null,
    "office_name": null,
    "office_name_kana": null
  },
  "0213": {
    "postcode": "9570213",
    "prefecture": "新潟県",
    "prefecture_kana": "ニイガタケン",
    "prefecture_code": 15,
    "city": "新発田市",
    "city_kana": "シバタシ",
    "town": "高島",
    "town_kana": "タカシマ",
    "street": null,
    "office_name": null,
    "office_name_kana": null
  },
  "0214": {
    "postcode": "9570214",
    "prefecture": "新潟県",
    "prefecture_kana": "ニイガタケン",
    "prefecture_code": 15,
    "city": "新発田市",
    "city_kana": "シバタシ",
    "town": "中島",
    "town_kana": "ナカジマ",
    "street": null,
    "office_name": null,
    "office_name_kana": null
  },
  "0215": {
    "postcode": "9570215",
    "prefecture": "新潟県",
    "prefecture_kana": "ニイガタケン",
    "prefecture_code": 15,
    "city": "新発田市",
    "city_kana": "シバタシ",
    "town": "住吉",
    "town_kana": "スミヨシ",
    "street": null,
    "office_name": null,
    "office_name_kana": null
  },
  "0216": {
    "postcode": "9570216",
    "prefecture": "新潟県",
    "prefecture_kana": "ニイガタケン",
    "prefecture_code": 15,
    "city": "新発田市",
    "city_kana": "シバタシ",
    "town": "南成田",
    "town_kana": "ミナミナリタ",
    "street": null,
    "office_name": null,
    "office_name_kana": null
  },
  "0217": {
    "postcode": "9570217",
    "prefecture": "新潟県",
    "prefecture_kana": "ニイガタケン",
    "prefecture_code": 15,
    "city": "新発田市",
    "city_kana": "シバタシ",
    "town": "大中島",
    "town_kana": "オオナカジマ",
    "street": null,
    "office_name": null,
    "office_name_kana": null
  },
  "0221": {
    "postcode": "9570221",
    "prefecture": "新潟県",
    "prefecture_kana": "ニイガタケン",
    "prefecture_code": 15,
    "city": "新発田市",
    "city_kana": "シバタシ",
    "town": "長者館",
    "town_kana": "チョウジャダテ",
    "street": null,
    "office_name": null,
    "office_name_kana": null
  },
  "0222": {
    "postcode": "9570222",
    "prefecture": "新潟県",
    "prefecture_kana": "ニイガタケン",
    "prefecture_code": 15,
    "city": "新発田市",
    "city_kana": "シバタシ",
    "town": "中野",
    "town_kana": "ナカノ",
    "street": null,
    "office_name": null,
    "office_name_kana": null
  },
  "0223": {
    "postcode": "9570223",
    "prefecture": "新潟県",
    "prefecture_kana": "ニイガタケン",
    "prefecture_code": 15,
    "city": "新発田市",
    "city_kana": "シバタシ",
    "town": "長島",
    "town_kana": "ナガシマ",
    "street": null,
    "office_name": null,
    "office_name_kana": null
  },
  "0224": {
    "postcode": "9570224",
    "prefecture": "新潟県",
    "prefecture_kana": "ニイガタケン",
    "prefecture_code": 15,
    "city": "新発田市",
    "city_kana": "シバタシ",
    "town": "小川",
    "town_kana": "オガワ",
    "street": null,
    "office_name": null,
    "office_name_kana": null
  },
  "0225": {
    "postcode": "9570225",
    "prefecture": "新潟県",
    "prefecture_kana": "ニイガタケン",
    "prefecture_code": 15,
    "city": "新発田市",
    "city_kana": "シバタシ",
    "town": "米子",
    "town_kana": "ヨネコ",
    "street": null,
    "office_name": null,
    "office_name_kana": null
  },
  "0226": {
    "postcode": "9570226",
    "prefecture": "新潟県",
    "prefecture_kana": "ニイガタケン",
    "prefecture_code": 15,
    "city": "新発田市",
    "city_kana": "シバタシ",
    "town": "宮吉",
    "town_kana": "ミヤヨシ",
    "street": null,
    "office_name": null,
    "office_name_kana": null
  },
  "0231": {
    "postcode": "9570231",
    "prefecture": "新潟県",
    "prefecture_kana": "ニイガタケン",
    "prefecture_code": 15,
    "city": "新発田市",
    "city_kana": "シバタシ",
    "town": "藤塚浜",
    "town_kana": "フジツカハマ",
    "street": null,
    "office_name": null,
    "office_name_kana": null
  },
  "0232": {
    "postcode": "9570232",
    "prefecture": "新潟県",
    "prefecture_kana": "ニイガタケン",
    "prefecture_code": 15,
    "city": "新発田市",
    "city_kana": "シバタシ",
    "town": "真野原外",
    "town_kana": "マノハラソト",
    "street": null,
    "office_name": null,
    "office_name_kana": null
  },
  "0233": {
    "postcode": "9570233",
    "prefecture": "新潟県",
    "prefecture_kana": "ニイガタケン",
    "prefecture_code": 15,
    "city": "新発田市",
    "city_kana": "シバタシ",
    "town": "真野原",
    "town_kana": "マノハラ",
    "street": null,
    "office_name": null,
    "office_name_kana": null
  },
  "0234": {
    "postcode": "9570234",
    "prefecture": "新潟県",
    "prefecture_kana": "ニイガタケン",
    "prefecture_code": 15,
    "city": "新発田市",
    "city_kana": "シバタシ",
    "town": "二ツ山",
    "town_kana": "フタツヤマ",
    "street": null,
    "office_name": null,
    "office_name_kana": null
  },
  "0235": {
    "postcode": "9570235",
    "prefecture": "新潟県",
    "prefecture_kana": "ニイガタケン",
    "prefecture_code": 15,
    "city": "新発田市",
    "city_kana": "シバタシ",
    "town": "人橋",
    "town_kana": "ヒトバシ",
    "street": null,
    "office_name": null,
    "office_name_kana": null
  },
  "0236": {
    "postcode": "9570236",
    "prefecture": "新潟県",
    "prefecture_kana": "ニイガタケン",
    "prefecture_code": 15,
    "city": "新発田市",
    "city_kana": "シバタシ",
    "town": "元郷",
    "town_kana": "モトゴウ",
    "street": null,
    "office_name": null,
    "office_name_kana": null
  },
  "0293": {
    "postcode": "9570293",
    "prefecture": "新潟県",
    "prefecture_kana": "ニイガタケン",
    "prefecture_code": 15,
    "city": "新発田市",
    "city_kana": "シバタシ",
    "town": "藤塚浜",
    "town_kana": "フジツカハマ",
    "street": "３３１０−３",
    "office_name": "片山食品　株式会社",
    "office_name_kana": "カタヤマシヨクヒン カブシキガイシヤ"
  },
  "0331": {
    "postcode": "9570331",
    "prefecture": "新潟県",
    "prefecture_kana": "ニイガタケン",
    "prefecture_code": 15,
    "city": "新発田市",
    "city_kana": "シバタシ",
    "town": "上三光",
    "town_kana": "カミサンコウ",
    "street": null,
    "office_name": null,
    "office_name_kana": null
  },
  "0332": {
    "postcode": "9570332",
    "prefecture": "新潟県",
    "prefecture_kana": "ニイガタケン",
    "prefecture_code": 15,
    "city": "新発田市",
    "city_kana": "シバタシ",
    "town": "虎丸",
    "town_kana": "トラマル",
    "street": null,
    "office_name": null,
    "office_name_kana": null
  },
  "0333": {
    "postcode": "9570333",
    "prefecture": "新潟県",
    "prefecture_kana": "ニイガタケン",
    "prefecture_code": 15,
    "city": "新発田市",
    "city_kana": "シバタシ",
    "town": "田貝",
    "town_kana": "タガイ",
    "street": null,
    "office_name": null,
    "office_name_kana": null
  },
  "0334": {
    "postcode": "9570334",
    "prefecture": "新潟県",
    "prefecture_kana": "ニイガタケン",
    "prefecture_code": 15,
    "city": "新発田市",
    "city_kana": "シバタシ",
    "town": "上楠川",
    "town_kana": "カミクスガワ",
    "street": null,
    "office_name": null,
    "office_name_kana": null
  },
  "0335": {
    "postcode": "9570335",
    "prefecture": "新潟県",
    "prefecture_kana": "ニイガタケン",
    "prefecture_code": 15,
    "city": "新発田市",
    "city_kana": "シバタシ",
    "town": "下楠川",
    "town_kana": "シモクスガワ",
    "street": null,
    "office_name": null,
    "office_name_kana": null
  },
  "0336": {
    "postcode": "9570336",
    "prefecture": "新潟県",
    "prefecture_kana": "ニイガタケン",
    "prefecture_code": 15,
    "city": "新発田市",
    "city_kana": "シバタシ",
    "town": "下三光",
    "town_kana": "シモサンコウ",
    "street": null,
    "office_name": null,
    "office_name_kana": null
  },
  "0341": {
    "postcode": "9570341",
    "prefecture": "新潟県",
    "prefecture_kana": "ニイガタケン",
    "prefecture_code": 15,
    "city": "新発田市",
    "city_kana": "シバタシ",
    "town": "下羽津",
    "town_kana": "シモハネヅ",
    "street": null,
    "office_name": null,
    "office_name_kana": null
  },
  "0342": {
    "postcode": "9570342",
    "prefecture": "新潟県",
    "prefecture_kana": "ニイガタケン",
    "prefecture_code": 15,
    "city": "新発田市",
    "city_kana": "シバタシ",
    "town": "本間新田",
    "town_kana": "ホンマシンデン",
    "street": null,
    "office_name": null,
    "office_name_kana": null
  },
  "0343": {
    "postcode": "9570343",
    "prefecture": "新潟県",
    "prefecture_kana": "ニイガタケン",
    "prefecture_code": 15,
    "city": "新発田市",
    "city_kana": "シバタシ",
    "town": "上羽津",
    "town_kana": "カミハネヅ",
    "street": null,
    "office_name": null,
    "office_name_kana": null
  },
  "0344": {
    "postcode": "9570344",
    "prefecture": "新潟県",
    "prefecture_kana": "ニイガタケン",
    "prefecture_code": 15,
    "city": "新発田市",
    "city_kana": "シバタシ",
    "town": "板山",
    "town_kana": "イタヤマ",
    "street": null,
    "office_name": null,
    "office_name_kana": null
  },
  "0345": {
    "postcode": "9570345",
    "prefecture": "新潟県",
    "prefecture_kana": "ニイガタケン",
    "prefecture_code": 15,
    "city": "新発田市",
    "city_kana": "シバタシ",
    "town": "小戸",
    "town_kana": "オド",
    "street": null,
    "office_name": null,
    "office_name_kana": null
  },
  "0346": {
    "postcode": "9570346",
    "prefecture": "新潟県",
    "prefecture_kana": "ニイガタケン",
    "prefecture_code": 15,
    "city": "新発田市",
    "city_kana": "シバタシ",
    "town": "宮古木",
    "town_kana": "ミヤコギ",
    "street": null,
    "office_name": null,
    "office_name_kana": null
  },
  "0347": {
    "postcode": "9570347",
    "prefecture": "新潟県",
    "prefecture_kana": "ニイガタケン",
    "prefecture_code": 15,
    "city": "新発田市",
    "city_kana": "シバタシ",
    "town": "大友",
    "town_kana": "オオドモ",
    "street": null,
    "office_name": null,
    "office_name_kana": null
  },
  "0351": {
    "postcode": "9570351",
    "prefecture": "新潟県",
    "prefecture_kana": "ニイガタケン",
    "prefecture_code": 15,
    "city": "新発田市",
    "city_kana": "シバタシ",
    "town": "東姫田",
    "town_kana": "ヒガシヒメダ",
    "street": null,
    "office_name": null,
    "office_name_kana": null
  },
  "0352": {
    "postcode": "9570352",
    "prefecture": "新潟県",
    "prefecture_kana": "ニイガタケン",
    "prefecture_code": 15,
    "city": "新発田市",
    "city_kana": "シバタシ",
    "town": "南楯",
    "town_kana": "ミナミタテ",
    "street": null,
    "office_name": null,
    "office_name_kana": null
  },
  "0353": {
    "postcode": "9570353",
    "prefecture": "新潟県",
    "prefecture_kana": "ニイガタケン",
    "prefecture_code": 15,
    "city": "新発田市",
    "city_kana": "シバタシ",
    "town": "石喜",
    "town_kana": "イシキ",
    "street": null,
    "office_name": null,
    "office_name_kana": null
  },
  "0354": {
    "postcode": "9570354",
    "prefecture": "新潟県",
    "prefecture_kana": "ニイガタケン",
    "prefecture_code": 15,
    "city": "新発田市",
    "city_kana": "シバタシ",
    "town": "下高関",
    "town_kana": "シモタカセキ",
    "street": null,
    "office_name": null,
    "office_name_kana": null
  },
  "0355": {
    "postcode": "9570355",
    "prefecture": "新潟県",
    "prefecture_kana": "ニイガタケン",
    "prefecture_code": 15,
    "city": "新発田市",
    "city_kana": "シバタシ",
    "town": "敦賀",
    "town_kana": "ツルガ",
    "street": null,
    "office_name": null,
    "office_name_kana": null
  },
  "0356": {
    "postcode": "9570356",
    "prefecture": "新潟県",
    "prefecture_kana": "ニイガタケン",
    "prefecture_code": 15,
    "city": "新発田市",
    "city_kana": "シバタシ",
    "town": "岡田",
    "town_kana": "オカダ",
    "street": null,
    "office_name": null,
    "office_name_kana": null
  },
  "0357": {
    "postcode": "9570357",
    "prefecture": "新潟県",
    "prefecture_kana": "ニイガタケン",
    "prefecture_code": 15,
    "city": "新発田市",
    "city_kana": "シバタシ",
    "town": "西姫田",
    "town_kana": "ニシヒメダ",
    "street": null,
    "office_name": null,
    "office_name_kana": null
  },
  "0461": {
    "postcode": "9570461",
    "prefecture": "新潟県",
    "prefecture_kana": "ニイガタケン",
    "prefecture_code": 15,
    "city": "新発田市",
    "city_kana": "シバタシ",
    "town": "中々山",
    "town_kana": "ナカナカヤマ",
    "street": null,
    "office_name": null,
    "office_name_kana": null
  },
  "0462": {
    "postcode": "9570462",
    "prefecture": "新潟県",
    "prefecture_kana": "ニイガタケン",
    "prefecture_code": 15,
    "city": "新発田市",
    "city_kana": "シバタシ",
    "town": "滝谷",
    "town_kana": "タキダニ",
    "street": null,
    "office_name": null,
    "office_name_kana": null
  },
  "0463": {
    "postcode": "9570463",
    "prefecture": "新潟県",
    "prefecture_kana": "ニイガタケン",
    "prefecture_code": 15,
    "city": "新発田市",
    "city_kana": "シバタシ",
    "town": "東赤谷",
    "town_kana": "ヒガシアカタニ",
    "street": null,
    "office_name": null,
    "office_name_kana": null
  },
  "0464": {
    "postcode": "9570464",
    "prefecture": "新潟県",
    "prefecture_kana": "ニイガタケン",
    "prefecture_code": 15,
    "city": "新発田市",
    "city_kana": "シバタシ",
    "town": "上赤谷",
    "town_kana": "カミアカタニ",
    "street": null,
    "office_name": null,
    "office_name_kana": null
  },
  "0465": {
    "postcode": "9570465",
    "prefecture": "新潟県",
    "prefecture_kana": "ニイガタケン",
    "prefecture_code": 15,
    "city": "新発田市",
    "city_kana": "シバタシ",
    "town": "大槻",
    "town_kana": "オオツキ",
    "street": null,
    "office_name": null,
    "office_name_kana": null
  },
  "0466": {
    "postcode": "9570466",
    "prefecture": "新潟県",
    "prefecture_kana": "ニイガタケン",
    "prefecture_code": 15,
    "city": "新発田市",
    "city_kana": "シバタシ",
    "town": "山内",
    "town_kana": "ヤマウチ",
    "street": null,
    "office_name": null,
    "office_name_kana": null
  },
  "8502": {
    "postcode": "9578502",
    "prefecture": "新潟県",
    "prefecture_kana": "ニイガタケン",
    "prefecture_code": 15,
    "city": "新発田市",
    "city_kana": "シバタシ",
    "town": "大栄町",
    "town_kana": "ダイエイチョウ",
    "street": "６丁目４−２３",
    "office_name": "新潟県立新発田農業高等学校",
    "office_name_kana": "ニイガタケンリツシバタノウギヨウコウトウガツコウ"
  },
  "8503": {
    "postcode": "9578503",
    "prefecture": "新潟県",
    "prefecture_kana": "ニイガタケン",
    "prefecture_code": 15,
    "city": "新発田市",
    "city_kana": "シバタシ",
    "town": "新富町",
    "town_kana": "シントミチョウ",
    "street": "１丁目１−２０",
    "office_name": "新潟地方法務局　新発田支局",
    "office_name_kana": "ニイガタチホウホウムキヨク シバタシキヨク"
  },
  "8506": [
    {
      "postcode": "9578506",
      "prefecture": "新潟県",
      "prefecture_kana": "ニイガタケン",
      "prefecture_code": 15,
      "city": "新発田市",
      "city_kana": "シバタシ",
      "town": "大字日渡",
      "town_kana": null,
      "street": "９６新発田地方合同庁舎",
      "office_name": "新発田公共職業安定所",
      "office_name_kana": "シバタコウキヨウシヨクギヨウアンテイジヨ"
    },
    {
      "postcode": "9578506",
      "prefecture": "新潟県",
      "prefecture_kana": "ニイガタケン",
      "prefecture_code": 15,
      "city": "新発田市",
      "city_kana": "シバタシ",
      "town": "大字日渡",
      "town_kana": null,
      "street": "９６新発田地方合同庁舎",
      "office_name": "新発田労働基準監督署",
      "office_name_kana": "シバタロウドウキジユンカントクシヨ"
    }
  ],
  "8511": [
    {
      "postcode": "9578511",
      "prefecture": "新潟県",
      "prefecture_kana": "ニイガタケン",
      "prefecture_code": 15,
      "city": "新発田市",
      "city_kana": "シバタシ",
      "town": "豊町",
      "town_kana": "ユタカチョウ",
      "street": "３丁目３−２新発田地域振興局内",
      "office_name": "新潟県　新発田地域振興局　企画振興部",
      "office_name_kana": "ニイガタケン シバタチイキシンコウキヨク キカクシンコウブ"
    },
    {
      "postcode": "9578511",
      "prefecture": "新潟県",
      "prefecture_kana": "ニイガタケン",
      "prefecture_code": 15,
      "city": "新発田市",
      "city_kana": "シバタシ",
      "town": "豊町",
      "town_kana": "ユタカチョウ",
      "street": "３丁目３−２新発田地域振興局内",
      "office_name": "新潟県　新発田地域振興局　健康福祉環境部",
      "office_name_kana": "ニイガタケン シバタチイキシンコウキヨク ケンコウフクシカンキヨウブ"
    },
    {
      "postcode": "9578511",
      "prefecture": "新潟県",
      "prefecture_kana": "ニイガタケン",
      "prefecture_code": 15,
      "city": "新発田市",
      "city_kana": "シバタシ",
      "town": "豊町",
      "town_kana": "ユタカチョウ",
      "street": "３丁目３−２新発田地域振興局内",
      "office_name": "新潟県　新発田地域振興局　県税部",
      "office_name_kana": "ニイガタケン シバタチイキシンコウキヨク ケンゼイブ"
    },
    {
      "postcode": "9578511",
      "prefecture": "新潟県",
      "prefecture_kana": "ニイガタケン",
      "prefecture_code": 15,
      "city": "新発田市",
      "city_kana": "シバタシ",
      "town": "豊町",
      "town_kana": "ユタカチョウ",
      "street": "３丁目３−２新発田地域振興局内",
      "office_name": "新潟県　新発田地域振興局　地域整備部",
      "office_name_kana": "ニイガタケン シバタチイキシンコウキヨク チイキセイビブ"
    },
    {
      "postcode": "9578511",
      "prefecture": "新潟県",
      "prefecture_kana": "ニイガタケン",
      "prefecture_code": 15,
      "city": "新発田市",
      "city_kana": "シバタシ",
      "town": "豊町",
      "town_kana": "ユタカチョウ",
      "street": "３丁目３−２新発田地域振興局内",
      "office_name": "新潟県　新発田地域振興局　農業振興部",
      "office_name_kana": "ニイガタケン シバタチイキシンコウキヨク ノウギヨウシンコウブ"
    },
    {
      "postcode": "9578511",
      "prefecture": "新潟県",
      "prefecture_kana": "ニイガタケン",
      "prefecture_code": 15,
      "city": "新発田市",
      "city_kana": "シバタシ",
      "town": "豊町",
      "town_kana": "ユタカチョウ",
      "street": "３丁目３−２新発田地域振興局内",
      "office_name": "新潟県　新発田地域振興局　農村整備部",
      "office_name_kana": "ニイガタケン シバタチイキシンコウキヨク ノウソンセイビブ"
    }
  ],
  "8522": {
    "postcode": "9578522",
    "prefecture": "新潟県",
    "prefecture_kana": "ニイガタケン",
    "prefecture_code": 15,
    "city": "新発田市",
    "city_kana": "シバタシ",
    "town": "西園町",
    "town_kana": "ニシゾノチョウ",
    "street": "３丁目１−２",
    "office_name": "新潟県立西新発田高等学校",
    "office_name_kana": "ニイガタケンリツニシシバタコウトウガツコウ"
  },
  "8530": {
    "postcode": "9578530",
    "prefecture": "新潟県",
    "prefecture_kana": "ニイガタケン",
    "prefecture_code": 15,
    "city": "新発田市",
    "city_kana": "シバタシ",
    "town": "大手町",
    "town_kana": "オオテマチ",
    "street": "６丁目４−１６",
    "office_name": "陸上自衛隊　新発田駐屯地",
    "office_name_kana": "リクジヨウジエイタイ シバタチユウトンチ"
  },
  "8540": {
    "postcode": "9578540",
    "prefecture": "新潟県",
    "prefecture_kana": "ニイガタケン",
    "prefecture_code": 15,
    "city": "新発田市",
    "city_kana": "シバタシ",
    "town": "新富町",
    "town_kana": "シントミチョウ",
    "street": "１丁目１−２４",
    "office_name": "新発田社会保険事務所",
    "office_name_kana": "シバタシヤカイホケンジムシヨ"
  },
  "8550": {
    "postcode": "9578550",
    "prefecture": "新潟県",
    "prefecture_kana": "ニイガタケン",
    "prefecture_code": 15,
    "city": "新発田市",
    "city_kana": "シバタシ",
    "town": "中央町",
    "town_kana": "チュウオウチョウ",
    "street": "４丁目１０−１０",
    "office_name": "新発田商工会議所",
    "office_name_kana": "シバタシヨウコウカイギシヨ"
  },
  "8555": {
    "postcode": "9578555",
    "prefecture": "新潟県",
    "prefecture_kana": "ニイガタケン",
    "prefecture_code": 15,
    "city": "新発田市",
    "city_kana": "シバタシ",
    "town": "豊町",
    "town_kana": "ユタカチョウ",
    "street": "３丁目７−６",
    "office_name": "新潟県立新発田高等学校",
    "office_name_kana": "ニイガタケンリツシバタコウトウガツコウ"
  },
  "8558": {
    "postcode": "9578558",
    "prefecture": "新潟県",
    "prefecture_kana": "ニイガタケン",
    "prefecture_code": 15,
    "city": "新発田市",
    "city_kana": "シバタシ",
    "town": "板敷",
    "town_kana": "イタジキ",
    "street": "５２１−１",
    "office_name": "新潟県立　新発田商業高等学校",
    "office_name_kana": "ニイガタケンリツ シバタシヨウギヨウコウトウガツコウ"
  },
  "8567": {
    "postcode": "9578567",
    "prefecture": "新潟県",
    "prefecture_kana": "ニイガタケン",
    "prefecture_code": 15,
    "city": "新発田市",
    "city_kana": "シバタシ",
    "town": "大栄町",
    "town_kana": "ダイエイチョウ",
    "street": "３丁目６−６",
    "office_name": "新潟県立新発田南高等学校",
    "office_name_kana": "ニイガタケンリツシバタミナミコウトウガツコウ"
  },
  "8585": {
    "postcode": "9578585",
    "prefecture": "新潟県",
    "prefecture_kana": "ニイガタケン",
    "prefecture_code": 15,
    "city": "新発田市",
    "city_kana": "シバタシ",
    "town": "大字富塚",
    "town_kana": null,
    "street": "１２７０",
    "office_name": "敬和学園大学",
    "office_name_kana": "ケイワガクエンダイガク"
  },
  "8588": {
    "postcode": "9578588",
    "prefecture": "新潟県",
    "prefecture_kana": "ニイガタケン",
    "prefecture_code": 15,
    "city": "新発田市",
    "city_kana": "シバタシ",
    "town": "本町",
    "town_kana": "ホンチョウ",
    "street": "１丁目２番８号",
    "office_name": "新潟県立新発田病院",
    "office_name_kana": "ニイガタケンリツシバタビヨウイン"
  },
  "8601": {
    "postcode": "9578601",
    "prefecture": "新潟県",
    "prefecture_kana": "ニイガタケン",
    "prefecture_code": 15,
    "city": "新発田市",
    "city_kana": "シバタシ",
    "town": "富塚",
    "town_kana": null,
    "street": "１９４２（新発田郵便局私書箱第２５号）",
    "office_name": "新発田建設　株式会社",
    "office_name_kana": "シバタケンセツ カブシキガイシヤ"
  },
  "8666": {
    "postcode": "9578666",
    "prefecture": "新潟県",
    "prefecture_kana": "ニイガタケン",
    "prefecture_code": 15,
    "city": "新発田市",
    "city_kana": "シバタシ",
    "town": "諏訪町",
    "town_kana": "スワチョウ",
    "street": "１丁目１２−２４（新発田郵便局私書箱第１０号）",
    "office_name": "新発田税務署",
    "office_name_kana": "シバタゼイムシヨ"
  },
  "8686": {
    "postcode": "9578686",
    "prefecture": "新潟県",
    "prefecture_kana": "ニイガタケン",
    "prefecture_code": 15,
    "city": "新発田市",
    "city_kana": "シバタシ",
    "town": "中央町",
    "town_kana": "チュウオウチョウ",
    "street": "３丁目３−３（新発田郵便局私書箱第１号）",
    "office_name": "新発田市役所",
    "office_name_kana": "シバタシヤクシヨ"
  },
  "8701": {
    "postcode": "9578701",
    "prefecture": "新潟県",
    "prefecture_kana": "ニイガタケン",
    "prefecture_code": 15,
    "city": "新発田市",
    "city_kana": "シバタシ",
    "town": "五十公野",
    "town_kana": "イジミノ",
    "street": "字山崎５２７０番地",
    "office_name": "京セラ　株式会社　新潟新発田工場",
    "office_name_kana": "キヨウセラ カブシキガイシヤ ニイガタシバタコウジヨウ"
  }
}