{
  "0000": {
    "postcode": "9580000",
    "prefecture": "新潟県",
    "prefecture_kana": "ニイガタケン",
    "prefecture_code": 15,
    "city": "村上市",
    "city_kana": "ムラカミシ",
    "town": "",
    "town_kana": "",
    "street": null,
    "office_name": null,
    "office_name_kana": null
  },
  "0001": {
    "postcode": "9580001",
    "prefecture": "新潟県",
    "prefecture_kana": "ニイガタケン",
    "prefecture_code": 15,
    "city": "村上市",
    "city_kana": "ムラカミシ",
    "town": "馬下",
    "town_kana": "マオロシ",
    "street": null,
    "office_name": null,
    "office_name_kana": null
  },
  "0002": {
    "postcode": "9580002",
    "prefecture": "新潟県",
    "prefecture_kana": "ニイガタケン",
    "prefecture_code": 15,
    "city": "村上市",
    "city_kana": "ムラカミシ",
    "town": "早川",
    "town_kana": "ハヤカワ",
    "street": null,
    "office_name": null,
    "office_name_kana": null
  },
  "0003": {
    "postcode": "9580003",
    "prefecture": "新潟県",
    "prefecture_kana": "ニイガタケン",
    "prefecture_code": 15,
    "city": "村上市",
    "city_kana": "ムラカミシ",
    "town": "吉浦",
    "town_kana": "ヨシウラ",
    "street": null,
    "office_name": null,
    "office_name_kana": null
  },
  "0004": {
    "postcode": "9580004",
    "prefecture": "新潟県",
    "prefecture_kana": "ニイガタケン",
    "prefecture_code": 15,
    "city": "村上市",
    "city_kana": "ムラカミシ",
    "town": "柏尾",
    "town_kana": "カシオ",
    "street": null,
    "office_name": null,
    "office_name_kana": null
  },
  "0005": {
    "postcode": "9580005",
    "prefecture": "新潟県",
    "prefecture_kana": "ニイガタケン",
    "prefecture_code": 15,
    "city": "村上市",
    "city_kana": "ムラカミシ",
    "town": "間島",
    "town_kana": "マジマ",
    "street": null,
    "office_name": null,
    "office_name_kana": null
  },
  "0006": {
    "postcode": "9580006",
    "prefecture": "新潟県",
    "prefecture_kana": "ニイガタケン",
    "prefecture_code": 15,
    "city": "村上市",
    "city_kana": "ムラカミシ",
    "town": "野潟",
    "town_kana": "ノガタ",
    "street": null,
    "office_name": null,
    "office_name_kana": null
  },
  "0007": {
    "postcode": "9580007",
    "prefecture": "新潟県",
    "prefecture_kana": "ニイガタケン",
    "prefecture_code": 15,
    "city": "村上市",
    "city_kana": "ムラカミシ",
    "town": "大月",
    "town_kana": "オオヅキ",
    "street": null,
    "office_name": null,
    "office_name_kana": null
  },
  "0008": {
    "postcode": "9580008",
    "prefecture": "新潟県",
    "prefecture_kana": "ニイガタケン",
    "prefecture_code": 15,
    "city": "村上市",
    "city_kana": "ムラカミシ",
    "town": "岩ケ崎",
    "town_kana": "イワガサキ",
    "street": null,
    "office_name": null,
    "office_name_kana": null
  },
  "0011": {
    "postcode": "9580011",
    "prefecture": "新潟県",
    "prefecture_kana": "ニイガタケン",
    "prefecture_code": 15,
    "city": "村上市",
    "city_kana": "ムラカミシ",
    "town": "滝の前",
    "town_kana": "タキノマエ",
    "street": null,
    "office_name": null,
    "office_name_kana": null
  },
  "0012": {
    "postcode": "9580012",
    "prefecture": "新潟県",
    "prefecture_kana": "ニイガタケン",
    "prefecture_code": 15,
    "city": "村上市",
    "city_kana": "ムラカミシ",
    "town": "大平",
    "town_kana": "オオダイラ",
    "street": null,
    "office_name": null,
    "office_name_kana": null
  },
  "0013": {
    "postcode": "9580013",
    "prefecture": "新潟県",
    "prefecture_kana": "ニイガタケン",
    "prefecture_code": 15,
    "city": "村上市",
    "city_kana": "ムラカミシ",
    "town": "羽下ケ渕",
    "town_kana": "ハゲガフチ",
    "street": null,
    "office_name": null,
    "office_name_kana": null
  },
  "0014": {
    "postcode": "9580014",
    "prefecture": "新潟県",
    "prefecture_kana": "ニイガタケン",
    "prefecture_code": 15,
    "city": "村上市",
    "city_kana": "ムラカミシ",
    "town": "下渡",
    "town_kana": "ゲド",
    "street": null,
    "office_name": null,
    "office_name_kana": null
  },
  "0021": {
    "postcode": "9580021",
    "prefecture": "新潟県",
    "prefecture_kana": "ニイガタケン",
    "prefecture_code": 15,
    "city": "村上市",
    "city_kana": "ムラカミシ",
    "town": "瀬波新田町",
    "town_kana": "セナミシンデンマチ",
    "street": null,
    "office_name": null,
    "office_name_kana": null
  },
  "0022": {
    "postcode": "9580022",
    "prefecture": "新潟県",
    "prefecture_kana": "ニイガタケン",
    "prefecture_code": 15,
    "city": "村上市",
    "city_kana": "ムラカミシ",
    "town": "瀬波横町",
    "town_kana": "セナミヨコマチ",
    "street": null,
    "office_name": null,
    "office_name_kana": null
  },
  "0023": {
    "postcode": "9580023",
    "prefecture": "新潟県",
    "prefecture_kana": "ニイガタケン",
    "prefecture_code": 15,
    "city": "村上市",
    "city_kana": "ムラカミシ",
    "town": "瀬波上町",
    "town_kana": "セナミカンマチ",
    "street": null,
    "office_name": null,
    "office_name_kana": null
  },
  "0024": {
    "postcode": "9580024",
    "prefecture": "新潟県",
    "prefecture_kana": "ニイガタケン",
    "prefecture_code": 15,
    "city": "村上市",
    "city_kana": "ムラカミシ",
    "town": "瀬波中町",
    "town_kana": "セナミナカマチ",
    "street": null,
    "office_name": null,
    "office_name_kana": null
  },
  "0025": {
    "postcode": "9580025",
    "prefecture": "新潟県",
    "prefecture_kana": "ニイガタケン",
    "prefecture_code": 15,
    "city": "村上市",
    "city_kana": "ムラカミシ",
    "town": "松波町",
    "town_kana": "マツナミチョウ",
    "street": null,
    "office_name": null,
    "office_name_kana": null
  },
  "0026": {
    "postcode": "9580026",
    "prefecture": "新潟県",
    "prefecture_kana": "ニイガタケン",
    "prefecture_code": 15,
    "city": "村上市",
    "city_kana": "ムラカミシ",
    "town": "瀬波浜町",
    "town_kana": "セナミハママチ",
    "street": null,
    "office_name": null,
    "office_name_kana": null
  },
  "0031": {
    "postcode": "9580031",
    "prefecture": "新潟県",
    "prefecture_kana": "ニイガタケン",
    "prefecture_code": 15,
    "city": "村上市",
    "city_kana": "ムラカミシ",
    "town": "学校町",
    "town_kana": "ガッコウチョウ",
    "street": null,
    "office_name": null,
    "office_name_kana": null
  },
  "0032": {
    "postcode": "9580032",
    "prefecture": "新潟県",
    "prefecture_kana": "ニイガタケン",
    "prefecture_code": 15,
    "city": "村上市",
    "city_kana": "ムラカミシ",
    "town": "松原町",
    "town_kana": "マツバラチョウ",
    "street": null,
    "office_name": null,
    "office_name_kana": null
  },
  "0033": {
    "postcode": "9580033",
    "prefecture": "新潟県",
    "prefecture_kana": "ニイガタケン",
    "prefecture_code": 15,
    "city": "村上市",
    "city_kana": "ムラカミシ",
    "town": "緑町",
    "town_kana": "ミドリマチ",
    "street": null,
    "office_name": null,
    "office_name_kana": null
  },
  "0034": {
    "postcode": "9580034",
    "prefecture": "新潟県",
    "prefecture_kana": "ニイガタケン",
    "prefecture_code": 15,
    "city": "村上市",
    "city_kana": "ムラカミシ",
    "town": "松山",
    "town_kana": "マツヤマ",
    "street": null,
    "office_name": null,
    "office_name_kana": null
  },
  "0035": {
    "postcode": "9580035",
    "prefecture": "新潟県",
    "prefecture_kana": "ニイガタケン",
    "prefecture_code": 15,
    "city": "村上市",
    "city_kana": "ムラカミシ",
    "town": "三面",
    "town_kana": "ミオモテ",
    "street": null,
    "office_name": null,
    "office_name_kana": null
  },
  "0036": {
    "postcode": "9580036",
    "prefecture": "新潟県",
    "prefecture_kana": "ニイガタケン",
    "prefecture_code": 15,
    "city": "村上市",
    "city_kana": "ムラカミシ",
    "town": "浦田",
    "town_kana": "ウラタ",
    "street": null,
    "office_name": null,
    "office_name_kana": null
  },
  "0037": {
    "postcode": "9580037",
    "prefecture": "新潟県",
    "prefecture_kana": "ニイガタケン",
    "prefecture_code": 15,
    "city": "村上市",
    "city_kana": "ムラカミシ",
    "town": "瀬波温泉",
    "town_kana": "セナミオンセン",
    "street": null,
    "office_name": null,
    "office_name_kana": null
  },
  "0038": {
    "postcode": "9580038",
    "prefecture": "新潟県",
    "prefecture_kana": "ニイガタケン",
    "prefecture_code": 15,
    "city": "村上市",
    "city_kana": "ムラカミシ",
    "town": "浜新田",
    "town_kana": "ハマシンデン",
    "street": null,
    "office_name": null,
    "office_name_kana": null
  },
  "0041": {
    "postcode": "9580041",
    "prefecture": "新潟県",
    "prefecture_kana": "ニイガタケン",
    "prefecture_code": 15,
    "city": "村上市",
    "city_kana": "ムラカミシ",
    "town": "岩船三日市",
    "town_kana": "イワフネミッカイチ",
    "street": null,
    "office_name": null,
    "office_name_kana": null
  },
  "0042": {
    "postcode": "9580042",
    "prefecture": "新潟県",
    "prefecture_kana": "ニイガタケン",
    "prefecture_code": 15,
    "city": "村上市",
    "city_kana": "ムラカミシ",
    "town": "岩船北浜町",
    "town_kana": "イワフネキタハママチ",
    "street": null,
    "office_name": null,
    "office_name_kana": null
  },
  "0043": {
    "postcode": "9580043",
    "prefecture": "新潟県",
    "prefecture_kana": "ニイガタケン",
    "prefecture_code": 15,
    "city": "村上市",
    "city_kana": "ムラカミシ",
    "town": "岩船下大町",
    "town_kana": "イワフネシモオオマチ",
    "street": null,
    "office_name": null,
    "office_name_kana": null
  },
  "0044": {
    "postcode": "9580044",
    "prefecture": "新潟県",
    "prefecture_kana": "ニイガタケン",
    "prefecture_code": 15,
    "city": "村上市",
    "city_kana": "ムラカミシ",
    "town": "岩船上大町",
    "town_kana": "イワフネカミオオマチ",
    "street": null,
    "office_name": null,
    "office_name_kana": null
  },
  "0045": {
    "postcode": "9580045",
    "prefecture": "新潟県",
    "prefecture_kana": "ニイガタケン",
    "prefecture_code": 15,
    "city": "村上市",
    "city_kana": "ムラカミシ",
    "town": "岩船上浜町",
    "town_kana": "イワフネカミハママチ",
    "street": null,
    "office_name": null,
    "office_name_kana": null
  },
  "0046": {
    "postcode": "9580046",
    "prefecture": "新潟県",
    "prefecture_kana": "ニイガタケン",
    "prefecture_code": 15,
    "city": "村上市",
    "city_kana": "ムラカミシ",
    "town": "岩船下浜町",
    "town_kana": "イワフネシモハママチ",
    "street": null,
    "office_name": null,
    "office_name_kana": null
  },
  "0047": {
    "postcode": "9580047",
    "prefecture": "新潟県",
    "prefecture_kana": "ニイガタケン",
    "prefecture_code": 15,
    "city": "村上市",
    "city_kana": "ムラカミシ",
    "town": "岩船岸見寺町",
    "town_kana": "イワフネガンゲンジマチ",
    "street": null,
    "office_name": null,
    "office_name_kana": null
  },
  "0048": {
    "postcode": "9580048",
    "prefecture": "新潟県",
    "prefecture_kana": "ニイガタケン",
    "prefecture_code": 15,
    "city": "村上市",
    "city_kana": "ムラカミシ",
    "town": "岩船地蔵町",
    "town_kana": "イワフネジゾウマチ",
    "street": null,
    "office_name": null,
    "office_name_kana": null
  },
  "0051": {
    "postcode": "9580051",
    "prefecture": "新潟県",
    "prefecture_kana": "ニイガタケン",
    "prefecture_code": 15,
    "city": "村上市",
    "city_kana": "ムラカミシ",
    "town": "岩船上町",
    "town_kana": "イワフネカンマチ",
    "street": null,
    "office_name": null,
    "office_name_kana": null
  },
  "0052": {
    "postcode": "9580052",
    "prefecture": "新潟県",
    "prefecture_kana": "ニイガタケン",
    "prefecture_code": 15,
    "city": "村上市",
    "city_kana": "ムラカミシ",
    "town": "八日市",
    "town_kana": "ヨウカイチ",
    "street": null,
    "office_name": null,
    "office_name_kana": null
  },
  "0053": {
    "postcode": "9580053",
    "prefecture": "新潟県",
    "prefecture_kana": "ニイガタケン",
    "prefecture_code": 15,
    "city": "村上市",
    "city_kana": "ムラカミシ",
    "town": "上の山",
    "town_kana": "カミノヤマ",
    "street": null,
    "office_name": null,
    "office_name_kana": null
  },
  "0054": {
    "postcode": "9580054",
    "prefecture": "新潟県",
    "prefecture_kana": "ニイガタケン",
    "prefecture_code": 15,
    "city": "村上市",
    "city_kana": "ムラカミシ",
    "town": "岩船新田町",
    "town_kana": "イワフネシンデンマチ",
    "street": null,
    "office_name": null,
    "office_name_kana": null
  },
  "0055": {
    "postcode": "9580055",
    "prefecture": "新潟県",
    "prefecture_kana": "ニイガタケン",
    "prefecture_code": 15,
    "city": "村上市",
    "city_kana": "ムラカミシ",
    "town": "岩船縦新町",
    "town_kana": "イワフネタテシンマチ",
    "street": null,
    "office_name": null,
    "office_name_kana": null
  },
  "0056": {
    "postcode": "9580056",
    "prefecture": "新潟県",
    "prefecture_kana": "ニイガタケン",
    "prefecture_code": 15,
    "city": "村上市",
    "city_kana": "ムラカミシ",
    "town": "岩船中新町",
    "town_kana": "イワフネナカシンマチ",
    "street": null,
    "office_name": null,
    "office_name_kana": null
  },
  "0057": {
    "postcode": "9580057",
    "prefecture": "新潟県",
    "prefecture_kana": "ニイガタケン",
    "prefecture_code": 15,
    "city": "村上市",
    "city_kana": "ムラカミシ",
    "town": "岩船横新町",
    "town_kana": "イワフネヨコシンマチ",
    "street": null,
    "office_name": null,
    "office_name_kana": null
  },
  "0058": {
    "postcode": "9580058",
    "prefecture": "新潟県",
    "prefecture_kana": "ニイガタケン",
    "prefecture_code": 15,
    "city": "村上市",
    "city_kana": "ムラカミシ",
    "town": "岩船港町",
    "town_kana": "イワフネミナトマチ",
    "street": null,
    "office_name": null,
    "office_name_kana": null
  },
  "0061": {
    "postcode": "9580061",
    "prefecture": "新潟県",
    "prefecture_kana": "ニイガタケン",
    "prefecture_code": 15,
    "city": "岩船郡粟島浦村",
    "city_kana": "イワフネグンアワシマウラムラ",
    "town": "",
    "town_kana": "",
    "street": null,
    "office_name": null,
    "office_name_kana": null
  },
  "0201": {
    "postcode": "9580201",
    "prefecture": "新潟県",
    "prefecture_kana": "ニイガタケン",
    "prefecture_code": 15,
    "city": "村上市",
    "city_kana": "ムラカミシ",
    "town": "蒲萄",
    "town_kana": "ブドウ",
    "street": null,
    "office_name": null,
    "office_name_kana": null
  },
  "0202": {
    "postcode": "9580202",
    "prefecture": "新潟県",
    "prefecture_kana": "ニイガタケン",
    "prefecture_code": 15,
    "city": "村上市",
    "city_kana": "ムラカミシ",
    "town": "大須戸",
    "town_kana": "オオスド",
    "street": null,
    "office_name": null,
    "office_name_kana": null
  },
  "0203": {
    "postcode": "9580203",
    "prefecture": "新潟県",
    "prefecture_kana": "ニイガタケン",
    "prefecture_code": 15,
    "city": "村上市",
    "city_kana": "ムラカミシ",
    "town": "荒沢",
    "town_kana": "アラサワ",
    "street": null,
    "office_name": null,
    "office_name_kana": null
  },
  "0204": {
    "postcode": "9580204",
    "prefecture": "新潟県",
    "prefecture_kana": "ニイガタケン",
    "prefecture_code": 15,
    "city": "村上市",
    "city_kana": "ムラカミシ",
    "town": "小須戸",
    "town_kana": "コスド",
    "street": null,
    "office_name": null,
    "office_name_kana": null
  },
  "0205": {
    "postcode": "9580205",
    "prefecture": "新潟県",
    "prefecture_kana": "ニイガタケン",
    "prefecture_code": 15,
    "city": "村上市",
    "city_kana": "ムラカミシ",
    "town": "塩野町",
    "town_kana": "シオノマチ",
    "street": null,
    "office_name": null,
    "office_name_kana": null
  },
  "0206": {
    "postcode": "9580206",
    "prefecture": "新潟県",
    "prefecture_kana": "ニイガタケン",
    "prefecture_code": 15,
    "city": "村上市",
    "city_kana": "ムラカミシ",
    "town": "松岡",
    "town_kana": "マツオカ",
    "street": null,
    "office_name": null,
    "office_name_kana": null
  },
  "0211": {
    "postcode": "9580211",
    "prefecture": "新潟県",
    "prefecture_kana": "ニイガタケン",
    "prefecture_code": 15,
    "city": "村上市",
    "city_kana": "ムラカミシ",
    "town": "高根",
    "town_kana": "タカネ",
    "street": null,
    "office_name": null,
    "office_name_kana": null
  },
  "0212": {
    "postcode": "9580212",
    "prefecture": "新潟県",
    "prefecture_kana": "ニイガタケン",
    "prefecture_code": 15,
    "city": "村上市",
    "city_kana": "ムラカミシ",
    "town": "北大平",
    "town_kana": "キタオオダイラ",
    "street": null,
    "office_name": null,
    "office_name_kana": null
  },
  "0213": {
    "postcode": "9580213",
    "prefecture": "新潟県",
    "prefecture_kana": "ニイガタケン",
    "prefecture_code": 15,
    "city": "村上市",
    "city_kana": "ムラカミシ",
    "town": "早稲田",
    "town_kana": "ワセダ",
    "street": null,
    "office_name": null,
    "office_name_kana": null
  },
  "0214": {
    "postcode": "9580214",
    "prefecture": "新潟県",
    "prefecture_kana": "ニイガタケン",
    "prefecture_code": 15,
    "city": "村上市",
    "city_kana": "ムラカミシ",
    "town": "板屋越",
    "town_kana": "イタヤゴシ",
    "street": null,
    "office_name": null,
    "office_name_kana": null
  },
  "0215": {
    "postcode": "9580215",
    "prefecture": "新潟県",
    "prefecture_kana": "ニイガタケン",
    "prefecture_code": 15,
    "city": "村上市",
    "city_kana": "ムラカミシ",
    "town": "檜原",
    "town_kana": "ヒバラ",
    "street": null,
    "office_name": null,
    "office_name_kana": null
  },
  "0221": {
    "postcode": "9580221",
    "prefecture": "新潟県",
    "prefecture_kana": "ニイガタケン",
    "prefecture_code": 15,
    "city": "村上市",
    "city_kana": "ムラカミシ",
    "town": "薦川",
    "town_kana": "コモガワ",
    "street": null,
    "office_name": null,
    "office_name_kana": null
  },
  "0222": {
    "postcode": "9580222",
    "prefecture": "新潟県",
    "prefecture_kana": "ニイガタケン",
    "prefecture_code": 15,
    "city": "村上市",
    "city_kana": "ムラカミシ",
    "town": "猿田",
    "town_kana": "サルタ",
    "street": null,
    "office_name": null,
    "office_name_kana": null
  },
  "0223": {
    "postcode": "9580223",
    "prefecture": "新潟県",
    "prefecture_kana": "ニイガタケン",
    "prefecture_code": 15,
    "city": "村上市",
    "city_kana": "ムラカミシ",
    "town": "中原",
    "town_kana": "ナカハラ",
    "street": null,
    "office_name": null,
    "office_name_kana": null
  },
  "0224": {
    "postcode": "9580224",
    "prefecture": "新潟県",
    "prefecture_kana": "ニイガタケン",
    "prefecture_code": 15,
    "city": "村上市",
    "city_kana": "ムラカミシ",
    "town": "黒田",
    "town_kana": "クロダ",
    "street": null,
    "office_name": null,
    "office_name_kana": null
  },
  "0225": {
    "postcode": "9580225",
    "prefecture": "新潟県",
    "prefecture_kana": "ニイガタケン",
    "prefecture_code": 15,
    "city": "村上市",
    "city_kana": "ムラカミシ",
    "town": "関口",
    "town_kana": "セキグチ",
    "street": null,
    "office_name": null,
    "office_name_kana": null
  },
  "0226": {
    "postcode": "9580226",
    "prefecture": "新潟県",
    "prefecture_kana": "ニイガタケン",
    "prefecture_code": 15,
    "city": "村上市",
    "city_kana": "ムラカミシ",
    "town": "朝日中野",
    "town_kana": "アサヒナカノ",
    "street": null,
    "office_name": null,
    "office_name_kana": null
  },
  "0231": {
    "postcode": "9580231",
    "prefecture": "新潟県",
    "prefecture_kana": "ニイガタケン",
    "prefecture_code": 15,
    "city": "村上市",
    "city_kana": "ムラカミシ",
    "town": "布部",
    "town_kana": "ヌノベ",
    "street": null,
    "office_name": null,
    "office_name_kana": null
  },
  "0232": {
    "postcode": "9580232",
    "prefecture": "新潟県",
    "prefecture_kana": "ニイガタケン",
    "prefecture_code": 15,
    "city": "村上市",
    "city_kana": "ムラカミシ",
    "town": "新屋",
    "town_kana": "アラヤ",
    "street": null,
    "office_name": null,
    "office_name_kana": null
  },
  "0233": {
    "postcode": "9580233",
    "prefecture": "新潟県",
    "prefecture_kana": "ニイガタケン",
    "prefecture_code": 15,
    "city": "村上市",
    "city_kana": "ムラカミシ",
    "town": "中新保",
    "town_kana": "ナカシンボ",
    "street": null,
    "office_name": null,
    "office_name_kana": null
  },
  "0234": {
    "postcode": "9580234",
    "prefecture": "新潟県",
    "prefecture_kana": "ニイガタケン",
    "prefecture_code": 15,
    "city": "村上市",
    "city_kana": "ムラカミシ",
    "town": "堀野",
    "town_kana": "ホリノ",
    "street": null,
    "office_name": null,
    "office_name_kana": null
  },
  "0235": {
    "postcode": "9580235",
    "prefecture": "新潟県",
    "prefecture_kana": "ニイガタケン",
    "prefecture_code": 15,
    "city": "村上市",
    "city_kana": "ムラカミシ",
    "town": "石住",
    "town_kana": "イシズミ",
    "street": null,
    "office_name": null,
    "office_name_kana": null
  },
  "0236": {
    "postcode": "9580236",
    "prefecture": "新潟県",
    "prefecture_kana": "ニイガタケン",
    "prefecture_code": 15,
    "city": "村上市",
    "city_kana": "ムラカミシ",
    "town": "上中島",
    "town_kana": "カミナカジマ",
    "street": null,
    "office_name": null,
    "office_name_kana": null
  },
  "0241": {
    "postcode": "9580241",
    "prefecture": "新潟県",
    "prefecture_kana": "ニイガタケン",
    "prefecture_code": 15,
    "city": "村上市",
    "city_kana": "ムラカミシ",
    "town": "岩崩",
    "town_kana": "イワクズレ",
    "street": null,
    "office_name": null,
    "office_name_kana": null
  },
  "0242": {
    "postcode": "9580242",
    "prefecture": "新潟県",
    "prefecture_kana": "ニイガタケン",
    "prefecture_code": 15,
    "city": "村上市",
    "city_kana": "ムラカミシ",
    "town": "茎太",
    "town_kana": "クキタ",
    "street": null,
    "office_name": null,
    "office_name_kana": null
  },
  "0243": {
    "postcode": "9580243",
    "prefecture": "新潟県",
    "prefecture_kana": "ニイガタケン",
    "prefecture_code": 15,
    "city": "村上市",
    "city_kana": "ムラカミシ",
    "town": "千縄",
    "town_kana": "チナワ",
    "street": null,
    "office_name": null,
    "office_name_kana": null
  },
  "0244": {
    "postcode": "9580244",
    "prefecture": "新潟県",
    "prefecture_kana": "ニイガタケン",
    "prefecture_code": 15,
    "city": "村上市",
    "city_kana": "ムラカミシ",
    "town": "小揚",
    "town_kana": "コアゲ",
    "street": null,
    "office_name": null,
    "office_name_kana": null
  },
  "0245": {
    "postcode": "9580245",
    "prefecture": "新潟県",
    "prefecture_kana": "ニイガタケン",
    "prefecture_code": 15,
    "city": "村上市",
    "city_kana": "ムラカミシ",
    "town": "釜杭",
    "town_kana": "カマグイ",
    "street": null,
    "office_name": null,
    "office_name_kana": null
  },
  "0246": {
    "postcode": "9580246",
    "prefecture": "新潟県",
    "prefecture_kana": "ニイガタケン",
    "prefecture_code": 15,
    "city": "村上市",
    "city_kana": "ムラカミシ",
    "town": "笹平",
    "town_kana": "ササダイラ",
    "street": null,
    "office_name": null,
    "office_name_kana": null
  },
  "0251": {
    "postcode": "9580251",
    "prefecture": "新潟県",
    "prefecture_kana": "ニイガタケン",
    "prefecture_code": 15,
    "city": "村上市",
    "city_kana": "ムラカミシ",
    "town": "岩沢",
    "town_kana": "イワサワ",
    "street": null,
    "office_name": null,
    "office_name_kana": null
  },
  "0252": {
    "postcode": "9580252",
    "prefecture": "新潟県",
    "prefecture_kana": "ニイガタケン",
    "prefecture_code": 15,
    "city": "村上市",
    "city_kana": "ムラカミシ",
    "town": "下新保",
    "town_kana": "シモシンボ",
    "street": null,
    "office_name": null,
    "office_name_kana": null
  },
  "0253": {
    "postcode": "9580253",
    "prefecture": "新潟県",
    "prefecture_kana": "ニイガタケン",
    "prefecture_code": 15,
    "city": "村上市",
    "city_kana": "ムラカミシ",
    "town": "大場沢",
    "town_kana": "オオバザワ",
    "street": null,
    "office_name": null,
    "office_name_kana": null
  },
  "0254": {
    "postcode": "9580254",
    "prefecture": "新潟県",
    "prefecture_kana": "ニイガタケン",
    "prefecture_code": 15,
    "city": "村上市",
    "city_kana": "ムラカミシ",
    "town": "十川",
    "town_kana": "ソガワ",
    "street": null,
    "office_name": null,
    "office_name_kana": null
  },
  "0255": {
    "postcode": "9580255",
    "prefecture": "新潟県",
    "prefecture_kana": "ニイガタケン",
    "prefecture_code": 15,
    "city": "村上市",
    "city_kana": "ムラカミシ",
    "town": "熊登",
    "town_kana": "クマト",
    "street": null,
    "office_name": null,
    "office_name_kana": null
  },
  "0261": {
    "postcode": "9580261",
    "prefecture": "新潟県",
    "prefecture_kana": "ニイガタケン",
    "prefecture_code": 15,
    "city": "村上市",
    "city_kana": "ムラカミシ",
    "town": "猿沢",
    "town_kana": "サルサワ",
    "street": null,
    "office_name": null,
    "office_name_kana": null
  },
  "0262": {
    "postcode": "9580262",
    "prefecture": "新潟県",
    "prefecture_kana": "ニイガタケン",
    "prefecture_code": 15,
    "city": "村上市",
    "city_kana": "ムラカミシ",
    "town": "上野",
    "town_kana": "ウエノ",
    "street": null,
    "office_name": null,
    "office_name_kana": null
  },
  "0263": {
    "postcode": "9580263",
    "prefecture": "新潟県",
    "prefecture_kana": "ニイガタケン",
    "prefecture_code": 15,
    "city": "村上市",
    "city_kana": "ムラカミシ",
    "town": "川端",
    "town_kana": "カワバタ",
    "street": null,
    "office_name": null,
    "office_name_kana": null
  },
  "0264": {
    "postcode": "9580264",
    "prefecture": "新潟県",
    "prefecture_kana": "ニイガタケン",
    "prefecture_code": 15,
    "city": "村上市",
    "city_kana": "ムラカミシ",
    "town": "鵜渡路",
    "town_kana": "ウノトロ",
    "street": null,
    "office_name": null,
    "office_name_kana": null
  },
  "0265": {
    "postcode": "9580265",
    "prefecture": "新潟県",
    "prefecture_kana": "ニイガタケン",
    "prefecture_code": 15,
    "city": "村上市",
    "city_kana": "ムラカミシ",
    "town": "下中島",
    "town_kana": "シモナカジマ",
    "street": null,
    "office_name": null,
    "office_name_kana": null
  },
  "0266": {
    "postcode": "9580266",
    "prefecture": "新潟県",
    "prefecture_kana": "ニイガタケン",
    "prefecture_code": 15,
    "city": "村上市",
    "city_kana": "ムラカミシ",
    "town": "宮ノ下",
    "town_kana": "ミヤノシタ",
    "street": null,
    "office_name": null,
    "office_name_kana": null
  },
  "0267": {
    "postcode": "9580267",
    "prefecture": "新潟県",
    "prefecture_kana": "ニイガタケン",
    "prefecture_code": 15,
    "city": "村上市",
    "city_kana": "ムラカミシ",
    "town": "寺尾",
    "town_kana": "テラオ",
    "street": null,
    "office_name": null,
    "office_name_kana": null
  },
  "0268": {
    "postcode": "9580268",
    "prefecture": "新潟県",
    "prefecture_kana": "ニイガタケン",
    "prefecture_code": 15,
    "city": "村上市",
    "city_kana": "ムラカミシ",
    "town": "小川",
    "town_kana": "オガワ",
    "street": null,
    "office_name": null,
    "office_name_kana": null
  },
  "0269": {
    "postcode": "9580269",
    "prefecture": "新潟県",
    "prefecture_kana": "ニイガタケン",
    "prefecture_code": 15,
    "city": "村上市",
    "city_kana": "ムラカミシ",
    "town": "古渡路",
    "town_kana": "フルトロ",
    "street": null,
    "office_name": null,
    "office_name_kana": null
  },
  "0270": {
    "postcode": "9580270",
    "prefecture": "新潟県",
    "prefecture_kana": "ニイガタケン",
    "prefecture_code": 15,
    "city": "村上市",
    "city_kana": "ムラカミシ",
    "town": "あけぼの",
    "town_kana": "アケボノ",
    "street": null,
    "office_name": null,
    "office_name_kana": null
  },
  "0292": {
    "postcode": "9580292",
    "prefecture": "新潟県",
    "prefecture_kana": "ニイガタケン",
    "prefecture_code": 15,
    "city": "村上市",
    "city_kana": "ムラカミシ",
    "town": "岩沢",
    "town_kana": "イワサワ",
    "street": "５６１１",
    "office_name": "村上市　朝日支所",
    "office_name_kana": "ムラカミシ アサヒシシヨ"
  },
  "0801": {
    "postcode": "9580801",
    "prefecture": "新潟県",
    "prefecture_kana": "ニイガタケン",
    "prefecture_code": 15,
    "city": "村上市",
    "city_kana": "ムラカミシ",
    "town": "西興屋",
    "town_kana": "ニシコウヤ",
    "street": null,
    "office_name": null,
    "office_name_kana": null
  },
  "0802": {
    "postcode": "9580802",
    "prefecture": "新潟県",
    "prefecture_kana": "ニイガタケン",
    "prefecture_code": 15,
    "city": "村上市",
    "city_kana": "ムラカミシ",
    "town": "四日市",
    "town_kana": "ヨッカイチ",
    "street": null,
    "office_name": null,
    "office_name_kana": null
  },
  "0803": {
    "postcode": "9580803",
    "prefecture": "新潟県",
    "prefecture_kana": "ニイガタケン",
    "prefecture_code": 15,
    "city": "村上市",
    "city_kana": "ムラカミシ",
    "town": "天神岡",
    "town_kana": "テンジンオカ",
    "street": null,
    "office_name": null,
    "office_name_kana": null
  },
  "0804": {
    "postcode": "9580804",
    "prefecture": "新潟県",
    "prefecture_kana": "ニイガタケン",
    "prefecture_code": 15,
    "city": "村上市",
    "city_kana": "ムラカミシ",
    "town": "下山田",
    "town_kana": "シモヤマダ",
    "street": null,
    "office_name": null,
    "office_name_kana": null
  },
  "0805": {
    "postcode": "9580805",
    "prefecture": "新潟県",
    "prefecture_kana": "ニイガタケン",
    "prefecture_code": 15,
    "city": "村上市",
    "city_kana": "ムラカミシ",
    "town": "上山田",
    "town_kana": "カミヤマダ",
    "street": null,
    "office_name": null,
    "office_name_kana": null
  },
  "0806": {
    "postcode": "9580806",
    "prefecture": "新潟県",
    "prefecture_kana": "ニイガタケン",
    "prefecture_code": 15,
    "city": "村上市",
    "city_kana": "ムラカミシ",
    "town": "小谷",
    "town_kana": "オダニ",
    "street": null,
    "office_name": null,
    "office_name_kana": null
  },
  "0807": {
    "postcode": "9580807",
    "prefecture": "新潟県",
    "prefecture_kana": "ニイガタケン",
    "prefecture_code": 15,
    "city": "村上市",
    "city_kana": "ムラカミシ",
    "town": "日下",
    "town_kana": "クサカ",
    "street": null,
    "office_name": null,
    "office_name_kana": null
  },
  "0808": {
    "postcode": "9580808",
    "prefecture": "新潟県",
    "prefecture_kana": "ニイガタケン",
    "prefecture_code": 15,
    "city": "村上市",
    "city_kana": "ムラカミシ",
    "town": "上相川",
    "town_kana": "カミアイカワ",
    "street": null,
    "office_name": null,
    "office_name_kana": null
  },
  "0809": {
    "postcode": "9580809",
    "prefecture": "新潟県",
    "prefecture_kana": "ニイガタケン",
    "prefecture_code": 15,
    "city": "村上市",
    "city_kana": "ムラカミシ",
    "town": "下相川",
    "town_kana": "シモアイカワ",
    "street": null,
    "office_name": null,
    "office_name_kana": null
  },
  "0811": {
    "postcode": "9580811",
    "prefecture": "新潟県",
    "prefecture_kana": "ニイガタケン",
    "prefecture_code": 15,
    "city": "村上市",
    "city_kana": "ムラカミシ",
    "town": "高平",
    "town_kana": "タカダイラ",
    "street": null,
    "office_name": null,
    "office_name_kana": null
  },
  "0812": {
    "postcode": "9580812",
    "prefecture": "新潟県",
    "prefecture_kana": "ニイガタケン",
    "prefecture_code": 15,
    "city": "村上市",
    "city_kana": "ムラカミシ",
    "town": "大関",
    "town_kana": "オオセキ",
    "street": null,
    "office_name": null,
    "office_name_kana": null
  },
  "0813": {
    "postcode": "9580813",
    "prefecture": "新潟県",
    "prefecture_kana": "ニイガタケン",
    "prefecture_code": 15,
    "city": "村上市",
    "city_kana": "ムラカミシ",
    "town": "鋳物師",
    "town_kana": "イモジ",
    "street": null,
    "office_name": null,
    "office_name_kana": null
  },
  "0814": {
    "postcode": "9580814",
    "prefecture": "新潟県",
    "prefecture_kana": "ニイガタケン",
    "prefecture_code": 15,
    "city": "村上市",
    "city_kana": "ムラカミシ",
    "town": "門前",
    "town_kana": "モンゼン",
    "street": null,
    "office_name": null,
    "office_name_kana": null
  },
  "0815": {
    "postcode": "9580815",
    "prefecture": "新潟県",
    "prefecture_kana": "ニイガタケン",
    "prefecture_code": 15,
    "city": "村上市",
    "city_kana": "ムラカミシ",
    "town": "大栗田",
    "town_kana": "オオクリダ",
    "street": null,
    "office_name": null,
    "office_name_kana": null
  },
  "0816": {
    "postcode": "9580816",
    "prefecture": "新潟県",
    "prefecture_kana": "ニイガタケン",
    "prefecture_code": 15,
    "city": "村上市",
    "city_kana": "ムラカミシ",
    "town": "赤沢",
    "town_kana": "アカサワ",
    "street": null,
    "office_name": null,
    "office_name_kana": null
  },
  "0817": {
    "postcode": "9580817",
    "prefecture": "新潟県",
    "prefecture_kana": "ニイガタケン",
    "prefecture_code": 15,
    "city": "村上市",
    "city_kana": "ムラカミシ",
    "town": "菅沼",
    "town_kana": "スガヌマ",
    "street": null,
    "office_name": null,
    "office_name_kana": null
  },
  "0818": {
    "postcode": "9580818",
    "prefecture": "新潟県",
    "prefecture_kana": "ニイガタケン",
    "prefecture_code": 15,
    "city": "村上市",
    "city_kana": "ムラカミシ",
    "town": "袋",
    "town_kana": "フクロ",
    "street": null,
    "office_name": null,
    "office_name_kana": null
  },
  "0821": {
    "postcode": "9580821",
    "prefecture": "新潟県",
    "prefecture_kana": "ニイガタケン",
    "prefecture_code": 15,
    "city": "村上市",
    "city_kana": "ムラカミシ",
    "town": "山辺里",
    "town_kana": "サベリ",
    "street": null,
    "office_name": null,
    "office_name_kana": null
  },
  "0822": {
    "postcode": "9580822",
    "prefecture": "新潟県",
    "prefecture_kana": "ニイガタケン",
    "prefecture_code": 15,
    "city": "村上市",
    "city_kana": "ムラカミシ",
    "town": "坪根",
    "town_kana": "ツボネ",
    "street": null,
    "office_name": null,
    "office_name_kana": null
  },
  "0823": {
    "postcode": "9580823",
    "prefecture": "新潟県",
    "prefecture_kana": "ニイガタケン",
    "prefecture_code": 15,
    "city": "村上市",
    "city_kana": "ムラカミシ",
    "town": "仲間町",
    "town_kana": "チュウゲンマチ",
    "street": null,
    "office_name": null,
    "office_name_kana": null
  },
  "0824": {
    "postcode": "9580824",
    "prefecture": "新潟県",
    "prefecture_kana": "ニイガタケン",
    "prefecture_code": 15,
    "city": "村上市",
    "city_kana": "ムラカミシ",
    "town": "本町",
    "town_kana": "モトマチ",
    "street": null,
    "office_name": null,
    "office_name_kana": null
  },
  "0831": {
    "postcode": "9580831",
    "prefecture": "新潟県",
    "prefecture_kana": "ニイガタケン",
    "prefecture_code": 15,
    "city": "村上市",
    "city_kana": "ムラカミシ",
    "town": "杉原",
    "town_kana": "スギワラ",
    "street": null,
    "office_name": null,
    "office_name_kana": null
  },
  "0832": {
    "postcode": "9580832",
    "prefecture": "新潟県",
    "prefecture_kana": "ニイガタケン",
    "prefecture_code": 15,
    "city": "村上市",
    "city_kana": "ムラカミシ",
    "town": "石原",
    "town_kana": "イシワラ",
    "street": null,
    "office_name": null,
    "office_name_kana": null
  },
  "0833": {
    "postcode": "9580833",
    "prefecture": "新潟県",
    "prefecture_kana": "ニイガタケン",
    "prefecture_code": 15,
    "city": "村上市",
    "city_kana": "ムラカミシ",
    "town": "堀片",
    "town_kana": "ホリカタ",
    "street": null,
    "office_name": null,
    "office_name_kana": null
  },
  "0834": {
    "postcode": "9580834",
    "prefecture": "新潟県",
    "prefecture_kana": "ニイガタケン",
    "prefecture_code": 15,
    "city": "村上市",
    "city_kana": "ムラカミシ",
    "town": "新町",
    "town_kana": "シンマチ",
    "street": null,
    "office_name": null,
    "office_name_kana": null
  },
  "0835": {
    "postcode": "9580835",
    "prefecture": "新潟県",
    "prefecture_kana": "ニイガタケン",
    "prefecture_code": 15,
    "city": "村上市",
    "city_kana": "ムラカミシ",
    "town": "二之町",
    "town_kana": "ニノチョウ",
    "street": null,
    "office_name": null,
    "office_name_kana": null
  },
  "0836": {
    "postcode": "9580836",
    "prefecture": "新潟県",
    "prefecture_kana": "ニイガタケン",
    "prefecture_code": 15,
    "city": "村上市",
    "city_kana": "ムラカミシ",
    "town": "羽黒口",
    "town_kana": "ハグログチ",
    "street": null,
    "office_name": null,
    "office_name_kana": null
  },
  "0837": {
    "postcode": "9580837",
    "prefecture": "新潟県",
    "prefecture_kana": "ニイガタケン",
    "prefecture_code": 15,
    "city": "村上市",
    "city_kana": "ムラカミシ",
    "town": "三之町",
    "town_kana": "サンノチョウ",
    "street": null,
    "office_name": null,
    "office_name_kana": null
  },
  "0841": {
    "postcode": "9580841",
    "prefecture": "新潟県",
    "prefecture_kana": "ニイガタケン",
    "prefecture_code": 15,
    "city": "村上市",
    "city_kana": "ムラカミシ",
    "town": "小町",
    "town_kana": "コマチ",
    "street": null,
    "office_name": null,
    "office_name_kana": null
  },
  "0842": {
    "postcode": "9580842",
    "prefecture": "新潟県",
    "prefecture_kana": "ニイガタケン",
    "prefecture_code": 15,
    "city": "村上市",
    "city_kana": "ムラカミシ",
    "town": "大町",
    "town_kana": "オオマチ",
    "street": null,
    "office_name": null,
    "office_name_kana": null
  },
  "0843": {
    "postcode": "9580843",
    "prefecture": "新潟県",
    "prefecture_kana": "ニイガタケン",
    "prefecture_code": 15,
    "city": "村上市",
    "city_kana": "ムラカミシ",
    "town": "上町",
    "town_kana": "カンマチ",
    "street": null,
    "office_name": null,
    "office_name_kana": null
  },
  "0844": {
    "postcode": "9580844",
    "prefecture": "新潟県",
    "prefecture_kana": "ニイガタケン",
    "prefecture_code": 15,
    "city": "村上市",
    "city_kana": "ムラカミシ",
    "town": "長井町",
    "town_kana": "ナガイマチ",
    "street": null,
    "office_name": null,
    "office_name_kana": null
  },
  "0845": {
    "postcode": "9580845",
    "prefecture": "新潟県",
    "prefecture_kana": "ニイガタケン",
    "prefecture_code": 15,
    "city": "村上市",
    "city_kana": "ムラカミシ",
    "town": "細工町",
    "town_kana": "サイクマチ",
    "street": null,
    "office_name": null,
    "office_name_kana": null
  },
  "0846": {
    "postcode": "9580846",
    "prefecture": "新潟県",
    "prefecture_kana": "ニイガタケン",
    "prefecture_code": 15,
    "city": "村上市",
    "city_kana": "ムラカミシ",
    "town": "安良町",
    "town_kana": "アラマチ",
    "street": null,
    "office_name": null,
    "office_name_kana": null
  },
  "0847": {
    "postcode": "9580847",
    "prefecture": "新潟県",
    "prefecture_kana": "ニイガタケン",
    "prefecture_code": 15,
    "city": "村上市",
    "city_kana": "ムラカミシ",
    "town": "大工町",
    "town_kana": "ダイクマチ",
    "street": null,
    "office_name": null,
    "office_name_kana": null
  },
  "0848": {
    "postcode": "9580848",
    "prefecture": "新潟県",
    "prefecture_kana": "ニイガタケン",
    "prefecture_code": 15,
    "city": "村上市",
    "city_kana": "ムラカミシ",
    "town": "小国町",
    "town_kana": "オグニマチ",
    "street": null,
    "office_name": null,
    "office_name_kana": null
  },
  "0849": {
    "postcode": "9580849",
    "prefecture": "新潟県",
    "prefecture_kana": "ニイガタケン",
    "prefecture_code": 15,
    "city": "村上市",
    "city_kana": "ムラカミシ",
    "town": "寺町",
    "town_kana": "テラマチ",
    "street": null,
    "office_name": null,
    "office_name_kana": null
  },
  "0851": {
    "postcode": "9580851",
    "prefecture": "新潟県",
    "prefecture_kana": "ニイガタケン",
    "prefecture_code": 15,
    "city": "村上市",
    "city_kana": "ムラカミシ",
    "town": "羽黒町",
    "town_kana": "ハグロマチ",
    "street": null,
    "office_name": null,
    "office_name_kana": null
  },
  "0852": {
    "postcode": "9580852",
    "prefecture": "新潟県",
    "prefecture_kana": "ニイガタケン",
    "prefecture_code": 15,
    "city": "村上市",
    "city_kana": "ムラカミシ",
    "town": "南町",
    "town_kana": "ミナミマチ",
    "street": null,
    "office_name": null,
    "office_name_kana": null
  },
  "0853": {
    "postcode": "9580853",
    "prefecture": "新潟県",
    "prefecture_kana": "ニイガタケン",
    "prefecture_code": 15,
    "city": "村上市",
    "city_kana": "ムラカミシ",
    "town": "山居町",
    "town_kana": "サンキョマチ",
    "street": null,
    "office_name": null,
    "office_name_kana": null
  },
  "0854": {
    "postcode": "9580854",
    "prefecture": "新潟県",
    "prefecture_kana": "ニイガタケン",
    "prefecture_code": 15,
    "city": "村上市",
    "city_kana": "ムラカミシ",
    "town": "田端町",
    "town_kana": "タバタマチ",
    "street": null,
    "office_name": null,
    "office_name_kana": null
  },
  "0855": {
    "postcode": "9580855",
    "prefecture": "新潟県",
    "prefecture_kana": "ニイガタケン",
    "prefecture_code": 15,
    "city": "村上市",
    "city_kana": "ムラカミシ",
    "town": "飯野西",
    "town_kana": "イイノニシ",
    "street": null,
    "office_name": null,
    "office_name_kana": null
  },
  "0856": {
    "postcode": "9580856",
    "prefecture": "新潟県",
    "prefecture_kana": "ニイガタケン",
    "prefecture_code": 15,
    "city": "村上市",
    "city_kana": "ムラカミシ",
    "town": "飯野桜ケ丘",
    "town_kana": "イイノサクラガオカ",
    "street": null,
    "office_name": null,
    "office_name_kana": null
  },
  "0857": {
    "postcode": "9580857",
    "prefecture": "新潟県",
    "prefecture_kana": "ニイガタケン",
    "prefecture_code": 15,
    "city": "村上市",
    "city_kana": "ムラカミシ",
    "town": "飯野",
    "town_kana": "イイノ",
    "street": null,
    "office_name": null,
    "office_name_kana": null
  },
  "0861": {
    "postcode": "9580861",
    "prefecture": "新潟県",
    "prefecture_kana": "ニイガタケン",
    "prefecture_code": 15,
    "city": "村上市",
    "city_kana": "ムラカミシ",
    "town": "中川原団地",
    "town_kana": "ナカガワラダンチ",
    "street": null,
    "office_name": null,
    "office_name_kana": null
  },
  "0862": {
    "postcode": "9580862",
    "prefecture": "新潟県",
    "prefecture_kana": "ニイガタケン",
    "prefecture_code": 15,
    "city": "村上市",
    "city_kana": "ムラカミシ",
    "town": "若葉町",
    "town_kana": "ワカバチョウ",
    "street": null,
    "office_name": null,
    "office_name_kana": null
  },
  "0863": {
    "postcode": "9580863",
    "prefecture": "新潟県",
    "prefecture_kana": "ニイガタケン",
    "prefecture_code": 15,
    "city": "村上市",
    "city_kana": "ムラカミシ",
    "town": "鍛冶町",
    "town_kana": "カジマチ",
    "street": null,
    "office_name": null,
    "office_name_kana": null
  },
  "0864": {
    "postcode": "9580864",
    "prefecture": "新潟県",
    "prefecture_kana": "ニイガタケン",
    "prefecture_code": 15,
    "city": "村上市",
    "city_kana": "ムラカミシ",
    "town": "肴町",
    "town_kana": "サカナマチ",
    "street": null,
    "office_name": null,
    "office_name_kana": null
  },
  "0865": {
    "postcode": "9580865",
    "prefecture": "新潟県",
    "prefecture_kana": "ニイガタケン",
    "prefecture_code": 15,
    "city": "村上市",
    "city_kana": "ムラカミシ",
    "town": "幸町",
    "town_kana": "サイワイチョウ",
    "street": null,
    "office_name": null,
    "office_name_kana": null
  },
  "0866": {
    "postcode": "9580866",
    "prefecture": "新潟県",
    "prefecture_kana": "ニイガタケン",
    "prefecture_code": 15,
    "city": "村上市",
    "city_kana": "ムラカミシ",
    "town": "村上",
    "town_kana": "ムラカミ",
    "street": null,
    "office_name": null,
    "office_name_kana": null
  },
  "0867": {
    "postcode": "9580867",
    "prefecture": "新潟県",
    "prefecture_kana": "ニイガタケン",
    "prefecture_code": 15,
    "city": "村上市",
    "city_kana": "ムラカミシ",
    "town": "大欠",
    "town_kana": "オオガキ",
    "street": null,
    "office_name": null,
    "office_name_kana": null
  },
  "0871": {
    "postcode": "9580871",
    "prefecture": "新潟県",
    "prefecture_kana": "ニイガタケン",
    "prefecture_code": 15,
    "city": "村上市",
    "city_kana": "ムラカミシ",
    "town": "久保多町",
    "town_kana": "クボタマチ",
    "street": null,
    "office_name": null,
    "office_name_kana": null
  },
  "0872": {
    "postcode": "9580872",
    "prefecture": "新潟県",
    "prefecture_kana": "ニイガタケン",
    "prefecture_code": 15,
    "city": "村上市",
    "city_kana": "ムラカミシ",
    "town": "片町",
    "town_kana": "カタマチ",
    "street": null,
    "office_name": null,
    "office_name_kana": null
  },
  "0873": {
    "postcode": "9580873",
    "prefecture": "新潟県",
    "prefecture_kana": "ニイガタケン",
    "prefecture_code": 15,
    "city": "村上市",
    "city_kana": "ムラカミシ",
    "town": "上片町",
    "town_kana": "カミカタマチ",
    "street": null,
    "office_name": null,
    "office_name_kana": null
  },
  "0874": {
    "postcode": "9580874",
    "prefecture": "新潟県",
    "prefecture_kana": "ニイガタケン",
    "prefecture_code": 15,
    "city": "村上市",
    "city_kana": "ムラカミシ",
    "town": "庄内町",
    "town_kana": "ショウナイマチ",
    "street": null,
    "office_name": null,
    "office_name_kana": null
  },
  "0875": {
    "postcode": "9580875",
    "prefecture": "新潟県",
    "prefecture_kana": "ニイガタケン",
    "prefecture_code": 15,
    "city": "村上市",
    "city_kana": "ムラカミシ",
    "town": "加賀町",
    "town_kana": "カガマチ",
    "street": null,
    "office_name": null,
    "office_name_kana": null
  },
  "0876": {
    "postcode": "9580876",
    "prefecture": "新潟県",
    "prefecture_kana": "ニイガタケン",
    "prefecture_code": 15,
    "city": "村上市",
    "city_kana": "ムラカミシ",
    "town": "塩町",
    "town_kana": "シオマチ",
    "street": null,
    "office_name": null,
    "office_name_kana": null
  },
  "0877": {
    "postcode": "9580877",
    "prefecture": "新潟県",
    "prefecture_kana": "ニイガタケン",
    "prefecture_code": 15,
    "city": "村上市",
    "city_kana": "ムラカミシ",
    "town": "泉町",
    "town_kana": "イズミマチ",
    "street": null,
    "office_name": null,
    "office_name_kana": null
  },
  "8501": {
    "postcode": "9588501",
    "prefecture": "新潟県",
    "prefecture_kana": "ニイガタケン",
    "prefecture_code": 15,
    "city": "村上市",
    "city_kana": "ムラカミシ",
    "town": "三之町",
    "town_kana": "サンノチョウ",
    "street": "１−１",
    "office_name": "村上市役所",
    "office_name_kana": "ムラカミシヤクシヨ"
  },
  "8533": {
    "postcode": "9588533",
    "prefecture": "新潟県",
    "prefecture_kana": "ニイガタケン",
    "prefecture_code": 15,
    "city": "村上市",
    "city_kana": "ムラカミシ",
    "town": "緑町",
    "town_kana": "ミドリマチ",
    "street": "５丁目８番１号",
    "office_name": "新潟県厚生農業協同組合連合会　村上総合病院",
    "office_name_kana": "ニイガタケンコウセイノウギヨウキヨウドウクミアイレンゴウカイ ムラカミソウゴウビヨウイン"
  },
  "8555": {
    "postcode": "9588555",
    "prefecture": "新潟県",
    "prefecture_kana": "ニイガタケン",
    "prefecture_code": 15,
    "city": "村上市",
    "city_kana": "ムラカミシ",
    "town": "瀬波温泉",
    "town_kana": "セナミオンセン",
    "street": "２丁目４−１５",
    "office_name": "新潟県厚生連瀬波病院",
    "office_name_kana": "ニイガタケンコウセイレンセナミビヨウイン"
  },
  "8558": {
    "postcode": "9588558",
    "prefecture": "新潟県",
    "prefecture_kana": "ニイガタケン",
    "prefecture_code": 15,
    "city": "村上市",
    "city_kana": "ムラカミシ",
    "town": "大字仲間町",
    "town_kana": null,
    "street": "２００",
    "office_name": "村上プラザ",
    "office_name_kana": "ムラカミプラザ"
  },
  "8585": {
    "postcode": "9588585",
    "prefecture": "新潟県",
    "prefecture_kana": "ニイガタケン",
    "prefecture_code": 15,
    "city": "村上市",
    "city_kana": "ムラカミシ",
    "town": "田端町",
    "town_kana": "タバタマチ",
    "street": "６−２５",
    "office_name": "村上地域振興局",
    "office_name_kana": "ムラカミチイキシンコウキヨク"
  },
  "8601": {
    "postcode": "9588601",
    "prefecture": "新潟県",
    "prefecture_kana": "ニイガタケン",
    "prefecture_code": 15,
    "city": "村上市",
    "city_kana": "ムラカミシ",
    "town": "小町",
    "town_kana": "コマチ",
    "street": "２−１５（村上郵便局私書箱第１２号）",
    "office_name": "村上信用金庫",
    "office_name_kana": "ムラカミシンヨウキンコ"
  },
  "8686": {
    "postcode": "9588686",
    "prefecture": "新潟県",
    "prefecture_kana": "ニイガタケン",
    "prefecture_code": 15,
    "city": "村上市",
    "city_kana": "ムラカミシ",
    "town": "三之町",
    "town_kana": "サンノチョウ",
    "street": "１１−１（村上郵便局私書箱第１号）",
    "office_name": "村上税務署",
    "office_name_kana": "ムラカミゼイムシヨ"
  }
}