{
  "0000": {
    "postcode": "9620000",
    "prefecture": "福島県",
    "prefecture_kana": "フクシマケン",
    "prefecture_code": 7,
    "city": "須賀川市",
    "city_kana": "スカガワシ",
    "town": "",
    "town_kana": "",
    "street": null,
    "office_name": null,
    "office_name_kana": null
  },
  "0001": {
    "postcode": "9620001",
    "prefecture": "福島県",
    "prefecture_kana": "フクシマケン",
    "prefecture_code": 7,
    "city": "須賀川市",
    "city_kana": "スカガワシ",
    "town": "森宿",
    "town_kana": "モリジュク",
    "street": null,
    "office_name": null,
    "office_name_kana": null
  },
  "0002": {
    "postcode": "9620002",
    "prefecture": "福島県",
    "prefecture_kana": "フクシマケン",
    "prefecture_code": 7,
    "city": "須賀川市",
    "city_kana": "スカガワシ",
    "town": "上人坦",
    "town_kana": "ショウニンダン",
    "street": null,
    "office_name": null,
    "office_name_kana": null
  },
  "0003": {
    "postcode": "9620003",
    "prefecture": "福島県",
    "prefecture_kana": "フクシマケン",
    "prefecture_code": 7,
    "city": "須賀川市",
    "city_kana": "スカガワシ",
    "town": "岩瀬森",
    "town_kana": "イワセモリ",
    "street": null,
    "office_name": null,
    "office_name_kana": null
  },
  "0004": {
    "postcode": "9620004",
    "prefecture": "福島県",
    "prefecture_kana": "フクシマケン",
    "prefecture_code": 7,
    "city": "須賀川市",
    "city_kana": "スカガワシ",
    "town": "中山",
    "town_kana": "ナカヤマ",
    "street": null,
    "office_name": null,
    "office_name_kana": null
  },
  "0005": {
    "postcode": "9620005",
    "prefecture": "福島県",
    "prefecture_kana": "フクシマケン",
    "prefecture_code": 7,
    "city": "須賀川市",
    "city_kana": "スカガワシ",
    "town": "台",
    "town_kana": "ダイ",
    "street": null,
    "office_name": null,
    "office_name_kana": null
  },
  "0006": {
    "postcode": "9620006",
    "prefecture": "福島県",
    "prefecture_kana": "フクシマケン",
    "prefecture_code": 7,
    "city": "須賀川市",
    "city_kana": "スカガワシ",
    "town": "山寺道",
    "town_kana": "ヤマデラミチ",
    "street": null,
    "office_name": null,
    "office_name_kana": null
  },
  "0007": {
    "postcode": "9620007",
    "prefecture": "福島県",
    "prefecture_kana": "フクシマケン",
    "prefecture_code": 7,
    "city": "須賀川市",
    "city_kana": "スカガワシ",
    "town": "下宿町",
    "town_kana": "シモジュクマチ",
    "street": null,
    "office_name": null,
    "office_name_kana": null
  },
  "0011": {
    "postcode": "9620011",
    "prefecture": "福島県",
    "prefecture_kana": "フクシマケン",
    "prefecture_code": 7,
    "city": "須賀川市",
    "city_kana": "スカガワシ",
    "town": "坂の上町",
    "town_kana": "サカノウエマチ",
    "street": null,
    "office_name": null,
    "office_name_kana": null
  },
  "0012": {
    "postcode": "9620012",
    "prefecture": "福島県",
    "prefecture_kana": "フクシマケン",
    "prefecture_code": 7,
    "city": "須賀川市",
    "city_kana": "スカガワシ",
    "town": "陣場町",
    "town_kana": "ジンバマチ",
    "street": null,
    "office_name": null,
    "office_name_kana": null
  },
  "0013": {
    "postcode": "9620013",
    "prefecture": "福島県",
    "prefecture_kana": "フクシマケン",
    "prefecture_code": 7,
    "city": "須賀川市",
    "city_kana": "スカガワシ",
    "town": "岡東町",
    "town_kana": "オカヒガシマチ",
    "street": null,
    "office_name": null,
    "office_name_kana": null
  },
  "0014": {
    "postcode": "9620014",
    "prefecture": "福島県",
    "prefecture_kana": "フクシマケン",
    "prefecture_code": 7,
    "city": "須賀川市",
    "city_kana": "スカガワシ",
    "town": "西川町",
    "town_kana": "ニシカワマチ",
    "street": null,
    "office_name": null,
    "office_name_kana": null
  },
  "0015": {
    "postcode": "9620015",
    "prefecture": "福島県",
    "prefecture_kana": "フクシマケン",
    "prefecture_code": 7,
    "city": "須賀川市",
    "city_kana": "スカガワシ",
    "town": "日向町",
    "town_kana": "ヒナタマチ",
    "street": null,
    "office_name": null,
    "office_name_kana": null
  },
  "0016": {
    "postcode": "9620016",
    "prefecture": "福島県",
    "prefecture_kana": "フクシマケン",
    "prefecture_code": 7,
    "city": "須賀川市",
    "city_kana": "スカガワシ",
    "town": "西田町",
    "town_kana": "ニシダマチ",
    "street": null,
    "office_name": null,
    "office_name_kana": null
  },
  "0017": {
    "postcode": "9620017",
    "prefecture": "福島県",
    "prefecture_kana": "フクシマケン",
    "prefecture_code": 7,
    "city": "須賀川市",
    "city_kana": "スカガワシ",
    "town": "西の内町",
    "town_kana": "ニシノウチマチ",
    "street": null,
    "office_name": null,
    "office_name_kana": null
  },
  "0021": {
    "postcode": "9620021",
    "prefecture": "福島県",
    "prefecture_kana": "フクシマケン",
    "prefecture_code": 7,
    "city": "須賀川市",
    "city_kana": "スカガワシ",
    "town": "館取町",
    "town_kana": "タテトリマチ",
    "street": null,
    "office_name": null,
    "office_name_kana": null
  },
  "0022": {
    "postcode": "9620022",
    "prefecture": "福島県",
    "prefecture_kana": "フクシマケン",
    "prefecture_code": 7,
    "city": "須賀川市",
    "city_kana": "スカガワシ",
    "town": "丸田町",
    "town_kana": "マルタマチ",
    "street": null,
    "office_name": null,
    "office_name_kana": null
  },
  "0023": {
    "postcode": "9620023",
    "prefecture": "福島県",
    "prefecture_kana": "フクシマケン",
    "prefecture_code": 7,
    "city": "須賀川市",
    "city_kana": "スカガワシ",
    "town": "大黒町",
    "town_kana": "ダイコクチョウ",
    "street": null,
    "office_name": null,
    "office_name_kana": null
  },
  "0024": {
    "postcode": "9620024",
    "prefecture": "福島県",
    "prefecture_kana": "フクシマケン",
    "prefecture_code": 7,
    "city": "須賀川市",
    "city_kana": "スカガワシ",
    "town": "稲荷町",
    "town_kana": "イナリマチ",
    "street": null,
    "office_name": null,
    "office_name_kana": null
  },
  "0025": {
    "postcode": "9620025",
    "prefecture": "福島県",
    "prefecture_kana": "フクシマケン",
    "prefecture_code": 7,
    "city": "須賀川市",
    "city_kana": "スカガワシ",
    "town": "八幡山",
    "town_kana": "ハチマンヤマ",
    "street": null,
    "office_name": null,
    "office_name_kana": null
  },
  "0026": {
    "postcode": "9620026",
    "prefecture": "福島県",
    "prefecture_kana": "フクシマケン",
    "prefecture_code": 7,
    "city": "須賀川市",
    "city_kana": "スカガワシ",
    "town": "岩崎",
    "town_kana": "イワサキ",
    "street": null,
    "office_name": null,
    "office_name_kana": null
  },
  "0027": {
    "postcode": "9620027",
    "prefecture": "福島県",
    "prefecture_kana": "フクシマケン",
    "prefecture_code": 7,
    "city": "須賀川市",
    "city_kana": "スカガワシ",
    "town": "堀底町",
    "town_kana": "ホリソコマチ",
    "street": null,
    "office_name": null,
    "office_name_kana": null
  },
  "0028": {
    "postcode": "9620028",
    "prefecture": "福島県",
    "prefecture_kana": "フクシマケン",
    "prefecture_code": 7,
    "city": "須賀川市",
    "city_kana": "スカガワシ",
    "town": "茶畑町",
    "town_kana": "チャバタケマチ",
    "street": null,
    "office_name": null,
    "office_name_kana": null
  },
  "0031": {
    "postcode": "9620031",
    "prefecture": "福島県",
    "prefecture_kana": "フクシマケン",
    "prefecture_code": 7,
    "city": "須賀川市",
    "city_kana": "スカガワシ",
    "town": "影沼町",
    "town_kana": "カゲヌママチ",
    "street": null,
    "office_name": null,
    "office_name_kana": null
  },
  "0032": {
    "postcode": "9620032",
    "prefecture": "福島県",
    "prefecture_kana": "フクシマケン",
    "prefecture_code": 7,
    "city": "須賀川市",
    "city_kana": "スカガワシ",
    "town": "大袋町",
    "town_kana": "オオブクロマチ",
    "street": null,
    "office_name": null,
    "office_name_kana": null
  },
  "0033": {
    "postcode": "9620033",
    "prefecture": "福島県",
    "prefecture_kana": "フクシマケン",
    "prefecture_code": 7,
    "city": "須賀川市",
    "city_kana": "スカガワシ",
    "town": "岩作",
    "town_kana": "イワサク",
    "street": null,
    "office_name": null,
    "office_name_kana": null
  },
  "0034": {
    "postcode": "9620034",
    "prefecture": "福島県",
    "prefecture_kana": "フクシマケン",
    "prefecture_code": 7,
    "city": "須賀川市",
    "city_kana": "スカガワシ",
    "town": "一里坦",
    "town_kana": "イチリダン",
    "street": null,
    "office_name": null,
    "office_name_kana": null
  },
  "0035": {
    "postcode": "9620035",
    "prefecture": "福島県",
    "prefecture_kana": "フクシマケン",
    "prefecture_code": 7,
    "city": "須賀川市",
    "city_kana": "スカガワシ",
    "town": "五月雨",
    "town_kana": "サミダレ",
    "street": null,
    "office_name": null,
    "office_name_kana": null
  },
  "0036": {
    "postcode": "9620036",
    "prefecture": "福島県",
    "prefecture_kana": "フクシマケン",
    "prefecture_code": 7,
    "city": "須賀川市",
    "city_kana": "スカガワシ",
    "town": "芹沢町",
    "town_kana": "セリザワマチ",
    "street": null,
    "office_name": null,
    "office_name_kana": null
  },
  "0041": {
    "postcode": "9620041",
    "prefecture": "福島県",
    "prefecture_kana": "フクシマケン",
    "prefecture_code": 7,
    "city": "須賀川市",
    "city_kana": "スカガワシ",
    "town": "横山町",
    "town_kana": "ヨコヤマチョウ",
    "street": null,
    "office_name": null,
    "office_name_kana": null
  },
  "0042": {
    "postcode": "9620042",
    "prefecture": "福島県",
    "prefecture_kana": "フクシマケン",
    "prefecture_code": 7,
    "city": "須賀川市",
    "city_kana": "スカガワシ",
    "town": "稲",
    "town_kana": "イナ",
    "street": null,
    "office_name": null,
    "office_name_kana": null
  },
  "0043": {
    "postcode": "9620043",
    "prefecture": "福島県",
    "prefecture_kana": "フクシマケン",
    "prefecture_code": 7,
    "city": "須賀川市",
    "city_kana": "スカガワシ",
    "town": "岩渕",
    "town_kana": "イワブチ",
    "street": null,
    "office_name": null,
    "office_name_kana": null
  },
  "0044": {
    "postcode": "9620044",
    "prefecture": "福島県",
    "prefecture_kana": "フクシマケン",
    "prefecture_code": 7,
    "city": "須賀川市",
    "city_kana": "スカガワシ",
    "town": "池下",
    "town_kana": "イケシタ",
    "street": null,
    "office_name": null,
    "office_name_kana": null
  },
  "0045": {
    "postcode": "9620045",
    "prefecture": "福島県",
    "prefecture_kana": "フクシマケン",
    "prefecture_code": 7,
    "city": "須賀川市",
    "city_kana": "スカガワシ",
    "town": "保土原",
    "town_kana": "ホドワラ",
    "street": null,
    "office_name": null,
    "office_name_kana": null
  },
  "0046": {
    "postcode": "9620046",
    "prefecture": "福島県",
    "prefecture_kana": "フクシマケン",
    "prefecture_code": 7,
    "city": "須賀川市",
    "city_kana": "スカガワシ",
    "town": "泉田",
    "town_kana": "イズミダ",
    "street": null,
    "office_name": null,
    "office_name_kana": null
  },
  "0047": {
    "postcode": "9620047",
    "prefecture": "福島県",
    "prefecture_kana": "フクシマケン",
    "prefecture_code": 7,
    "city": "須賀川市",
    "city_kana": "スカガワシ",
    "town": "松塚",
    "town_kana": "マツヅカ",
    "street": null,
    "office_name": null,
    "office_name_kana": null
  },
  "0051": {
    "postcode": "9620051",
    "prefecture": "福島県",
    "prefecture_kana": "フクシマケン",
    "prefecture_code": 7,
    "city": "須賀川市",
    "city_kana": "スカガワシ",
    "town": "越久",
    "town_kana": "オッキュウ",
    "street": null,
    "office_name": null,
    "office_name_kana": null
  },
  "0052": {
    "postcode": "9620052",
    "prefecture": "福島県",
    "prefecture_kana": "フクシマケン",
    "prefecture_code": 7,
    "city": "須賀川市",
    "city_kana": "スカガワシ",
    "town": "西川",
    "town_kana": "ニシカワ",
    "street": null,
    "office_name": null,
    "office_name_kana": null
  },
  "0053": {
    "postcode": "9620053",
    "prefecture": "福島県",
    "prefecture_kana": "フクシマケン",
    "prefecture_code": 7,
    "city": "須賀川市",
    "city_kana": "スカガワシ",
    "town": "卸町",
    "town_kana": "オロシマチ",
    "street": null,
    "office_name": null,
    "office_name_kana": null
  },
  "0054": {
    "postcode": "9620054",
    "prefecture": "福島県",
    "prefecture_kana": "フクシマケン",
    "prefecture_code": 7,
    "city": "須賀川市",
    "city_kana": "スカガワシ",
    "town": "牛袋町",
    "town_kana": "ウシブクロマチ",
    "street": null,
    "office_name": null,
    "office_name_kana": null
  },
  "0055": {
    "postcode": "9620055",
    "prefecture": "福島県",
    "prefecture_kana": "フクシマケン",
    "prefecture_code": 7,
    "city": "須賀川市",
    "city_kana": "スカガワシ",
    "town": "新町",
    "town_kana": "シンマチ",
    "street": null,
    "office_name": null,
    "office_name_kana": null
  },
  "0056": {
    "postcode": "9620056",
    "prefecture": "福島県",
    "prefecture_kana": "フクシマケン",
    "prefecture_code": 7,
    "city": "須賀川市",
    "city_kana": "スカガワシ",
    "town": "大桑原",
    "town_kana": "オオカンバラ",
    "street": null,
    "office_name": null,
    "office_name_kana": null
  },
  "0057": {
    "postcode": "9620057",
    "prefecture": "福島県",
    "prefecture_kana": "フクシマケン",
    "prefecture_code": 7,
    "city": "須賀川市",
    "city_kana": "スカガワシ",
    "town": "袋田",
    "town_kana": "フクロダ",
    "street": null,
    "office_name": null,
    "office_name_kana": null
  },
  "0058": {
    "postcode": "9620058",
    "prefecture": "福島県",
    "prefecture_kana": "フクシマケン",
    "prefecture_code": 7,
    "city": "須賀川市",
    "city_kana": "スカガワシ",
    "town": "池ノ下町",
    "town_kana": "イケノシタチョウ",
    "street": null,
    "office_name": null,
    "office_name_kana": null
  },
  "0059": {
    "postcode": "9620059",
    "prefecture": "福島県",
    "prefecture_kana": "フクシマケン",
    "prefecture_code": 7,
    "city": "須賀川市",
    "city_kana": "スカガワシ",
    "town": "吉美根",
    "town_kana": "ヨシミネ",
    "street": null,
    "office_name": null,
    "office_name_kana": null
  },
  "0061": {
    "postcode": "9620061",
    "prefecture": "福島県",
    "prefecture_kana": "フクシマケン",
    "prefecture_code": 7,
    "city": "須賀川市",
    "city_kana": "スカガワシ",
    "town": "北山寺町",
    "town_kana": "キタヤマデラマチ",
    "street": null,
    "office_name": null,
    "office_name_kana": null
  },
  "0062": {
    "postcode": "9620062",
    "prefecture": "福島県",
    "prefecture_kana": "フクシマケン",
    "prefecture_code": 7,
    "city": "須賀川市",
    "city_kana": "スカガワシ",
    "town": "山寺町",
    "town_kana": "ヤマデラマチ",
    "street": null,
    "office_name": null,
    "office_name_kana": null
  },
  "0063": {
    "postcode": "9620063",
    "prefecture": "福島県",
    "prefecture_kana": "フクシマケン",
    "prefecture_code": 7,
    "city": "須賀川市",
    "city_kana": "スカガワシ",
    "town": "西山寺町",
    "town_kana": "ニシヤマデラマチ",
    "street": null,
    "office_name": null,
    "office_name_kana": null
  },
  "0121": {
    "postcode": "9620121",
    "prefecture": "福島県",
    "prefecture_kana": "フクシマケン",
    "prefecture_code": 7,
    "city": "須賀川市",
    "city_kana": "スカガワシ",
    "town": "横田",
    "town_kana": "ヨコタ",
    "street": null,
    "office_name": null,
    "office_name_kana": null
  },
  "0122": {
    "postcode": "9620122",
    "prefecture": "福島県",
    "prefecture_kana": "フクシマケン",
    "prefecture_code": 7,
    "city": "須賀川市",
    "city_kana": "スカガワシ",
    "town": "木之崎",
    "town_kana": "キノサキ",
    "street": null,
    "office_name": null,
    "office_name_kana": null
  },
  "0123": {
    "postcode": "9620123",
    "prefecture": "福島県",
    "prefecture_kana": "フクシマケン",
    "prefecture_code": 7,
    "city": "須賀川市",
    "city_kana": "スカガワシ",
    "town": "矢田野",
    "town_kana": "ヤタノ",
    "street": null,
    "office_name": null,
    "office_name_kana": null
  },
  "0124": {
    "postcode": "9620124",
    "prefecture": "福島県",
    "prefecture_kana": "フクシマケン",
    "prefecture_code": 7,
    "city": "須賀川市",
    "city_kana": "スカガワシ",
    "town": "桙衝",
    "town_kana": "ホコツキ",
    "street": null,
    "office_name": null,
    "office_name_kana": null
  },
  "0125": {
    "postcode": "9620125",
    "prefecture": "福島県",
    "prefecture_kana": "フクシマケン",
    "prefecture_code": 7,
    "city": "須賀川市",
    "city_kana": "スカガワシ",
    "town": "堀込",
    "town_kana": "ホリゴメ",
    "street": null,
    "office_name": null,
    "office_name_kana": null
  },
  "0126": {
    "postcode": "9620126",
    "prefecture": "福島県",
    "prefecture_kana": "フクシマケン",
    "prefecture_code": 7,
    "city": "須賀川市",
    "city_kana": "スカガワシ",
    "town": "花の里",
    "town_kana": "ハナノサト",
    "street": null,
    "office_name": null,
    "office_name_kana": null
  },
  "0201": {
    "postcode": "9620201",
    "prefecture": "福島県",
    "prefecture_kana": "フクシマケン",
    "prefecture_code": 7,
    "city": "須賀川市",
    "city_kana": "スカガワシ",
    "town": "志茂",
    "town_kana": "シモ",
    "street": null,
    "office_name": null,
    "office_name_kana": null
  },
  "0202": {
    "postcode": "9620202",
    "prefecture": "福島県",
    "prefecture_kana": "フクシマケン",
    "prefecture_code": 7,
    "city": "須賀川市",
    "city_kana": "スカガワシ",
    "town": "小中",
    "town_kana": "コナカ",
    "street": null,
    "office_name": null,
    "office_name_kana": null
  },
  "0203": {
    "postcode": "9620203",
    "prefecture": "福島県",
    "prefecture_kana": "フクシマケン",
    "prefecture_code": 7,
    "city": "須賀川市",
    "city_kana": "スカガワシ",
    "town": "長沼",
    "town_kana": "ナガヌマ",
    "street": null,
    "office_name": null,
    "office_name_kana": null
  },
  "0204": {
    "postcode": "9620204",
    "prefecture": "福島県",
    "prefecture_kana": "フクシマケン",
    "prefecture_code": 7,
    "city": "須賀川市",
    "city_kana": "スカガワシ",
    "town": "江花",
    "town_kana": "エバナ",
    "street": null,
    "office_name": null,
    "office_name_kana": null
  },
  "0205": {
    "postcode": "9620205",
    "prefecture": "福島県",
    "prefecture_kana": "フクシマケン",
    "prefecture_code": 7,
    "city": "須賀川市",
    "city_kana": "スカガワシ",
    "town": "勢至堂",
    "town_kana": "セイシドウ",
    "street": null,
    "office_name": null,
    "office_name_kana": null
  },
  "0211": [
    {
      "postcode": "9620211",
      "prefecture": "福島県",
      "prefecture_kana": "フクシマケン",
      "prefecture_code": 7,
      "city": "須賀川市",
      "city_kana": "スカガワシ",
      "town": "滝",
      "town_kana": "タキ",
      "street": null,
      "office_name": null,
      "office_name_kana": null
    },
    {
      "postcode": "9620211",
      "prefecture": "福島県",
      "prefecture_kana": "フクシマケン",
      "prefecture_code": 7,
      "city": "須賀川市",
      "city_kana": "スカガワシ",
      "town": "滝赤土",
      "town_kana": "タキアカツチ",
      "street": null,
      "office_name": null,
      "office_name_kana": null
    },
    {
      "postcode": "9620211",
      "prefecture": "福島県",
      "prefecture_kana": "フクシマケン",
      "prefecture_code": 7,
      "city": "須賀川市",
      "city_kana": "スカガワシ",
      "town": "滝雁田",
      "town_kana": "タキガンダ",
      "street": null,
      "office_name": null,
      "office_name_kana": null
    },
    {
      "postcode": "9620211",
      "prefecture": "福島県",
      "prefecture_kana": "フクシマケン",
      "prefecture_code": 7,
      "city": "須賀川市",
      "city_kana": "スカガワシ",
      "town": "滝北久保",
      "town_kana": "タキキタクボ",
      "street": null,
      "office_name": null,
      "office_name_kana": null
    },
    {
      "postcode": "9620211",
      "prefecture": "福島県",
      "prefecture_kana": "フクシマケン",
      "prefecture_code": 7,
      "city": "須賀川市",
      "city_kana": "スカガワシ",
      "town": "滝白砂",
      "town_kana": "タキシラスナ",
      "street": null,
      "office_name": null,
      "office_name_kana": null
    },
    {
      "postcode": "9620211",
      "prefecture": "福島県",
      "prefecture_kana": "フクシマケン",
      "prefecture_code": 7,
      "city": "須賀川市",
      "city_kana": "スカガワシ",
      "town": "滝白砂山",
      "town_kana": "タキシラスナヤマ",
      "street": null,
      "office_name": null,
      "office_name_kana": null
    },
    {
      "postcode": "9620211",
      "prefecture": "福島県",
      "prefecture_kana": "フクシマケン",
      "prefecture_code": 7,
      "city": "須賀川市",
      "city_kana": "スカガワシ",
      "town": "滝大新畑",
      "town_kana": "タキダイシンバタ",
      "street": null,
      "office_name": null,
      "office_name_kana": null
    },
    {
      "postcode": "9620211",
      "prefecture": "福島県",
      "prefecture_kana": "フクシマケン",
      "prefecture_code": 7,
      "city": "須賀川市",
      "city_kana": "スカガワシ",
      "town": "滝大日前",
      "town_kana": "タキダイニチマエ",
      "street": null,
      "office_name": null,
      "office_name_kana": null
    },
    {
      "postcode": "9620211",
      "prefecture": "福島県",
      "prefecture_kana": "フクシマケン",
      "prefecture_code": 7,
      "city": "須賀川市",
      "city_kana": "スカガワシ",
      "town": "滝滝西",
      "town_kana": "タキタキニシ",
      "street": null,
      "office_name": null,
      "office_name_kana": null
    },
    {
      "postcode": "9620211",
      "prefecture": "福島県",
      "prefecture_kana": "フクシマケン",
      "prefecture_code": 7,
      "city": "須賀川市",
      "city_kana": "スカガワシ",
      "town": "滝チャクの下",
      "town_kana": "タキチャクノシタ",
      "street": null,
      "office_name": null,
      "office_name_kana": null
    },
    {
      "postcode": "9620211",
      "prefecture": "福島県",
      "prefecture_kana": "フクシマケン",
      "prefecture_code": 7,
      "city": "須賀川市",
      "city_kana": "スカガワシ",
      "town": "滝日向前",
      "town_kana": "タキヒナタマエ",
      "street": null,
      "office_name": null,
      "office_name_kana": null
    },
    {
      "postcode": "9620211",
      "prefecture": "福島県",
      "prefecture_kana": "フクシマケン",
      "prefecture_code": 7,
      "city": "須賀川市",
      "city_kana": "スカガワシ",
      "town": "滝本郷",
      "town_kana": "タキホンゴウ",
      "street": null,
      "office_name": null,
      "office_name_kana": null
    },
    {
      "postcode": "9620211",
      "prefecture": "福島県",
      "prefecture_kana": "フクシマケン",
      "prefecture_code": 7,
      "city": "須賀川市",
      "city_kana": "スカガワシ",
      "town": "滝前田",
      "town_kana": "タキマエタ",
      "street": null,
      "office_name": null,
      "office_name_kana": null
    }
  ],
  "0292": {
    "postcode": "9620292",
    "prefecture": "福島県",
    "prefecture_kana": "フクシマケン",
    "prefecture_code": 7,
    "city": "須賀川市",
    "city_kana": "スカガワシ",
    "town": "長沼",
    "town_kana": "ナガヌマ",
    "street": "字金町８５",
    "office_name": "須賀川市役所　長沼支所",
    "office_name_kana": "スカガワシヤクシヨ ナガヌマシシヨ"
  },
  "0301": {
    "postcode": "9620301",
    "prefecture": "福島県",
    "prefecture_kana": "フクシマケン",
    "prefecture_code": 7,
    "city": "須賀川市",
    "city_kana": "スカガワシ",
    "town": "今泉",
    "town_kana": "イマイズミ",
    "street": null,
    "office_name": null,
    "office_name_kana": null
  },
  "0302": {
    "postcode": "9620302",
    "prefecture": "福島県",
    "prefecture_kana": "フクシマケン",
    "prefecture_code": 7,
    "city": "須賀川市",
    "city_kana": "スカガワシ",
    "town": "柱田",
    "town_kana": "ハシラタ",
    "street": null,
    "office_name": null,
    "office_name_kana": null
  },
  "0303": {
    "postcode": "9620303",
    "prefecture": "福島県",
    "prefecture_kana": "フクシマケン",
    "prefecture_code": 7,
    "city": "須賀川市",
    "city_kana": "スカガワシ",
    "town": "梅田",
    "town_kana": "ウメタ",
    "street": null,
    "office_name": null,
    "office_name_kana": null
  },
  "0304": {
    "postcode": "9620304",
    "prefecture": "福島県",
    "prefecture_kana": "フクシマケン",
    "prefecture_code": 7,
    "city": "須賀川市",
    "city_kana": "スカガワシ",
    "town": "滝",
    "town_kana": "タキ",
    "street": null,
    "office_name": null,
    "office_name_kana": null
  },
  "0305": {
    "postcode": "9620305",
    "prefecture": "福島県",
    "prefecture_kana": "フクシマケン",
    "prefecture_code": 7,
    "city": "須賀川市",
    "city_kana": "スカガワシ",
    "town": "守屋",
    "town_kana": "モリヤ",
    "street": null,
    "office_name": null,
    "office_name_kana": null
  },
  "0311": {
    "postcode": "9620311",
    "prefecture": "福島県",
    "prefecture_kana": "フクシマケン",
    "prefecture_code": 7,
    "city": "須賀川市",
    "city_kana": "スカガワシ",
    "town": "矢沢",
    "town_kana": "ヤザワ",
    "street": null,
    "office_name": null,
    "office_name_kana": null
  },
  "0312": {
    "postcode": "9620312",
    "prefecture": "福島県",
    "prefecture_kana": "フクシマケン",
    "prefecture_code": 7,
    "city": "須賀川市",
    "city_kana": "スカガワシ",
    "town": "大久保",
    "town_kana": "オオクボ",
    "street": null,
    "office_name": null,
    "office_name_kana": null
  },
  "0313": {
    "postcode": "9620313",
    "prefecture": "福島県",
    "prefecture_kana": "フクシマケン",
    "prefecture_code": 7,
    "city": "須賀川市",
    "city_kana": "スカガワシ",
    "town": "北横田",
    "town_kana": "キタヨコタ",
    "street": null,
    "office_name": null,
    "office_name_kana": null
  },
  "0314": {
    "postcode": "9620314",
    "prefecture": "福島県",
    "prefecture_kana": "フクシマケン",
    "prefecture_code": 7,
    "city": "須賀川市",
    "city_kana": "スカガワシ",
    "town": "深渡戸",
    "town_kana": "フカワタリド",
    "street": null,
    "office_name": null,
    "office_name_kana": null
  },
  "0315": {
    "postcode": "9620315",
    "prefecture": "福島県",
    "prefecture_kana": "フクシマケン",
    "prefecture_code": 7,
    "city": "須賀川市",
    "city_kana": "スカガワシ",
    "town": "畑田",
    "town_kana": "ハタダ",
    "street": null,
    "office_name": null,
    "office_name_kana": null
  },
  "0392": {
    "postcode": "9620392",
    "prefecture": "福島県",
    "prefecture_kana": "フクシマケン",
    "prefecture_code": 7,
    "city": "須賀川市",
    "city_kana": "スカガワシ",
    "town": "柱田",
    "town_kana": "ハシラタ",
    "street": "字中地前２２",
    "office_name": "須賀川市役所　岩瀬支所",
    "office_name_kana": "スカガワシヤクシヨ イワセシシヨ"
  },
  "0401": {
    "postcode": "9620401",
    "prefecture": "福島県",
    "prefecture_kana": "フクシマケン",
    "prefecture_code": 7,
    "city": "須賀川市",
    "city_kana": "スカガワシ",
    "town": "向陽町",
    "town_kana": "コウヨウチョウ",
    "street": null,
    "office_name": null,
    "office_name_kana": null
  },
  "0402": {
    "postcode": "9620402",
    "prefecture": "福島県",
    "prefecture_kana": "フクシマケン",
    "prefecture_code": 7,
    "city": "須賀川市",
    "city_kana": "スカガワシ",
    "town": "仁井田",
    "town_kana": "ニイダ",
    "street": null,
    "office_name": null,
    "office_name_kana": null
  },
  "0403": {
    "postcode": "9620403",
    "prefecture": "福島県",
    "prefecture_kana": "フクシマケン",
    "prefecture_code": 7,
    "city": "須賀川市",
    "city_kana": "スカガワシ",
    "town": "滑川",
    "town_kana": "ナメガワ",
    "street": null,
    "office_name": null,
    "office_name_kana": null
  },
  "0404": {
    "postcode": "9620404",
    "prefecture": "福島県",
    "prefecture_kana": "フクシマケン",
    "prefecture_code": 7,
    "city": "須賀川市",
    "city_kana": "スカガワシ",
    "town": "舘ケ岡",
    "town_kana": "タテガオカ",
    "street": null,
    "office_name": null,
    "office_name_kana": null
  },
  "0405": {
    "postcode": "9620405",
    "prefecture": "福島県",
    "prefecture_kana": "フクシマケン",
    "prefecture_code": 7,
    "city": "須賀川市",
    "city_kana": "スカガワシ",
    "town": "季の郷",
    "town_kana": "キノサト",
    "street": null,
    "office_name": null,
    "office_name_kana": null
  },
  "0406": {
    "postcode": "9620406",
    "prefecture": "福島県",
    "prefecture_kana": "フクシマケン",
    "prefecture_code": 7,
    "city": "須賀川市",
    "city_kana": "スカガワシ",
    "town": "宮の杜",
    "town_kana": "ミヤノモリ",
    "street": null,
    "office_name": null,
    "office_name_kana": null
  },
  "0500": {
    "postcode": "9620500",
    "prefecture": "福島県",
    "prefecture_kana": "フクシマケン",
    "prefecture_code": 7,
    "city": "岩瀬郡天栄村",
    "city_kana": "イワセグンテンエイムラ",
    "town": "",
    "town_kana": "",
    "street": null,
    "office_name": null,
    "office_name_kana": null
  },
  "0501": {
    "postcode": "9620501",
    "prefecture": "福島県",
    "prefecture_kana": "フクシマケン",
    "prefecture_code": 7,
    "city": "岩瀬郡天栄村",
    "city_kana": "イワセグンテンエイムラ",
    "town": "牧之内",
    "town_kana": "マキノウチ",
    "street": null,
    "office_name": null,
    "office_name_kana": null
  },
  "0502": {
    "postcode": "9620502",
    "prefecture": "福島県",
    "prefecture_kana": "フクシマケン",
    "prefecture_code": 7,
    "city": "岩瀬郡天栄村",
    "city_kana": "イワセグンテンエイムラ",
    "town": "上松本",
    "town_kana": "カミマツモト",
    "street": null,
    "office_name": null,
    "office_name_kana": null
  },
  "0503": {
    "postcode": "9620503",
    "prefecture": "福島県",
    "prefecture_kana": "フクシマケン",
    "prefecture_code": 7,
    "city": "岩瀬郡天栄村",
    "city_kana": "イワセグンテンエイムラ",
    "town": "下松本",
    "town_kana": "シモマツモト",
    "street": null,
    "office_name": null,
    "office_name_kana": null
  },
  "0504": {
    "postcode": "9620504",
    "prefecture": "福島県",
    "prefecture_kana": "フクシマケン",
    "prefecture_code": 7,
    "city": "岩瀬郡天栄村",
    "city_kana": "イワセグンテンエイムラ",
    "town": "大里",
    "town_kana": "オオサト",
    "street": null,
    "office_name": null,
    "office_name_kana": null
  },
  "0511": {
    "postcode": "9620511",
    "prefecture": "福島県",
    "prefecture_kana": "フクシマケン",
    "prefecture_code": 7,
    "city": "岩瀬郡天栄村",
    "city_kana": "イワセグンテンエイムラ",
    "town": "白子",
    "town_kana": "シロコ",
    "street": null,
    "office_name": null,
    "office_name_kana": null
  },
  "0512": {
    "postcode": "9620512",
    "prefecture": "福島県",
    "prefecture_kana": "フクシマケン",
    "prefecture_code": 7,
    "city": "岩瀬郡天栄村",
    "city_kana": "イワセグンテンエイムラ",
    "town": "飯豊",
    "town_kana": "イイトヨ",
    "street": null,
    "office_name": null,
    "office_name_kana": null
  },
  "0513": {
    "postcode": "9620513",
    "prefecture": "福島県",
    "prefecture_kana": "フクシマケン",
    "prefecture_code": 7,
    "city": "岩瀬郡天栄村",
    "city_kana": "イワセグンテンエイムラ",
    "town": "沖内",
    "town_kana": "オキウチ",
    "street": null,
    "office_name": null,
    "office_name_kana": null
  },
  "0514": {
    "postcode": "9620514",
    "prefecture": "福島県",
    "prefecture_kana": "フクシマケン",
    "prefecture_code": 7,
    "city": "岩瀬郡天栄村",
    "city_kana": "イワセグンテンエイムラ",
    "town": "柿之内",
    "town_kana": "カキノウチ",
    "street": null,
    "office_name": null,
    "office_name_kana": null
  },
  "0515": {
    "postcode": "9620515",
    "prefecture": "福島県",
    "prefecture_kana": "フクシマケン",
    "prefecture_code": 7,
    "city": "岩瀬郡天栄村",
    "city_kana": "イワセグンテンエイムラ",
    "town": "高林",
    "town_kana": "タカハヤシ",
    "street": null,
    "office_name": null,
    "office_name_kana": null
  },
  "0516": {
    "postcode": "9620516",
    "prefecture": "福島県",
    "prefecture_kana": "フクシマケン",
    "prefecture_code": 7,
    "city": "岩瀬郡天栄村",
    "city_kana": "イワセグンテンエイムラ",
    "town": "小川",
    "town_kana": "オガワ",
    "street": null,
    "office_name": null,
    "office_name_kana": null
  },
  "0592": {
    "postcode": "9620592",
    "prefecture": "福島県",
    "prefecture_kana": "フクシマケン",
    "prefecture_code": 7,
    "city": "岩瀬郡天栄村",
    "city_kana": "イワセグンテンエイムラ",
    "town": "大字下松本",
    "town_kana": null,
    "street": "字原畑７８",
    "office_name": "天栄村役場",
    "office_name_kana": "テンエイムラヤクバ"
  },
  "0621": {
    "postcode": "9620621",
    "prefecture": "福島県",
    "prefecture_kana": "フクシマケン",
    "prefecture_code": 7,
    "city": "岩瀬郡天栄村",
    "city_kana": "イワセグンテンエイムラ",
    "town": "湯本",
    "town_kana": "ユモト",
    "street": null,
    "office_name": null,
    "office_name_kana": null
  },
  "0622": {
    "postcode": "9620622",
    "prefecture": "福島県",
    "prefecture_kana": "フクシマケン",
    "prefecture_code": 7,
    "city": "岩瀬郡天栄村",
    "city_kana": "イワセグンテンエイムラ",
    "town": "田良尾",
    "town_kana": "タラオ",
    "street": null,
    "office_name": null,
    "office_name_kana": null
  },
  "0623": {
    "postcode": "9620623",
    "prefecture": "福島県",
    "prefecture_kana": "フクシマケン",
    "prefecture_code": 7,
    "city": "岩瀬郡天栄村",
    "city_kana": "イワセグンテンエイムラ",
    "town": "羽鳥",
    "town_kana": "ハトリ",
    "street": null,
    "office_name": null,
    "office_name_kana": null
  },
  "0692": {
    "postcode": "9620692",
    "prefecture": "福島県",
    "prefecture_kana": "フクシマケン",
    "prefecture_code": 7,
    "city": "岩瀬郡天栄村",
    "city_kana": "イワセグンテンエイムラ",
    "town": "大字羽鳥",
    "town_kana": null,
    "street": "字高戸屋３９番",
    "office_name": "羽島湖高原レジーナの森　株式会社",
    "office_name_kana": "ハトリココウゲンレジ-ナノモリ カブシキガイシヤ"
  },
  "0711": {
    "postcode": "9620711",
    "prefecture": "福島県",
    "prefecture_kana": "フクシマケン",
    "prefecture_code": 7,
    "city": "須賀川市",
    "city_kana": "スカガワシ",
    "town": "塩田",
    "town_kana": "シオダ",
    "street": null,
    "office_name": null,
    "office_name_kana": null
  },
  "0712": {
    "postcode": "9620712",
    "prefecture": "福島県",
    "prefecture_kana": "フクシマケン",
    "prefecture_code": 7,
    "city": "須賀川市",
    "city_kana": "スカガワシ",
    "town": "小倉",
    "town_kana": "オグラ",
    "street": null,
    "office_name": null,
    "office_name_kana": null
  },
  "0713": {
    "postcode": "9620713",
    "prefecture": "福島県",
    "prefecture_kana": "フクシマケン",
    "prefecture_code": 7,
    "city": "須賀川市",
    "city_kana": "スカガワシ",
    "town": "上小山田",
    "town_kana": "カミオヤマダ",
    "street": null,
    "office_name": null,
    "office_name_kana": null
  },
  "0714": {
    "postcode": "9620714",
    "prefecture": "福島県",
    "prefecture_kana": "フクシマケン",
    "prefecture_code": 7,
    "city": "須賀川市",
    "city_kana": "スカガワシ",
    "town": "下小山田",
    "town_kana": "シモオヤマダ",
    "street": null,
    "office_name": null,
    "office_name_kana": null
  },
  "0721": {
    "postcode": "9620721",
    "prefecture": "福島県",
    "prefecture_kana": "フクシマケン",
    "prefecture_code": 7,
    "city": "須賀川市",
    "city_kana": "スカガワシ",
    "town": "雨田",
    "town_kana": "アメダ",
    "street": null,
    "office_name": null,
    "office_name_kana": null
  },
  "0722": {
    "postcode": "9620722",
    "prefecture": "福島県",
    "prefecture_kana": "フクシマケン",
    "prefecture_code": 7,
    "city": "須賀川市",
    "city_kana": "スカガワシ",
    "town": "大栗",
    "town_kana": "オオグリ",
    "street": null,
    "office_name": null,
    "office_name_kana": null
  },
  "0723": {
    "postcode": "9620723",
    "prefecture": "福島県",
    "prefecture_kana": "フクシマケン",
    "prefecture_code": 7,
    "city": "須賀川市",
    "city_kana": "スカガワシ",
    "town": "狸森",
    "town_kana": "ムジナモリ",
    "street": null,
    "office_name": null,
    "office_name_kana": null
  },
  "0724": {
    "postcode": "9620724",
    "prefecture": "福島県",
    "prefecture_kana": "フクシマケン",
    "prefecture_code": 7,
    "city": "須賀川市",
    "city_kana": "スカガワシ",
    "town": "田中",
    "town_kana": "タナカ",
    "street": null,
    "office_name": null,
    "office_name_kana": null
  },
  "0725": {
    "postcode": "9620725",
    "prefecture": "福島県",
    "prefecture_kana": "フクシマケン",
    "prefecture_code": 7,
    "city": "須賀川市",
    "city_kana": "スカガワシ",
    "town": "日照田",
    "town_kana": "ヒデリダ",
    "street": null,
    "office_name": null,
    "office_name_kana": null
  },
  "0726": {
    "postcode": "9620726",
    "prefecture": "福島県",
    "prefecture_kana": "フクシマケン",
    "prefecture_code": 7,
    "city": "須賀川市",
    "city_kana": "スカガワシ",
    "town": "市野関",
    "town_kana": "イチノセキ",
    "street": null,
    "office_name": null,
    "office_name_kana": null
  },
  "0727": {
    "postcode": "9620727",
    "prefecture": "福島県",
    "prefecture_kana": "フクシマケン",
    "prefecture_code": 7,
    "city": "須賀川市",
    "city_kana": "スカガワシ",
    "town": "小作田",
    "town_kana": "コサクダ",
    "street": null,
    "office_name": null,
    "office_name_kana": null
  },
  "0728": {
    "postcode": "9620728",
    "prefecture": "福島県",
    "prefecture_kana": "フクシマケン",
    "prefecture_code": 7,
    "city": "須賀川市",
    "city_kana": "スカガワシ",
    "town": "虹の台",
    "town_kana": "ニジノダイ",
    "street": null,
    "office_name": null,
    "office_name_kana": null
  },
  "0801": {
    "postcode": "9620801",
    "prefecture": "福島県",
    "prefecture_kana": "フクシマケン",
    "prefecture_code": 7,
    "city": "須賀川市",
    "city_kana": "スカガワシ",
    "town": "江持",
    "town_kana": "エモチ",
    "street": null,
    "office_name": null,
    "office_name_kana": null
  },
  "0802": {
    "postcode": "9620802",
    "prefecture": "福島県",
    "prefecture_kana": "フクシマケン",
    "prefecture_code": 7,
    "city": "須賀川市",
    "city_kana": "スカガワシ",
    "town": "堤",
    "town_kana": "ツツミ",
    "street": null,
    "office_name": null,
    "office_name_kana": null
  },
  "0803": {
    "postcode": "9620803",
    "prefecture": "福島県",
    "prefecture_kana": "フクシマケン",
    "prefecture_code": 7,
    "city": "須賀川市",
    "city_kana": "スカガワシ",
    "town": "古河",
    "town_kana": "フルカワ",
    "street": null,
    "office_name": null,
    "office_name_kana": null
  },
  "0804": {
    "postcode": "9620804",
    "prefecture": "福島県",
    "prefecture_kana": "フクシマケン",
    "prefecture_code": 7,
    "city": "須賀川市",
    "city_kana": "スカガワシ",
    "town": "中曽根",
    "town_kana": "ナカソネ",
    "street": null,
    "office_name": null,
    "office_name_kana": null
  },
  "0805": {
    "postcode": "9620805",
    "prefecture": "福島県",
    "prefecture_kana": "フクシマケン",
    "prefecture_code": 7,
    "city": "須賀川市",
    "city_kana": "スカガワシ",
    "town": "崩免",
    "town_kana": "クズレメン",
    "street": null,
    "office_name": null,
    "office_name_kana": null
  },
  "0806": {
    "postcode": "9620806",
    "prefecture": "福島県",
    "prefecture_kana": "フクシマケン",
    "prefecture_code": 7,
    "city": "須賀川市",
    "city_kana": "スカガワシ",
    "town": "下宿前",
    "town_kana": "シモジュクマエ",
    "street": null,
    "office_name": null,
    "office_name_kana": null
  },
  "0807": {
    "postcode": "9620807",
    "prefecture": "福島県",
    "prefecture_kana": "フクシマケン",
    "prefecture_code": 7,
    "city": "須賀川市",
    "city_kana": "スカガワシ",
    "town": "境免",
    "town_kana": "サカイメン",
    "street": null,
    "office_name": null,
    "office_name_kana": null
  },
  "0811": {
    "postcode": "9620811",
    "prefecture": "福島県",
    "prefecture_kana": "フクシマケン",
    "prefecture_code": 7,
    "city": "須賀川市",
    "city_kana": "スカガワシ",
    "town": "あおば町",
    "town_kana": "アオバチョウ",
    "street": null,
    "office_name": null,
    "office_name_kana": null
  },
  "0812": {
    "postcode": "9620812",
    "prefecture": "福島県",
    "prefecture_kana": "フクシマケン",
    "prefecture_code": 7,
    "city": "須賀川市",
    "city_kana": "スカガワシ",
    "town": "浜尾",
    "town_kana": "ハマオ",
    "street": null,
    "office_name": null,
    "office_name_kana": null
  },
  "0813": {
    "postcode": "9620813",
    "prefecture": "福島県",
    "prefecture_kana": "フクシマケン",
    "prefecture_code": 7,
    "city": "須賀川市",
    "city_kana": "スカガワシ",
    "town": "和田",
    "town_kana": "ワダ",
    "street": null,
    "office_name": null,
    "office_name_kana": null
  },
  "0814": {
    "postcode": "9620814",
    "prefecture": "福島県",
    "prefecture_kana": "フクシマケン",
    "prefecture_code": 7,
    "city": "須賀川市",
    "city_kana": "スカガワシ",
    "town": "前田川",
    "town_kana": "マエダガワ",
    "street": null,
    "office_name": null,
    "office_name_kana": null
  },
  "0815": {
    "postcode": "9620815",
    "prefecture": "福島県",
    "prefecture_kana": "フクシマケン",
    "prefecture_code": 7,
    "city": "須賀川市",
    "city_kana": "スカガワシ",
    "town": "牡丹園",
    "town_kana": "ボタンエン",
    "street": null,
    "office_name": null,
    "office_name_kana": null
  },
  "0816": {
    "postcode": "9620816",
    "prefecture": "福島県",
    "prefecture_kana": "フクシマケン",
    "prefecture_code": 7,
    "city": "須賀川市",
    "city_kana": "スカガワシ",
    "town": "朝日田",
    "town_kana": "アサヒダ",
    "street": null,
    "office_name": null,
    "office_name_kana": null
  },
  "0817": {
    "postcode": "9620817",
    "prefecture": "福島県",
    "prefecture_kana": "フクシマケン",
    "prefecture_code": 7,
    "city": "須賀川市",
    "city_kana": "スカガワシ",
    "town": "南上町",
    "town_kana": "ミナミウワマチ",
    "street": null,
    "office_name": null,
    "office_name_kana": null
  },
  "0818": {
    "postcode": "9620818",
    "prefecture": "福島県",
    "prefecture_kana": "フクシマケン",
    "prefecture_code": 7,
    "city": "須賀川市",
    "city_kana": "スカガワシ",
    "town": "和田道",
    "town_kana": "ワダミチ",
    "street": null,
    "office_name": null,
    "office_name_kana": null
  },
  "0821": {
    "postcode": "9620821",
    "prefecture": "福島県",
    "prefecture_kana": "フクシマケン",
    "prefecture_code": 7,
    "city": "須賀川市",
    "city_kana": "スカガワシ",
    "town": "桜岡",
    "town_kana": "サクラガオカ",
    "street": null,
    "office_name": null,
    "office_name_kana": null
  },
  "0822": {
    "postcode": "9620822",
    "prefecture": "福島県",
    "prefecture_kana": "フクシマケン",
    "prefecture_code": 7,
    "city": "須賀川市",
    "city_kana": "スカガワシ",
    "town": "東作",
    "town_kana": "ヒガシサク",
    "street": null,
    "office_name": null,
    "office_name_kana": null
  },
  "0823": {
    "postcode": "9620823",
    "prefecture": "福島県",
    "prefecture_kana": "フクシマケン",
    "prefecture_code": 7,
    "city": "須賀川市",
    "city_kana": "スカガワシ",
    "town": "花岡",
    "town_kana": "ハナオカ",
    "street": null,
    "office_name": null,
    "office_name_kana": null
  },
  "0824": {
    "postcode": "9620824",
    "prefecture": "福島県",
    "prefecture_kana": "フクシマケン",
    "prefecture_code": 7,
    "city": "須賀川市",
    "city_kana": "スカガワシ",
    "town": "新田",
    "town_kana": "シンデン",
    "street": null,
    "office_name": null,
    "office_name_kana": null
  },
  "0825": {
    "postcode": "9620825",
    "prefecture": "福島県",
    "prefecture_kana": "フクシマケン",
    "prefecture_code": 7,
    "city": "須賀川市",
    "city_kana": "スカガワシ",
    "town": "六軒",
    "town_kana": "ロッケン",
    "street": null,
    "office_name": null,
    "office_name_kana": null
  },
  "0826": {
    "postcode": "9620826",
    "prefecture": "福島県",
    "prefecture_kana": "フクシマケン",
    "prefecture_code": 7,
    "city": "須賀川市",
    "city_kana": "スカガワシ",
    "town": "広表",
    "town_kana": "ヒロオモテ",
    "street": null,
    "office_name": null,
    "office_name_kana": null
  },
  "0827": {
    "postcode": "9620827",
    "prefecture": "福島県",
    "prefecture_kana": "フクシマケン",
    "prefecture_code": 7,
    "city": "須賀川市",
    "city_kana": "スカガワシ",
    "town": "寺田",
    "town_kana": "テラダ",
    "street": null,
    "office_name": null,
    "office_name_kana": null
  },
  "0831": {
    "postcode": "9620831",
    "prefecture": "福島県",
    "prefecture_kana": "フクシマケン",
    "prefecture_code": 7,
    "city": "須賀川市",
    "city_kana": "スカガワシ",
    "town": "八幡町",
    "town_kana": "ハチマンマチ",
    "street": null,
    "office_name": null,
    "office_name_kana": null
  },
  "0832": {
    "postcode": "9620832",
    "prefecture": "福島県",
    "prefecture_kana": "フクシマケン",
    "prefecture_code": 7,
    "city": "須賀川市",
    "city_kana": "スカガワシ",
    "town": "本町",
    "town_kana": "モトマチ",
    "street": null,
    "office_name": null,
    "office_name_kana": null
  },
  "0833": {
    "postcode": "9620833",
    "prefecture": "福島県",
    "prefecture_kana": "フクシマケン",
    "prefecture_code": 7,
    "city": "須賀川市",
    "city_kana": "スカガワシ",
    "town": "馬町",
    "town_kana": "ウママチ",
    "street": null,
    "office_name": null,
    "office_name_kana": null
  },
  "0834": {
    "postcode": "9620834",
    "prefecture": "福島県",
    "prefecture_kana": "フクシマケン",
    "prefecture_code": 7,
    "city": "須賀川市",
    "city_kana": "スカガワシ",
    "town": "旭町",
    "town_kana": "アサヒマチ",
    "street": null,
    "office_name": null,
    "office_name_kana": null
  },
  "0835": {
    "postcode": "9620835",
    "prefecture": "福島県",
    "prefecture_kana": "フクシマケン",
    "prefecture_code": 7,
    "city": "須賀川市",
    "city_kana": "スカガワシ",
    "town": "千日堂",
    "town_kana": "センニチドウ",
    "street": null,
    "office_name": null,
    "office_name_kana": null
  },
  "0836": {
    "postcode": "9620836",
    "prefecture": "福島県",
    "prefecture_kana": "フクシマケン",
    "prefecture_code": 7,
    "city": "須賀川市",
    "city_kana": "スカガワシ",
    "town": "並木町",
    "town_kana": "ナミキチョウ",
    "street": null,
    "office_name": null,
    "office_name_kana": null
  },
  "0837": {
    "postcode": "9620837",
    "prefecture": "福島県",
    "prefecture_kana": "フクシマケン",
    "prefecture_code": 7,
    "city": "須賀川市",
    "city_kana": "スカガワシ",
    "town": "高久田境",
    "town_kana": "タカクダサカイ",
    "street": null,
    "office_name": null,
    "office_name_kana": null
  },
  "0838": {
    "postcode": "9620838",
    "prefecture": "福島県",
    "prefecture_kana": "フクシマケン",
    "prefecture_code": 7,
    "city": "須賀川市",
    "city_kana": "スカガワシ",
    "town": "南町",
    "town_kana": "ミナミマチ",
    "street": null,
    "office_name": null,
    "office_name_kana": null
  },
  "0839": {
    "postcode": "9620839",
    "prefecture": "福島県",
    "prefecture_kana": "フクシマケン",
    "prefecture_code": 7,
    "city": "須賀川市",
    "city_kana": "スカガワシ",
    "town": "大町",
    "town_kana": "オオマチ",
    "street": null,
    "office_name": null,
    "office_name_kana": null
  },
  "0841": {
    "postcode": "9620841",
    "prefecture": "福島県",
    "prefecture_kana": "フクシマケン",
    "prefecture_code": 7,
    "city": "須賀川市",
    "city_kana": "スカガワシ",
    "town": "上北町",
    "town_kana": "カミキタマチ",
    "street": null,
    "office_name": null,
    "office_name_kana": null
  },
  "0842": {
    "postcode": "9620842",
    "prefecture": "福島県",
    "prefecture_kana": "フクシマケン",
    "prefecture_code": 7,
    "city": "須賀川市",
    "city_kana": "スカガワシ",
    "town": "宮先町",
    "town_kana": "ミヤザキチョウ",
    "street": null,
    "office_name": null,
    "office_name_kana": null
  },
  "0843": {
    "postcode": "9620843",
    "prefecture": "福島県",
    "prefecture_kana": "フクシマケン",
    "prefecture_code": 7,
    "city": "須賀川市",
    "city_kana": "スカガワシ",
    "town": "池上町",
    "town_kana": "イケガミチョウ",
    "street": null,
    "office_name": null,
    "office_name_kana": null
  },
  "0844": {
    "postcode": "9620844",
    "prefecture": "福島県",
    "prefecture_kana": "フクシマケン",
    "prefecture_code": 7,
    "city": "須賀川市",
    "city_kana": "スカガワシ",
    "town": "東町",
    "town_kana": "ヒガシマチ",
    "street": null,
    "office_name": null,
    "office_name_kana": null
  },
  "0845": {
    "postcode": "9620845",
    "prefecture": "福島県",
    "prefecture_kana": "フクシマケン",
    "prefecture_code": 7,
    "city": "須賀川市",
    "city_kana": "スカガワシ",
    "town": "中町",
    "town_kana": "ナカマチ",
    "street": null,
    "office_name": null,
    "office_name_kana": null
  },
  "0846": {
    "postcode": "9620846",
    "prefecture": "福島県",
    "prefecture_kana": "フクシマケン",
    "prefecture_code": 7,
    "city": "須賀川市",
    "city_kana": "スカガワシ",
    "town": "加治町",
    "town_kana": "カジマチ",
    "street": null,
    "office_name": null,
    "office_name_kana": null
  },
  "0847": {
    "postcode": "9620847",
    "prefecture": "福島県",
    "prefecture_kana": "フクシマケン",
    "prefecture_code": 7,
    "city": "須賀川市",
    "city_kana": "スカガワシ",
    "town": "諏訪町",
    "town_kana": "スワマチ",
    "street": null,
    "office_name": null,
    "office_name_kana": null
  },
  "0848": {
    "postcode": "9620848",
    "prefecture": "福島県",
    "prefecture_kana": "フクシマケン",
    "prefecture_code": 7,
    "city": "須賀川市",
    "city_kana": "スカガワシ",
    "town": "弘法坦",
    "town_kana": "コウボウダン",
    "street": null,
    "office_name": null,
    "office_name_kana": null
  },
  "0851": {
    "postcode": "9620851",
    "prefecture": "福島県",
    "prefecture_kana": "フクシマケン",
    "prefecture_code": 7,
    "city": "須賀川市",
    "city_kana": "スカガワシ",
    "town": "中宿",
    "town_kana": "ナカジュク",
    "street": null,
    "office_name": null,
    "office_name_kana": null
  },
  "0852": {
    "postcode": "9620852",
    "prefecture": "福島県",
    "prefecture_kana": "フクシマケン",
    "prefecture_code": 7,
    "city": "須賀川市",
    "city_kana": "スカガワシ",
    "town": "仲の町",
    "town_kana": "ナカノマチ",
    "street": null,
    "office_name": null,
    "office_name_kana": null
  },
  "0853": {
    "postcode": "9620853",
    "prefecture": "福島県",
    "prefecture_kana": "フクシマケン",
    "prefecture_code": 7,
    "city": "須賀川市",
    "city_kana": "スカガワシ",
    "town": "前川",
    "town_kana": "マエカワ",
    "street": null,
    "office_name": null,
    "office_name_kana": null
  },
  "0854": {
    "postcode": "9620854",
    "prefecture": "福島県",
    "prefecture_kana": "フクシマケン",
    "prefecture_code": 7,
    "city": "須賀川市",
    "city_kana": "スカガワシ",
    "town": "古屋敷",
    "town_kana": "フルヤシキ",
    "street": null,
    "office_name": null,
    "office_name_kana": null
  },
  "0855": {
    "postcode": "9620855",
    "prefecture": "福島県",
    "prefecture_kana": "フクシマケン",
    "prefecture_code": 7,
    "city": "須賀川市",
    "city_kana": "スカガワシ",
    "town": "守谷舘",
    "town_kana": "モリヤタテ",
    "street": null,
    "office_name": null,
    "office_name_kana": null
  },
  "0856": {
    "postcode": "9620856",
    "prefecture": "福島県",
    "prefecture_kana": "フクシマケン",
    "prefecture_code": 7,
    "city": "須賀川市",
    "city_kana": "スカガワシ",
    "town": "北町",
    "town_kana": "キタマチ",
    "street": null,
    "office_name": null,
    "office_name_kana": null
  },
  "0857": {
    "postcode": "9620857",
    "prefecture": "福島県",
    "prefecture_kana": "フクシマケン",
    "prefecture_code": 7,
    "city": "須賀川市",
    "city_kana": "スカガワシ",
    "town": "長禄町",
    "town_kana": "チョウロクチョウ",
    "street": null,
    "office_name": null,
    "office_name_kana": null
  },
  "0858": {
    "postcode": "9620858",
    "prefecture": "福島県",
    "prefecture_kana": "フクシマケン",
    "prefecture_code": 7,
    "city": "須賀川市",
    "city_kana": "スカガワシ",
    "town": "栄町",
    "town_kana": "サカエマチ",
    "street": null,
    "office_name": null,
    "office_name_kana": null
  },
  "0859": {
    "postcode": "9620859",
    "prefecture": "福島県",
    "prefecture_kana": "フクシマケン",
    "prefecture_code": 7,
    "city": "須賀川市",
    "city_kana": "スカガワシ",
    "town": "塚田",
    "town_kana": "ツカダ",
    "street": null,
    "office_name": null,
    "office_name_kana": null
  },
  "0861": {
    "postcode": "9620861",
    "prefecture": "福島県",
    "prefecture_kana": "フクシマケン",
    "prefecture_code": 7,
    "city": "須賀川市",
    "city_kana": "スカガワシ",
    "town": "古舘",
    "town_kana": "フルダテ",
    "street": null,
    "office_name": null,
    "office_name_kana": null
  },
  "0862": {
    "postcode": "9620862",
    "prefecture": "福島県",
    "prefecture_kana": "フクシマケン",
    "prefecture_code": 7,
    "city": "須賀川市",
    "city_kana": "スカガワシ",
    "town": "六郎兵衛",
    "town_kana": "ロクロウベエ",
    "street": null,
    "office_name": null,
    "office_name_kana": null
  },
  "0863": {
    "postcode": "9620863",
    "prefecture": "福島県",
    "prefecture_kana": "フクシマケン",
    "prefecture_code": 7,
    "city": "須賀川市",
    "city_kana": "スカガワシ",
    "town": "緑町",
    "town_kana": "ミドリチョウ",
    "street": null,
    "office_name": null,
    "office_name_kana": null
  },
  "0864": {
    "postcode": "9620864",
    "prefecture": "福島県",
    "prefecture_kana": "フクシマケン",
    "prefecture_code": 7,
    "city": "須賀川市",
    "city_kana": "スカガワシ",
    "town": "北上町",
    "town_kana": "キタウワマチ",
    "street": null,
    "office_name": null,
    "office_name_kana": null
  },
  "0865": {
    "postcode": "9620865",
    "prefecture": "福島県",
    "prefecture_kana": "フクシマケン",
    "prefecture_code": 7,
    "city": "須賀川市",
    "city_kana": "スカガワシ",
    "town": "妙見",
    "town_kana": "ミョウケン",
    "street": null,
    "office_name": null,
    "office_name_kana": null
  },
  "0866": {
    "postcode": "9620866",
    "prefecture": "福島県",
    "prefecture_kana": "フクシマケン",
    "prefecture_code": 7,
    "city": "須賀川市",
    "city_kana": "スカガワシ",
    "town": "栗谷沢",
    "town_kana": "クリヤサワ",
    "street": null,
    "office_name": null,
    "office_name_kana": null
  },
  "0867": {
    "postcode": "9620867",
    "prefecture": "福島県",
    "prefecture_kana": "フクシマケン",
    "prefecture_code": 7,
    "city": "須賀川市",
    "city_kana": "スカガワシ",
    "town": "愛宕山",
    "town_kana": "アタゴヤマ",
    "street": null,
    "office_name": null,
    "office_name_kana": null
  },
  "0868": {
    "postcode": "9620868",
    "prefecture": "福島県",
    "prefecture_kana": "フクシマケン",
    "prefecture_code": 7,
    "city": "須賀川市",
    "city_kana": "スカガワシ",
    "town": "芦田塚",
    "town_kana": "アシダツカ",
    "street": null,
    "office_name": null,
    "office_name_kana": null
  },
  "8501": {
    "postcode": "9628501",
    "prefecture": "福島県",
    "prefecture_kana": "フクシマケン",
    "prefecture_code": 7,
    "city": "須賀川市",
    "city_kana": "スカガワシ",
    "town": "大字大桑原",
    "town_kana": null,
    "street": "字女夫坂１",
    "office_name": "ジョンソンエンドジョンソン　株式会社　須賀川工場",
    "office_name_kana": "ジヨンソンエンドジヨンソン カブシキガイシヤ スカガワコウジヨウ"
  },
  "8502": {
    "postcode": "9628502",
    "prefecture": "福島県",
    "prefecture_kana": "フクシマケン",
    "prefecture_code": 7,
    "city": "須賀川市",
    "city_kana": "スカガワシ",
    "town": "上人坦",
    "town_kana": "ショウニンダン",
    "street": "１６１",
    "office_name": "笠原工業　株式会社",
    "office_name_kana": "カサハラコウギヨウ カブシキガイシヤ"
  },
  "8503": {
    "postcode": "9628503",
    "prefecture": "福島県",
    "prefecture_kana": "フクシマケン",
    "prefecture_code": 7,
    "city": "須賀川市",
    "city_kana": "スカガワシ",
    "town": "北町",
    "town_kana": "キタマチ",
    "street": "２０",
    "office_name": "公立岩瀬病院組合",
    "office_name_kana": "コウリツイワセビヨウインクミアイ"
  },
  "8507": {
    "postcode": "9628507",
    "prefecture": "福島県",
    "prefecture_kana": "フクシマケン",
    "prefecture_code": 7,
    "city": "須賀川市",
    "city_kana": "スカガワシ",
    "town": "芦田塚",
    "town_kana": "アシダツカ",
    "street": "１３",
    "office_name": "独立行政法人　国立病院機構　福島病院",
    "office_name_kana": "ドクリツギヨウセイホウジン コクリツビヨウインキコウ フクシマビヨウイン"
  },
  "8508": {
    "postcode": "9628508",
    "prefecture": "福島県",
    "prefecture_kana": "フクシマケン",
    "prefecture_code": 7,
    "city": "須賀川市",
    "city_kana": "スカガワシ",
    "town": "大字森宿",
    "town_kana": null,
    "street": "字道久１−２２",
    "office_name": "日本工営パワー・システムズ　株式会社",
    "office_name_kana": "ニホンコウエイパワ-・システムズ カブシキガイシヤ"
  },
  "8509": {
    "postcode": "9628509",
    "prefecture": "福島県",
    "prefecture_kana": "フクシマケン",
    "prefecture_code": 7,
    "city": "須賀川市",
    "city_kana": "スカガワシ",
    "town": "中町",
    "town_kana": "ナカマチ",
    "street": "６番地１",
    "office_name": "須賀川市総合福祉センター",
    "office_name_kana": "スカガワシソウゴウフクシセンタ-"
  },
  "8601": {
    "postcode": "9628601",
    "prefecture": "福島県",
    "prefecture_kana": "フクシマケン",
    "prefecture_code": 7,
    "city": "須賀川市",
    "city_kana": "スカガワシ",
    "town": "八幡町",
    "town_kana": "ハチマンマチ",
    "street": "１３５（須賀川郵便局私書箱第３号）",
    "office_name": "須賀川市役所",
    "office_name_kana": "スカガワシヤクシヨ"
  }
}