{
  "0000": {
    "postcode": "9640000",
    "prefecture": "福島県",
    "prefecture_kana": "フクシマケン",
    "prefecture_code": 7,
    "city": "二本松市",
    "city_kana": "ニホンマツシ",
    "town": "",
    "town_kana": "",
    "street": null,
    "office_name": null,
    "office_name_kana": null
  },
  "0001": {
    "postcode": "9640001",
    "prefecture": "福島県",
    "prefecture_kana": "フクシマケン",
    "prefecture_code": 7,
    "city": "二本松市",
    "city_kana": "ニホンマツシ",
    "town": "中ノ目",
    "town_kana": "ナカノメ",
    "street": null,
    "office_name": null,
    "office_name_kana": null
  },
  "0002": {
    "postcode": "9640002",
    "prefecture": "福島県",
    "prefecture_kana": "フクシマケン",
    "prefecture_code": 7,
    "city": "二本松市",
    "city_kana": "ニホンマツシ",
    "town": "湯川町",
    "town_kana": "ユカワチョウ",
    "street": null,
    "office_name": null,
    "office_name_kana": null
  },
  "0003": {
    "postcode": "9640003",
    "prefecture": "福島県",
    "prefecture_kana": "フクシマケン",
    "prefecture_code": 7,
    "city": "二本松市",
    "city_kana": "ニホンマツシ",
    "town": "二伊滝",
    "town_kana": "ニイタキ",
    "street": null,
    "office_name": null,
    "office_name_kana": null
  },
  "0004": {
    "postcode": "9640004",
    "prefecture": "福島県",
    "prefecture_kana": "フクシマケン",
    "prefecture_code": 7,
    "city": "二本松市",
    "city_kana": "ニホンマツシ",
    "town": "伊佐沼町",
    "town_kana": "イサヌママチ",
    "street": null,
    "office_name": null,
    "office_name_kana": null
  },
  "0005": {
    "postcode": "9640005",
    "prefecture": "福島県",
    "prefecture_kana": "フクシマケン",
    "prefecture_code": 7,
    "city": "二本松市",
    "city_kana": "ニホンマツシ",
    "town": "笹屋",
    "town_kana": "ササヤ",
    "street": null,
    "office_name": null,
    "office_name_kana": null
  },
  "0006": {
    "postcode": "9640006",
    "prefecture": "福島県",
    "prefecture_kana": "フクシマケン",
    "prefecture_code": 7,
    "city": "二本松市",
    "city_kana": "ニホンマツシ",
    "town": "二又",
    "town_kana": "フタマタ",
    "street": null,
    "office_name": null,
    "office_name_kana": null
  },
  "0007": {
    "postcode": "9640007",
    "prefecture": "福島県",
    "prefecture_kana": "フクシマケン",
    "prefecture_code": 7,
    "city": "二本松市",
    "city_kana": "ニホンマツシ",
    "town": "古家",
    "town_kana": "コヤ",
    "street": null,
    "office_name": null,
    "office_name_kana": null
  },
  "0008": {
    "postcode": "9640008",
    "prefecture": "福島県",
    "prefecture_kana": "フクシマケン",
    "prefecture_code": 7,
    "city": "二本松市",
    "city_kana": "ニホンマツシ",
    "town": "鉄扇町",
    "town_kana": "テッセンチョウ",
    "street": null,
    "office_name": null,
    "office_name_kana": null
  },
  "0011": {
    "postcode": "9640011",
    "prefecture": "福島県",
    "prefecture_kana": "フクシマケン",
    "prefecture_code": 7,
    "city": "二本松市",
    "city_kana": "ニホンマツシ",
    "town": "永田才木",
    "town_kana": "ナガタサイキ",
    "street": null,
    "office_name": null,
    "office_name_kana": null
  },
  "0012": {
    "postcode": "9640012",
    "prefecture": "福島県",
    "prefecture_kana": "フクシマケン",
    "prefecture_code": 7,
    "city": "二本松市",
    "city_kana": "ニホンマツシ",
    "town": "永田積内",
    "town_kana": "ナガタツミウチ",
    "street": null,
    "office_name": null,
    "office_name_kana": null
  },
  "0013": {
    "postcode": "9640013",
    "prefecture": "福島県",
    "prefecture_kana": "フクシマケン",
    "prefecture_code": 7,
    "city": "二本松市",
    "city_kana": "ニホンマツシ",
    "town": "新田",
    "town_kana": "シンデン",
    "street": null,
    "office_name": null,
    "office_name_kana": null
  },
  "0014": {
    "postcode": "9640014",
    "prefecture": "福島県",
    "prefecture_kana": "フクシマケン",
    "prefecture_code": 7,
    "city": "二本松市",
    "city_kana": "ニホンマツシ",
    "town": "上新田",
    "town_kana": "カミシンデン",
    "street": null,
    "office_name": null,
    "office_name_kana": null
  },
  "0015": {
    "postcode": "9640015",
    "prefecture": "福島県",
    "prefecture_kana": "フクシマケン",
    "prefecture_code": 7,
    "city": "二本松市",
    "city_kana": "ニホンマツシ",
    "town": "板目沢",
    "town_kana": "イタメザワ",
    "street": null,
    "office_name": null,
    "office_name_kana": null
  },
  "0016": {
    "postcode": "9640016",
    "prefecture": "福島県",
    "prefecture_kana": "フクシマケン",
    "prefecture_code": 7,
    "city": "二本松市",
    "city_kana": "ニホンマツシ",
    "town": "大森沢",
    "town_kana": "オオモリサワ",
    "street": null,
    "office_name": null,
    "office_name_kana": null
  },
  "0017": {
    "postcode": "9640017",
    "prefecture": "福島県",
    "prefecture_kana": "フクシマケン",
    "prefecture_code": 7,
    "city": "二本松市",
    "city_kana": "ニホンマツシ",
    "town": "永田御堂内",
    "town_kana": "ナガタミドウウチ",
    "street": null,
    "office_name": null,
    "office_name_kana": null
  },
  "0021": {
    "postcode": "9640021",
    "prefecture": "福島県",
    "prefecture_kana": "フクシマケン",
    "prefecture_code": 7,
    "city": "二本松市",
    "city_kana": "ニホンマツシ",
    "town": "永田馬保内",
    "town_kana": "ナガタバボウチ",
    "street": null,
    "office_name": null,
    "office_name_kana": null
  },
  "0022": {
    "postcode": "9640022",
    "prefecture": "福島県",
    "prefecture_kana": "フクシマケン",
    "prefecture_code": 7,
    "city": "二本松市",
    "city_kana": "ニホンマツシ",
    "town": "永田鍛治内",
    "town_kana": "ナガタカジウチ",
    "street": null,
    "office_name": null,
    "office_name_kana": null
  },
  "0023": {
    "postcode": "9640023",
    "prefecture": "福島県",
    "prefecture_kana": "フクシマケン",
    "prefecture_code": 7,
    "city": "二本松市",
    "city_kana": "ニホンマツシ",
    "town": "硯石",
    "town_kana": "スズリイシ",
    "street": null,
    "office_name": null,
    "office_name_kana": null
  },
  "0024": {
    "postcode": "9640024",
    "prefecture": "福島県",
    "prefecture_kana": "フクシマケン",
    "prefecture_code": 7,
    "city": "二本松市",
    "city_kana": "ニホンマツシ",
    "town": "井戸神",
    "town_kana": "イドガミ",
    "street": null,
    "office_name": null,
    "office_name_kana": null
  },
  "0025": {
    "postcode": "9640025",
    "prefecture": "福島県",
    "prefecture_kana": "フクシマケン",
    "prefecture_code": 7,
    "city": "二本松市",
    "city_kana": "ニホンマツシ",
    "town": "屋戸入",
    "town_kana": "ヤドイリ",
    "street": null,
    "office_name": null,
    "office_name_kana": null
  },
  "0026": {
    "postcode": "9640026",
    "prefecture": "福島県",
    "prefecture_kana": "フクシマケン",
    "prefecture_code": 7,
    "city": "二本松市",
    "city_kana": "ニホンマツシ",
    "town": "中山田",
    "town_kana": "ナカヤマダ",
    "street": null,
    "office_name": null,
    "office_name_kana": null
  },
  "0027": {
    "postcode": "9640027",
    "prefecture": "福島県",
    "prefecture_kana": "フクシマケン",
    "prefecture_code": 7,
    "city": "二本松市",
    "city_kana": "ニホンマツシ",
    "town": "山田",
    "town_kana": "ヤマダ",
    "street": null,
    "office_name": null,
    "office_name_kana": null
  },
  "0028": {
    "postcode": "9640028",
    "prefecture": "福島県",
    "prefecture_kana": "フクシマケン",
    "prefecture_code": 7,
    "city": "二本松市",
    "city_kana": "ニホンマツシ",
    "town": "高平",
    "town_kana": "タカヒラ",
    "street": null,
    "office_name": null,
    "office_name_kana": null
  },
  "0029": {
    "postcode": "9640029",
    "prefecture": "福島県",
    "prefecture_kana": "フクシマケン",
    "prefecture_code": 7,
    "city": "二本松市",
    "city_kana": "ニホンマツシ",
    "town": "永田",
    "town_kana": "ナガタ",
    "street": null,
    "office_name": null,
    "office_name_kana": null
  },
  "0031": {
    "postcode": "9640031",
    "prefecture": "福島県",
    "prefecture_kana": "フクシマケン",
    "prefecture_code": 7,
    "city": "二本松市",
    "city_kana": "ニホンマツシ",
    "town": "前原",
    "town_kana": "マエハラ",
    "street": null,
    "office_name": null,
    "office_name_kana": null
  },
  "0032": {
    "postcode": "9640032",
    "prefecture": "福島県",
    "prefecture_kana": "フクシマケン",
    "prefecture_code": 7,
    "city": "二本松市",
    "city_kana": "ニホンマツシ",
    "town": "毘沙門堂山",
    "town_kana": "ビシャモンドウヤマ",
    "street": null,
    "office_name": null,
    "office_name_kana": null
  },
  "0033": {
    "postcode": "9640033",
    "prefecture": "福島県",
    "prefecture_kana": "フクシマケン",
    "prefecture_code": 7,
    "city": "二本松市",
    "city_kana": "ニホンマツシ",
    "town": "毘沙門堂",
    "town_kana": "ビシャモンドウ",
    "street": null,
    "office_name": null,
    "office_name_kana": null
  },
  "0034": {
    "postcode": "9640034",
    "prefecture": "福島県",
    "prefecture_kana": "フクシマケン",
    "prefecture_code": 7,
    "city": "二本松市",
    "city_kana": "ニホンマツシ",
    "town": "原セ堰下",
    "town_kana": "ハラセセキシタ",
    "street": null,
    "office_name": null,
    "office_name_kana": null
  },
  "0035": {
    "postcode": "9640035",
    "prefecture": "福島県",
    "prefecture_kana": "フクシマケン",
    "prefecture_code": 7,
    "city": "二本松市",
    "city_kana": "ニホンマツシ",
    "town": "原セ天ケ作",
    "town_kana": "ハラセアマガサク",
    "street": null,
    "office_name": null,
    "office_name_kana": null
  },
  "0036": {
    "postcode": "9640036",
    "prefecture": "福島県",
    "prefecture_kana": "フクシマケン",
    "prefecture_code": 7,
    "city": "二本松市",
    "city_kana": "ニホンマツシ",
    "town": "原セ才木",
    "town_kana": "ハラセサイキ",
    "street": null,
    "office_name": null,
    "office_name_kana": null
  },
  "0037": {
    "postcode": "9640037",
    "prefecture": "福島県",
    "prefecture_kana": "フクシマケン",
    "prefecture_code": 7,
    "city": "二本松市",
    "city_kana": "ニホンマツシ",
    "town": "原セ川原",
    "town_kana": "ハラセカワハラ",
    "street": null,
    "office_name": null,
    "office_name_kana": null
  },
  "0038": {
    "postcode": "9640038",
    "prefecture": "福島県",
    "prefecture_kana": "フクシマケン",
    "prefecture_code": 7,
    "city": "二本松市",
    "city_kana": "ニホンマツシ",
    "town": "立石",
    "town_kana": "タテイシ",
    "street": null,
    "office_name": null,
    "office_name_kana": null
  },
  "0039": {
    "postcode": "9640039",
    "prefecture": "福島県",
    "prefecture_kana": "フクシマケン",
    "prefecture_code": 7,
    "city": "二本松市",
    "city_kana": "ニホンマツシ",
    "town": "萩坂",
    "town_kana": "ハギサカ",
    "street": null,
    "office_name": null,
    "office_name_kana": null
  },
  "0041": {
    "postcode": "9640041",
    "prefecture": "福島県",
    "prefecture_kana": "フクシマケン",
    "prefecture_code": 7,
    "city": "二本松市",
    "city_kana": "ニホンマツシ",
    "town": "原セ日照田",
    "town_kana": "ハラセヒデリタ",
    "street": null,
    "office_name": null,
    "office_name_kana": null
  },
  "0042": {
    "postcode": "9640042",
    "prefecture": "福島県",
    "prefecture_kana": "フクシマケン",
    "prefecture_code": 7,
    "city": "二本松市",
    "city_kana": "ニホンマツシ",
    "town": "原セ大畑",
    "town_kana": "ハラセオオハタ",
    "street": null,
    "office_name": null,
    "office_name_kana": null
  },
  "0043": {
    "postcode": "9640043",
    "prefecture": "福島県",
    "prefecture_kana": "フクシマケン",
    "prefecture_code": 7,
    "city": "二本松市",
    "city_kana": "ニホンマツシ",
    "town": "原セ諏訪",
    "town_kana": "ハラセスワ",
    "street": null,
    "office_name": null,
    "office_name_kana": null
  },
  "0044": {
    "postcode": "9640044",
    "prefecture": "福島県",
    "prefecture_kana": "フクシマケン",
    "prefecture_code": 7,
    "city": "二本松市",
    "city_kana": "ニホンマツシ",
    "town": "原セ上ノ内",
    "town_kana": "ハラセカミノウチ",
    "street": null,
    "office_name": null,
    "office_name_kana": null
  },
  "0045": {
    "postcode": "9640045",
    "prefecture": "福島県",
    "prefecture_kana": "フクシマケン",
    "prefecture_code": 7,
    "city": "二本松市",
    "city_kana": "ニホンマツシ",
    "town": "原セ笠張",
    "town_kana": "ハラセカサハリ",
    "street": null,
    "office_name": null,
    "office_name_kana": null
  },
  "0046": {
    "postcode": "9640046",
    "prefecture": "福島県",
    "prefecture_kana": "フクシマケン",
    "prefecture_code": 7,
    "city": "二本松市",
    "city_kana": "ニホンマツシ",
    "town": "原セ山口",
    "town_kana": "ハラセヤマグチ",
    "street": null,
    "office_name": null,
    "office_name_kana": null
  },
  "0047": {
    "postcode": "9640047",
    "prefecture": "福島県",
    "prefecture_kana": "フクシマケン",
    "prefecture_code": 7,
    "city": "二本松市",
    "city_kana": "ニホンマツシ",
    "town": "原セ上平",
    "town_kana": "ハラセカミタイラ",
    "street": null,
    "office_name": null,
    "office_name_kana": null
  },
  "0048": {
    "postcode": "9640048",
    "prefecture": "福島県",
    "prefecture_kana": "フクシマケン",
    "prefecture_code": 7,
    "city": "二本松市",
    "city_kana": "ニホンマツシ",
    "town": "大坂",
    "town_kana": "オオサカ",
    "street": null,
    "office_name": null,
    "office_name_kana": null
  },
  "0049": {
    "postcode": "9640049",
    "prefecture": "福島県",
    "prefecture_kana": "フクシマケン",
    "prefecture_code": 7,
    "city": "二本松市",
    "city_kana": "ニホンマツシ",
    "town": "原セ仲谷地",
    "town_kana": "ハラセナカヤジ",
    "street": null,
    "office_name": null,
    "office_name_kana": null
  },
  "0051": {
    "postcode": "9640051",
    "prefecture": "福島県",
    "prefecture_kana": "フクシマケン",
    "prefecture_code": 7,
    "city": "二本松市",
    "city_kana": "ニホンマツシ",
    "town": "舘野原",
    "town_kana": "タテノハラ",
    "street": null,
    "office_name": null,
    "office_name_kana": null
  },
  "0052": {
    "postcode": "9640052",
    "prefecture": "福島県",
    "prefecture_kana": "フクシマケン",
    "prefecture_code": 7,
    "city": "二本松市",
    "city_kana": "ニホンマツシ",
    "town": "箕輪",
    "town_kana": "ミノワ",
    "street": null,
    "office_name": null,
    "office_name_kana": null
  },
  "0053": {
    "postcode": "9640053",
    "prefecture": "福島県",
    "prefecture_kana": "フクシマケン",
    "prefecture_code": 7,
    "city": "二本松市",
    "city_kana": "ニホンマツシ",
    "town": "乳母沢",
    "town_kana": "ウバザワ",
    "street": null,
    "office_name": null,
    "office_name_kana": null
  },
  "0054": {
    "postcode": "9640054",
    "prefecture": "福島県",
    "prefecture_kana": "フクシマケン",
    "prefecture_code": 7,
    "city": "二本松市",
    "city_kana": "ニホンマツシ",
    "town": "苗松",
    "town_kana": "ナエマツ",
    "street": null,
    "office_name": null,
    "office_name_kana": null
  },
  "0055": {
    "postcode": "9640055",
    "prefecture": "福島県",
    "prefecture_kana": "フクシマケン",
    "prefecture_code": 7,
    "city": "二本松市",
    "city_kana": "ニホンマツシ",
    "town": "馬場平",
    "town_kana": "ババダイラ",
    "street": null,
    "office_name": null,
    "office_name_kana": null
  },
  "0056": {
    "postcode": "9640056",
    "prefecture": "福島県",
    "prefecture_kana": "フクシマケン",
    "prefecture_code": 7,
    "city": "二本松市",
    "city_kana": "ニホンマツシ",
    "town": "雄平台",
    "town_kana": "ユウヘイダイ",
    "street": null,
    "office_name": null,
    "office_name_kana": null
  },
  "0057": {
    "postcode": "9640057",
    "prefecture": "福島県",
    "prefecture_kana": "フクシマケン",
    "prefecture_code": 7,
    "city": "二本松市",
    "city_kana": "ニホンマツシ",
    "town": "大石ケ作",
    "town_kana": "オオイシガサク",
    "street": null,
    "office_name": null,
    "office_name_kana": null
  },
  "0058": {
    "postcode": "9640058",
    "prefecture": "福島県",
    "prefecture_kana": "フクシマケン",
    "prefecture_code": 7,
    "city": "二本松市",
    "city_kana": "ニホンマツシ",
    "town": "三雄山",
    "town_kana": "サンユウザン",
    "street": null,
    "office_name": null,
    "office_name_kana": null
  },
  "0061": {
    "postcode": "9640061",
    "prefecture": "福島県",
    "prefecture_kana": "フクシマケン",
    "prefecture_code": 7,
    "city": "二本松市",
    "city_kana": "ニホンマツシ",
    "town": "岳温泉深堀",
    "town_kana": "ダケオンセンフカホリ",
    "street": null,
    "office_name": null,
    "office_name_kana": null
  },
  "0062": {
    "postcode": "9640062",
    "prefecture": "福島県",
    "prefecture_kana": "フクシマケン",
    "prefecture_code": 7,
    "city": "二本松市",
    "city_kana": "ニホンマツシ",
    "town": "岳温泉大和",
    "town_kana": "ダケオンセンダイワ",
    "street": null,
    "office_name": null,
    "office_name_kana": null
  },
  "0063": {
    "postcode": "9640063",
    "prefecture": "福島県",
    "prefecture_kana": "フクシマケン",
    "prefecture_code": 7,
    "city": "二本松市",
    "city_kana": "ニホンマツシ",
    "town": "才木山",
    "town_kana": "サイキヤマ",
    "street": null,
    "office_name": null,
    "office_name_kana": null
  },
  "0064": {
    "postcode": "9640064",
    "prefecture": "福島県",
    "prefecture_kana": "フクシマケン",
    "prefecture_code": 7,
    "city": "二本松市",
    "city_kana": "ニホンマツシ",
    "town": "岳温泉横森",
    "town_kana": "ダケオンセンヨコモリ",
    "street": null,
    "office_name": null,
    "office_name_kana": null
  },
  "0065": {
    "postcode": "9640065",
    "prefecture": "福島県",
    "prefecture_kana": "フクシマケン",
    "prefecture_code": 7,
    "city": "二本松市",
    "city_kana": "ニホンマツシ",
    "town": "小関",
    "town_kana": "コセキ",
    "street": null,
    "office_name": null,
    "office_name_kana": null
  },
  "0066": {
    "postcode": "9640066",
    "prefecture": "福島県",
    "prefecture_kana": "フクシマケン",
    "prefecture_code": 7,
    "city": "二本松市",
    "city_kana": "ニホンマツシ",
    "town": "岳温泉西大和",
    "town_kana": "ダケオンセンニシダイワ",
    "street": null,
    "office_name": null,
    "office_name_kana": null
  },
  "0071": {
    "postcode": "9640071",
    "prefecture": "福島県",
    "prefecture_kana": "フクシマケン",
    "prefecture_code": 7,
    "city": "二本松市",
    "city_kana": "ニホンマツシ",
    "town": "栄町",
    "town_kana": "サカエマチ",
    "street": null,
    "office_name": null,
    "office_name_kana": null
  },
  "0072": {
    "postcode": "9640072",
    "prefecture": "福島県",
    "prefecture_kana": "フクシマケン",
    "prefecture_code": 7,
    "city": "二本松市",
    "city_kana": "ニホンマツシ",
    "town": "岳東町",
    "town_kana": "ダケヒガシマチ",
    "street": null,
    "office_name": null,
    "office_name_kana": null
  },
  "0073": {
    "postcode": "9640073",
    "prefecture": "福島県",
    "prefecture_kana": "フクシマケン",
    "prefecture_code": 7,
    "city": "二本松市",
    "city_kana": "ニホンマツシ",
    "town": "上葉木坂",
    "town_kana": "カミハギザカ",
    "street": null,
    "office_name": null,
    "office_name_kana": null
  },
  "0074": {
    "postcode": "9640074",
    "prefecture": "福島県",
    "prefecture_kana": "フクシマケン",
    "prefecture_code": 7,
    "city": "二本松市",
    "city_kana": "ニホンマツシ",
    "town": "岳温泉",
    "town_kana": "ダケオンセン",
    "street": null,
    "office_name": null,
    "office_name_kana": null
  },
  "0075": [
    {
      "postcode": "9640075",
      "prefecture": "福島県",
      "prefecture_kana": "フクシマケン",
      "prefecture_code": 7,
      "city": "二本松市",
      "city_kana": "ニホンマツシ",
      "town": "永田",
      "town_kana": "ナガタ",
      "street": null,
      "office_name": null,
      "office_name_kana": null
    },
    {
      "postcode": "9640075",
      "prefecture": "福島県",
      "prefecture_kana": "フクシマケン",
      "prefecture_code": 7,
      "city": "二本松市",
      "city_kana": "ニホンマツシ",
      "town": "永田長坂国有林",
      "town_kana": "ナガタナガサカコクユウリン",
      "street": null,
      "office_name": null,
      "office_name_kana": null
    }
  ],
  "0076": {
    "postcode": "9640076",
    "prefecture": "福島県",
    "prefecture_kana": "フクシマケン",
    "prefecture_code": 7,
    "city": "二本松市",
    "city_kana": "ニホンマツシ",
    "town": "永田橋積",
    "town_kana": "ナガタバシツミ",
    "street": null,
    "office_name": null,
    "office_name_kana": null
  },
  "0077": {
    "postcode": "9640077",
    "prefecture": "福島県",
    "prefecture_kana": "フクシマケン",
    "prefecture_code": 7,
    "city": "二本松市",
    "city_kana": "ニホンマツシ",
    "town": "大関",
    "town_kana": "オオゼキ",
    "street": null,
    "office_name": null,
    "office_name_kana": null
  },
  "0081": {
    "postcode": "9640081",
    "prefecture": "福島県",
    "prefecture_kana": "フクシマケン",
    "prefecture_code": 7,
    "city": "二本松市",
    "city_kana": "ニホンマツシ",
    "town": "宮沢",
    "town_kana": "ミヤザワ",
    "street": null,
    "office_name": null,
    "office_name_kana": null
  },
  "0082": {
    "postcode": "9640082",
    "prefecture": "福島県",
    "prefecture_kana": "フクシマケン",
    "prefecture_code": 7,
    "city": "二本松市",
    "city_kana": "ニホンマツシ",
    "town": "休石",
    "town_kana": "ヤスミイシ",
    "street": null,
    "office_name": null,
    "office_name_kana": null
  },
  "0083": {
    "postcode": "9640083",
    "prefecture": "福島県",
    "prefecture_kana": "フクシマケン",
    "prefecture_code": 7,
    "city": "二本松市",
    "city_kana": "ニホンマツシ",
    "town": "休石原",
    "town_kana": "ヤスミイシハラ",
    "street": null,
    "office_name": null,
    "office_name_kana": null
  },
  "0084": {
    "postcode": "9640084",
    "prefecture": "福島県",
    "prefecture_kana": "フクシマケン",
    "prefecture_code": 7,
    "city": "二本松市",
    "city_kana": "ニホンマツシ",
    "town": "大根畑",
    "town_kana": "ダイコンハタケ",
    "street": null,
    "office_name": null,
    "office_name_kana": null
  },
  "0085": {
    "postcode": "9640085",
    "prefecture": "福島県",
    "prefecture_kana": "フクシマケン",
    "prefecture_code": 7,
    "city": "二本松市",
    "city_kana": "ニホンマツシ",
    "town": "不動平",
    "town_kana": "フドウダイラ",
    "street": null,
    "office_name": null,
    "office_name_kana": null
  },
  "0086": {
    "postcode": "9640086",
    "prefecture": "福島県",
    "prefecture_kana": "フクシマケン",
    "prefecture_code": 7,
    "city": "二本松市",
    "city_kana": "ニホンマツシ",
    "town": "塩沢",
    "town_kana": "シオザワ",
    "street": null,
    "office_name": null,
    "office_name_kana": null
  },
  "0087": {
    "postcode": "9640087",
    "prefecture": "福島県",
    "prefecture_kana": "フクシマケン",
    "prefecture_code": 7,
    "city": "二本松市",
    "city_kana": "ニホンマツシ",
    "town": "木ノ根坂",
    "town_kana": "キノネサカ",
    "street": null,
    "office_name": null,
    "office_name_kana": null
  },
  "0088": {
    "postcode": "9640088",
    "prefecture": "福島県",
    "prefecture_kana": "フクシマケン",
    "prefecture_code": 7,
    "city": "二本松市",
    "city_kana": "ニホンマツシ",
    "town": "沢松倉",
    "town_kana": "サワマツクラ",
    "street": null,
    "office_name": null,
    "office_name_kana": null
  },
  "0091": [
    {
      "postcode": "9640091",
      "prefecture": "福島県",
      "prefecture_kana": "フクシマケン",
      "prefecture_code": 7,
      "city": "安達郡大玉村",
      "city_kana": "アダチグンオオタマムラ",
      "town": "玉井",
      "town_kana": "タマノイ",
      "street": null,
      "office_name": null,
      "office_name_kana": null
    },
    {
      "postcode": "9640091",
      "prefecture": "福島県",
      "prefecture_kana": "フクシマケン",
      "prefecture_code": 7,
      "city": "安達郡大玉村",
      "city_kana": "アダチグンオオタマムラ",
      "town": "玉井馬場平",
      "town_kana": "タマノイババダイラ",
      "street": null,
      "office_name": null,
      "office_name_kana": null
    }
  ],
  "0111": {
    "postcode": "9640111",
    "prefecture": "福島県",
    "prefecture_kana": "フクシマケン",
    "prefecture_code": 7,
    "city": "二本松市",
    "city_kana": "ニホンマツシ",
    "town": "太田",
    "town_kana": "オオタ",
    "street": null,
    "office_name": null,
    "office_name_kana": null
  },
  "0201": {
    "postcode": "9640201",
    "prefecture": "福島県",
    "prefecture_kana": "フクシマケン",
    "prefecture_code": 7,
    "city": "二本松市",
    "city_kana": "ニホンマツシ",
    "town": "戸沢",
    "town_kana": "トサワ",
    "street": null,
    "office_name": null,
    "office_name_kana": null
  },
  "0202": {
    "postcode": "9640202",
    "prefecture": "福島県",
    "prefecture_kana": "フクシマケン",
    "prefecture_code": 7,
    "city": "二本松市",
    "city_kana": "ニホンマツシ",
    "town": "針道",
    "town_kana": "ハリミチ",
    "street": null,
    "office_name": null,
    "office_name_kana": null
  },
  "0203": {
    "postcode": "9640203",
    "prefecture": "福島県",
    "prefecture_kana": "フクシマケン",
    "prefecture_code": 7,
    "city": "二本松市",
    "city_kana": "ニホンマツシ",
    "town": "木幡",
    "town_kana": "コハタ",
    "street": null,
    "office_name": null,
    "office_name_kana": null
  },
  "0292": {
    "postcode": "9640292",
    "prefecture": "福島県",
    "prefecture_kana": "フクシマケン",
    "prefecture_code": 7,
    "city": "二本松市",
    "city_kana": "ニホンマツシ",
    "town": "針道",
    "town_kana": "ハリミチ",
    "street": "字蔵下２２番地",
    "office_name": "二本松市東和支所",
    "office_name_kana": "ニホンマツシトウワシシヨ"
  },
  "0301": {
    "postcode": "9640301",
    "prefecture": "福島県",
    "prefecture_kana": "フクシマケン",
    "prefecture_code": 7,
    "city": "二本松市",
    "city_kana": "ニホンマツシ",
    "town": "東新殿",
    "town_kana": "ヒガシニイドノ",
    "street": null,
    "office_name": null,
    "office_name_kana": null
  },
  "0302": {
    "postcode": "9640302",
    "prefecture": "福島県",
    "prefecture_kana": "フクシマケン",
    "prefecture_code": 7,
    "city": "二本松市",
    "city_kana": "ニホンマツシ",
    "town": "杉沢",
    "town_kana": "スギサワ",
    "street": null,
    "office_name": null,
    "office_name_kana": null
  },
  "0303": {
    "postcode": "9640303",
    "prefecture": "福島県",
    "prefecture_kana": "フクシマケン",
    "prefecture_code": 7,
    "city": "二本松市",
    "city_kana": "ニホンマツシ",
    "town": "初森",
    "town_kana": "ハツモリ",
    "street": null,
    "office_name": null,
    "office_name_kana": null
  },
  "0304": {
    "postcode": "9640304",
    "prefecture": "福島県",
    "prefecture_kana": "フクシマケン",
    "prefecture_code": 7,
    "city": "二本松市",
    "city_kana": "ニホンマツシ",
    "town": "西新殿",
    "town_kana": "ニシニイドノ",
    "street": null,
    "office_name": null,
    "office_name_kana": null
  },
  "0311": {
    "postcode": "9640311",
    "prefecture": "福島県",
    "prefecture_kana": "フクシマケン",
    "prefecture_code": 7,
    "city": "二本松市",
    "city_kana": "ニホンマツシ",
    "town": "長折",
    "town_kana": "ナガオリ",
    "street": null,
    "office_name": null,
    "office_name_kana": null
  },
  "0312": {
    "postcode": "9640312",
    "prefecture": "福島県",
    "prefecture_kana": "フクシマケン",
    "prefecture_code": 7,
    "city": "二本松市",
    "city_kana": "ニホンマツシ",
    "town": "上長折",
    "town_kana": "カミナガオリ",
    "street": null,
    "office_name": null,
    "office_name_kana": null
  },
  "0313": {
    "postcode": "9640313",
    "prefecture": "福島県",
    "prefecture_kana": "フクシマケン",
    "prefecture_code": 7,
    "city": "二本松市",
    "city_kana": "ニホンマツシ",
    "town": "小浜",
    "town_kana": "オバマ",
    "street": null,
    "office_name": null,
    "office_name_kana": null
  },
  "0314": {
    "postcode": "9640314",
    "prefecture": "福島県",
    "prefecture_kana": "フクシマケン",
    "prefecture_code": 7,
    "city": "二本松市",
    "city_kana": "ニホンマツシ",
    "town": "西勝田",
    "town_kana": "サイカチタ",
    "street": null,
    "office_name": null,
    "office_name_kana": null
  },
  "0315": {
    "postcode": "9640315",
    "prefecture": "福島県",
    "prefecture_kana": "フクシマケン",
    "prefecture_code": 7,
    "city": "二本松市",
    "city_kana": "ニホンマツシ",
    "town": "成田",
    "town_kana": "ナリタ",
    "street": null,
    "office_name": null,
    "office_name_kana": null
  },
  "0316": {
    "postcode": "9640316",
    "prefecture": "福島県",
    "prefecture_kana": "フクシマケン",
    "prefecture_code": 7,
    "city": "二本松市",
    "city_kana": "ニホンマツシ",
    "town": "下長折",
    "town_kana": "シモナガオリ",
    "street": null,
    "office_name": null,
    "office_name_kana": null
  },
  "0321": {
    "postcode": "9640321",
    "prefecture": "福島県",
    "prefecture_kana": "フクシマケン",
    "prefecture_code": 7,
    "city": "二本松市",
    "city_kana": "ニホンマツシ",
    "town": "上太田",
    "town_kana": "カミオオタ",
    "street": null,
    "office_name": null,
    "office_name_kana": null
  },
  "0392": {
    "postcode": "9640392",
    "prefecture": "福島県",
    "prefecture_kana": "フクシマケン",
    "prefecture_code": 7,
    "city": "二本松市",
    "city_kana": "ニホンマツシ",
    "town": "小浜",
    "town_kana": "オバマ",
    "street": "字北月山２７",
    "office_name": "二本松市岩代支所",
    "office_name_kana": "ニホンマツシイワシロシシヨ"
  },
  "0431": {
    "postcode": "9640431",
    "prefecture": "福島県",
    "prefecture_kana": "フクシマケン",
    "prefecture_code": 7,
    "city": "二本松市",
    "city_kana": "ニホンマツシ",
    "town": "田沢",
    "town_kana": "タザワ",
    "street": null,
    "office_name": null,
    "office_name_kana": null
  },
  "0432": {
    "postcode": "9640432",
    "prefecture": "福島県",
    "prefecture_kana": "フクシマケン",
    "prefecture_code": 7,
    "city": "二本松市",
    "city_kana": "ニホンマツシ",
    "town": "茂原",
    "town_kana": "モバラ",
    "street": null,
    "office_name": null,
    "office_name_kana": null
  },
  "0433": {
    "postcode": "9640433",
    "prefecture": "福島県",
    "prefecture_kana": "フクシマケン",
    "prefecture_code": 7,
    "city": "二本松市",
    "city_kana": "ニホンマツシ",
    "town": "百目木",
    "town_kana": "ドウメキ",
    "street": null,
    "office_name": null,
    "office_name_kana": null
  },
  "0801": {
    "postcode": "9640801",
    "prefecture": "福島県",
    "prefecture_kana": "フクシマケン",
    "prefecture_code": 7,
    "city": "二本松市",
    "city_kana": "ニホンマツシ",
    "town": "向作田",
    "town_kana": "ムカイサクタ",
    "street": null,
    "office_name": null,
    "office_name_kana": null
  },
  "0802": {
    "postcode": "9640802",
    "prefecture": "福島県",
    "prefecture_kana": "フクシマケン",
    "prefecture_code": 7,
    "city": "二本松市",
    "city_kana": "ニホンマツシ",
    "town": "鐙摺石",
    "town_kana": "アブズリイシ",
    "street": null,
    "office_name": null,
    "office_name_kana": null
  },
  "0803": {
    "postcode": "9640803",
    "prefecture": "福島県",
    "prefecture_kana": "フクシマケン",
    "prefecture_code": 7,
    "city": "二本松市",
    "city_kana": "ニホンマツシ",
    "town": "八万舘",
    "town_kana": "ハチマンダテ",
    "street": null,
    "office_name": null,
    "office_name_kana": null
  },
  "0804": {
    "postcode": "9640804",
    "prefecture": "福島県",
    "prefecture_kana": "フクシマケン",
    "prefecture_code": 7,
    "city": "二本松市",
    "city_kana": "ニホンマツシ",
    "town": "下平",
    "town_kana": "シモタイラ",
    "street": null,
    "office_name": null,
    "office_name_kana": null
  },
  "0805": {
    "postcode": "9640805",
    "prefecture": "福島県",
    "prefecture_kana": "フクシマケン",
    "prefecture_code": 7,
    "city": "二本松市",
    "city_kana": "ニホンマツシ",
    "town": "下ノ内",
    "town_kana": "シモノウチ",
    "street": null,
    "office_name": null,
    "office_name_kana": null
  },
  "0806": {
    "postcode": "9640806",
    "prefecture": "福島県",
    "prefecture_kana": "フクシマケン",
    "prefecture_code": 7,
    "city": "二本松市",
    "city_kana": "ニホンマツシ",
    "town": "羽石",
    "town_kana": "ハネイシ",
    "street": null,
    "office_name": null,
    "office_name_kana": null
  },
  "0807": {
    "postcode": "9640807",
    "prefecture": "福島県",
    "prefecture_kana": "フクシマケン",
    "prefecture_code": 7,
    "city": "二本松市",
    "city_kana": "ニホンマツシ",
    "town": "金色久保",
    "town_kana": "カナイロクボ",
    "street": null,
    "office_name": null,
    "office_name_kana": null
  },
  "0808": {
    "postcode": "9640808",
    "prefecture": "福島県",
    "prefecture_kana": "フクシマケン",
    "prefecture_code": 7,
    "city": "二本松市",
    "city_kana": "ニホンマツシ",
    "town": "木藤次郎内",
    "town_kana": "キトウジロウウチ",
    "street": null,
    "office_name": null,
    "office_name_kana": null
  },
  "0811": {
    "postcode": "9640811",
    "prefecture": "福島県",
    "prefecture_kana": "フクシマケン",
    "prefecture_code": 7,
    "city": "二本松市",
    "city_kana": "ニホンマツシ",
    "town": "宮戸",
    "town_kana": "ミヤト",
    "street": null,
    "office_name": null,
    "office_name_kana": null
  },
  "0812": {
    "postcode": "9640812",
    "prefecture": "福島県",
    "prefecture_kana": "フクシマケン",
    "prefecture_code": 7,
    "city": "二本松市",
    "city_kana": "ニホンマツシ",
    "town": "関",
    "town_kana": "セキ",
    "street": null,
    "office_name": null,
    "office_name_kana": null
  },
  "0813": {
    "postcode": "9640813",
    "prefecture": "福島県",
    "prefecture_kana": "フクシマケン",
    "prefecture_code": 7,
    "city": "二本松市",
    "city_kana": "ニホンマツシ",
    "town": "舟形石山",
    "town_kana": "フナカタイシヤマ",
    "street": null,
    "office_name": null,
    "office_name_kana": null
  },
  "0814": {
    "postcode": "9640814",
    "prefecture": "福島県",
    "prefecture_kana": "フクシマケン",
    "prefecture_code": 7,
    "city": "二本松市",
    "city_kana": "ニホンマツシ",
    "town": "遠西",
    "town_kana": "トオニシ",
    "street": null,
    "office_name": null,
    "office_name_kana": null
  },
  "0815": {
    "postcode": "9640815",
    "prefecture": "福島県",
    "prefecture_kana": "フクシマケン",
    "prefecture_code": 7,
    "city": "二本松市",
    "city_kana": "ニホンマツシ",
    "town": "唐谷山",
    "town_kana": "カラカイヤマ",
    "street": null,
    "office_name": null,
    "office_name_kana": null
  },
  "0816": {
    "postcode": "9640816",
    "prefecture": "福島県",
    "prefecture_kana": "フクシマケン",
    "prefecture_code": 7,
    "city": "二本松市",
    "city_kana": "ニホンマツシ",
    "town": "原田",
    "town_kana": "ハラダ",
    "street": null,
    "office_name": null,
    "office_name_kana": null
  },
  "0817": {
    "postcode": "9640817",
    "prefecture": "福島県",
    "prefecture_kana": "フクシマケン",
    "prefecture_code": 7,
    "city": "二本松市",
    "city_kana": "ニホンマツシ",
    "town": "高西",
    "town_kana": "タカニシ",
    "street": null,
    "office_name": null,
    "office_name_kana": null
  },
  "0818": {
    "postcode": "9640818",
    "prefecture": "福島県",
    "prefecture_kana": "フクシマケン",
    "prefecture_code": 7,
    "city": "二本松市",
    "city_kana": "ニホンマツシ",
    "town": "不動",
    "town_kana": "フドウ",
    "street": null,
    "office_name": null,
    "office_name_kana": null
  },
  "0821": {
    "postcode": "9640821",
    "prefecture": "福島県",
    "prefecture_kana": "フクシマケン",
    "prefecture_code": 7,
    "city": "二本松市",
    "city_kana": "ニホンマツシ",
    "town": "舟形石",
    "town_kana": "フナカタイシ",
    "street": null,
    "office_name": null,
    "office_name_kana": null
  },
  "0822": {
    "postcode": "9640822",
    "prefecture": "福島県",
    "prefecture_kana": "フクシマケン",
    "prefecture_code": 7,
    "city": "二本松市",
    "city_kana": "ニホンマツシ",
    "town": "舟石",
    "town_kana": "フナイシ",
    "street": null,
    "office_name": null,
    "office_name_kana": null
  },
  "0823": {
    "postcode": "9640823",
    "prefecture": "福島県",
    "prefecture_kana": "フクシマケン",
    "prefecture_code": 7,
    "city": "二本松市",
    "city_kana": "ニホンマツシ",
    "town": "岩崎",
    "town_kana": "イワサキ",
    "street": null,
    "office_name": null,
    "office_name_kana": null
  },
  "0824": {
    "postcode": "9640824",
    "prefecture": "福島県",
    "prefecture_kana": "フクシマケン",
    "prefecture_code": 7,
    "city": "二本松市",
    "city_kana": "ニホンマツシ",
    "town": "諏訪原",
    "town_kana": "スワハラ",
    "street": null,
    "office_name": null,
    "office_name_kana": null
  },
  "0825": {
    "postcode": "9640825",
    "prefecture": "福島県",
    "prefecture_kana": "フクシマケン",
    "prefecture_code": 7,
    "city": "二本松市",
    "city_kana": "ニホンマツシ",
    "town": "下町",
    "town_kana": "シタマチ",
    "street": null,
    "office_name": null,
    "office_name_kana": null
  },
  "0826": {
    "postcode": "9640826",
    "prefecture": "福島県",
    "prefecture_kana": "フクシマケン",
    "prefecture_code": 7,
    "city": "二本松市",
    "city_kana": "ニホンマツシ",
    "town": "石ノ花",
    "town_kana": "イシノハナ",
    "street": null,
    "office_name": null,
    "office_name_kana": null
  },
  "0827": {
    "postcode": "9640827",
    "prefecture": "福島県",
    "prefecture_kana": "フクシマケン",
    "prefecture_code": 7,
    "city": "二本松市",
    "city_kana": "ニホンマツシ",
    "town": "反返",
    "town_kana": "ソリカエリ",
    "street": null,
    "office_name": null,
    "office_name_kana": null
  },
  "0828": {
    "postcode": "9640828",
    "prefecture": "福島県",
    "prefecture_kana": "フクシマケン",
    "prefecture_code": 7,
    "city": "二本松市",
    "city_kana": "ニホンマツシ",
    "town": "新林",
    "town_kana": "シンバヤシ",
    "street": null,
    "office_name": null,
    "office_name_kana": null
  },
  "0829": {
    "postcode": "9640829",
    "prefecture": "福島県",
    "prefecture_kana": "フクシマケン",
    "prefecture_code": 7,
    "city": "二本松市",
    "city_kana": "ニホンマツシ",
    "town": "袋内",
    "town_kana": "フクロウチ",
    "street": null,
    "office_name": null,
    "office_name_kana": null
  },
  "0831": {
    "postcode": "9640831",
    "prefecture": "福島県",
    "prefecture_kana": "フクシマケン",
    "prefecture_code": 7,
    "city": "二本松市",
    "city_kana": "ニホンマツシ",
    "town": "前田",
    "town_kana": "マエダ",
    "street": null,
    "office_name": null,
    "office_name_kana": null
  },
  "0832": {
    "postcode": "9640832",
    "prefecture": "福島県",
    "prefecture_kana": "フクシマケン",
    "prefecture_code": 7,
    "city": "二本松市",
    "city_kana": "ニホンマツシ",
    "town": "落合",
    "town_kana": "オチアイ",
    "street": null,
    "office_name": null,
    "office_name_kana": null
  },
  "0833": {
    "postcode": "9640833",
    "prefecture": "福島県",
    "prefecture_kana": "フクシマケン",
    "prefecture_code": 7,
    "city": "二本松市",
    "city_kana": "ニホンマツシ",
    "town": "杉田仲之内",
    "town_kana": "スギタナカノウチ",
    "street": null,
    "office_name": null,
    "office_name_kana": null
  },
  "0834": {
    "postcode": "9640834",
    "prefecture": "福島県",
    "prefecture_kana": "フクシマケン",
    "prefecture_code": 7,
    "city": "二本松市",
    "city_kana": "ニホンマツシ",
    "town": "十神",
    "town_kana": "トオガミ",
    "street": null,
    "office_name": null,
    "office_name_kana": null
  },
  "0835": {
    "postcode": "9640835",
    "prefecture": "福島県",
    "prefecture_kana": "フクシマケン",
    "prefecture_code": 7,
    "city": "二本松市",
    "city_kana": "ニホンマツシ",
    "town": "水神",
    "town_kana": "スイジン",
    "street": null,
    "office_name": null,
    "office_name_kana": null
  },
  "0836": {
    "postcode": "9640836",
    "prefecture": "福島県",
    "prefecture_kana": "フクシマケン",
    "prefecture_code": 7,
    "city": "二本松市",
    "city_kana": "ニホンマツシ",
    "town": "菅田",
    "town_kana": "スガタ",
    "street": null,
    "office_name": null,
    "office_name_kana": null
  },
  "0837": {
    "postcode": "9640837",
    "prefecture": "福島県",
    "prefecture_kana": "フクシマケン",
    "prefecture_code": 7,
    "city": "二本松市",
    "city_kana": "ニホンマツシ",
    "town": "七ツ段",
    "town_kana": "ナナツダン",
    "street": null,
    "office_name": null,
    "office_name_kana": null
  },
  "0838": {
    "postcode": "9640838",
    "prefecture": "福島県",
    "prefecture_kana": "フクシマケン",
    "prefecture_code": 7,
    "city": "二本松市",
    "city_kana": "ニホンマツシ",
    "town": "借宿",
    "town_kana": "カリヤド",
    "street": null,
    "office_name": null,
    "office_name_kana": null
  },
  "0841": {
    "postcode": "9640841",
    "prefecture": "福島県",
    "prefecture_kana": "フクシマケン",
    "prefecture_code": 7,
    "city": "二本松市",
    "city_kana": "ニホンマツシ",
    "town": "瀬ノ上",
    "town_kana": "セノウエ",
    "street": null,
    "office_name": null,
    "office_name_kana": null
  },
  "0842": {
    "postcode": "9640842",
    "prefecture": "福島県",
    "prefecture_kana": "フクシマケン",
    "prefecture_code": 7,
    "city": "二本松市",
    "city_kana": "ニホンマツシ",
    "town": "隠里",
    "town_kana": "カクレサト",
    "street": null,
    "office_name": null,
    "office_name_kana": null
  },
  "0843": {
    "postcode": "9640843",
    "prefecture": "福島県",
    "prefecture_kana": "フクシマケン",
    "prefecture_code": 7,
    "city": "二本松市",
    "city_kana": "ニホンマツシ",
    "town": "坊主滝",
    "town_kana": "ボウズタキ",
    "street": null,
    "office_name": null,
    "office_name_kana": null
  },
  "0844": {
    "postcode": "9640844",
    "prefecture": "福島県",
    "prefecture_kana": "フクシマケン",
    "prefecture_code": 7,
    "city": "二本松市",
    "city_kana": "ニホンマツシ",
    "town": "在師",
    "town_kana": "ザイシ",
    "street": null,
    "office_name": null,
    "office_name_kana": null
  },
  "0845": {
    "postcode": "9640845",
    "prefecture": "福島県",
    "prefecture_kana": "フクシマケン",
    "prefecture_code": 7,
    "city": "二本松市",
    "city_kana": "ニホンマツシ",
    "town": "竹柄",
    "town_kana": "タケガラ",
    "street": null,
    "office_name": null,
    "office_name_kana": null
  },
  "0846": {
    "postcode": "9640846",
    "prefecture": "福島県",
    "prefecture_kana": "フクシマケン",
    "prefecture_code": 7,
    "city": "二本松市",
    "city_kana": "ニホンマツシ",
    "town": "峠",
    "town_kana": "トウゲ",
    "street": null,
    "office_name": null,
    "office_name_kana": null
  },
  "0847": {
    "postcode": "9640847",
    "prefecture": "福島県",
    "prefecture_kana": "フクシマケン",
    "prefecture_code": 7,
    "city": "二本松市",
    "city_kana": "ニホンマツシ",
    "town": "薬師",
    "town_kana": "ヤクシ",
    "street": null,
    "office_name": null,
    "office_name_kana": null
  },
  "0848": {
    "postcode": "9640848",
    "prefecture": "福島県",
    "prefecture_kana": "フクシマケン",
    "prefecture_code": 7,
    "city": "二本松市",
    "city_kana": "ニホンマツシ",
    "town": "上平内",
    "town_kana": "カミヒラウチ",
    "street": null,
    "office_name": null,
    "office_name_kana": null
  },
  "0849": {
    "postcode": "9640849",
    "prefecture": "福島県",
    "prefecture_kana": "フクシマケン",
    "prefecture_code": 7,
    "city": "二本松市",
    "city_kana": "ニホンマツシ",
    "town": "大沢",
    "town_kana": "オオサワ",
    "street": null,
    "office_name": null,
    "office_name_kana": null
  },
  "0851": {
    "postcode": "9640851",
    "prefecture": "福島県",
    "prefecture_kana": "フクシマケン",
    "prefecture_code": 7,
    "city": "二本松市",
    "city_kana": "ニホンマツシ",
    "town": "反田",
    "town_kana": "ソリタ",
    "street": null,
    "office_name": null,
    "office_name_kana": null
  },
  "0852": {
    "postcode": "9640852",
    "prefecture": "福島県",
    "prefecture_kana": "フクシマケン",
    "prefecture_code": 7,
    "city": "二本松市",
    "city_kana": "ニホンマツシ",
    "town": "長者宮",
    "town_kana": "チョウジャミヤ",
    "street": null,
    "office_name": null,
    "office_name_kana": null
  },
  "0853": {
    "postcode": "9640853",
    "prefecture": "福島県",
    "prefecture_kana": "フクシマケン",
    "prefecture_code": 7,
    "city": "二本松市",
    "city_kana": "ニホンマツシ",
    "town": "向陽台",
    "town_kana": "コウヨウダイ",
    "street": null,
    "office_name": null,
    "office_name_kana": null
  },
  "0854": {
    "postcode": "9640854",
    "prefecture": "福島県",
    "prefecture_kana": "フクシマケン",
    "prefecture_code": 7,
    "city": "二本松市",
    "city_kana": "ニホンマツシ",
    "town": "郡山台",
    "town_kana": "コオリヤマダイ",
    "street": null,
    "office_name": null,
    "office_name_kana": null
  },
  "0855": {
    "postcode": "9640855",
    "prefecture": "福島県",
    "prefecture_kana": "フクシマケン",
    "prefecture_code": 7,
    "city": "二本松市",
    "city_kana": "ニホンマツシ",
    "town": "成上",
    "town_kana": "ナリカミ",
    "street": null,
    "office_name": null,
    "office_name_kana": null
  },
  "0856": {
    "postcode": "9640856",
    "prefecture": "福島県",
    "prefecture_kana": "フクシマケン",
    "prefecture_code": 7,
    "city": "二本松市",
    "city_kana": "ニホンマツシ",
    "town": "西町",
    "town_kana": "ニシマチ",
    "street": null,
    "office_name": null,
    "office_name_kana": null
  },
  "0857": {
    "postcode": "9640857",
    "prefecture": "福島県",
    "prefecture_kana": "フクシマケン",
    "prefecture_code": 7,
    "city": "二本松市",
    "city_kana": "ニホンマツシ",
    "town": "東町",
    "town_kana": "ヒガシマチ",
    "street": null,
    "office_name": null,
    "office_name_kana": null
  },
  "0858": {
    "postcode": "9640858",
    "prefecture": "福島県",
    "prefecture_kana": "フクシマケン",
    "prefecture_code": 7,
    "city": "二本松市",
    "city_kana": "ニホンマツシ",
    "town": "姫子松",
    "town_kana": "ヒメコマツ",
    "street": null,
    "office_name": null,
    "office_name_kana": null
  },
  "0859": {
    "postcode": "9640859",
    "prefecture": "福島県",
    "prefecture_kana": "フクシマケン",
    "prefecture_code": 7,
    "city": "二本松市",
    "city_kana": "ニホンマツシ",
    "town": "中江",
    "town_kana": "ナカエ",
    "street": null,
    "office_name": null,
    "office_name_kana": null
  },
  "0861": {
    "postcode": "9640861",
    "prefecture": "福島県",
    "prefecture_kana": "フクシマケン",
    "prefecture_code": 7,
    "city": "二本松市",
    "city_kana": "ニホンマツシ",
    "town": "西池",
    "town_kana": "ニシイケ",
    "street": null,
    "office_name": null,
    "office_name_kana": null
  },
  "0862": {
    "postcode": "9640862",
    "prefecture": "福島県",
    "prefecture_kana": "フクシマケン",
    "prefecture_code": 7,
    "city": "二本松市",
    "city_kana": "ニホンマツシ",
    "town": "杉田駄子内",
    "town_kana": "スギタダンゴウチ",
    "street": null,
    "office_name": null,
    "office_name_kana": null
  },
  "0863": {
    "postcode": "9640863",
    "prefecture": "福島県",
    "prefecture_kana": "フクシマケン",
    "prefecture_code": 7,
    "city": "二本松市",
    "city_kana": "ニホンマツシ",
    "town": "片岸",
    "town_kana": "カタギシ",
    "street": null,
    "office_name": null,
    "office_name_kana": null
  },
  "0864": {
    "postcode": "9640864",
    "prefecture": "福島県",
    "prefecture_kana": "フクシマケン",
    "prefecture_code": 7,
    "city": "二本松市",
    "city_kana": "ニホンマツシ",
    "town": "社前",
    "town_kana": "ヤシロマエ",
    "street": null,
    "office_name": null,
    "office_name_kana": null
  },
  "0865": {
    "postcode": "9640865",
    "prefecture": "福島県",
    "prefecture_kana": "フクシマケン",
    "prefecture_code": 7,
    "city": "二本松市",
    "city_kana": "ニホンマツシ",
    "town": "杉田町",
    "town_kana": "スギタマチ",
    "street": null,
    "office_name": null,
    "office_name_kana": null
  },
  "0866": {
    "postcode": "9640866",
    "prefecture": "福島県",
    "prefecture_kana": "フクシマケン",
    "prefecture_code": 7,
    "city": "二本松市",
    "city_kana": "ニホンマツシ",
    "town": "長命",
    "town_kana": "チョウメイ",
    "street": null,
    "office_name": null,
    "office_name_kana": null
  },
  "0867": {
    "postcode": "9640867",
    "prefecture": "福島県",
    "prefecture_kana": "フクシマケン",
    "prefecture_code": 7,
    "city": "二本松市",
    "city_kana": "ニホンマツシ",
    "town": "住吉",
    "town_kana": "スミヨシ",
    "street": null,
    "office_name": null,
    "office_name_kana": null
  },
  "0868": {
    "postcode": "9640868",
    "prefecture": "福島県",
    "prefecture_kana": "フクシマケン",
    "prefecture_code": 7,
    "city": "二本松市",
    "city_kana": "ニホンマツシ",
    "town": "舘野",
    "town_kana": "タテノ",
    "street": null,
    "office_name": null,
    "office_name_kana": null
  },
  "0869": {
    "postcode": "9640869",
    "prefecture": "福島県",
    "prefecture_kana": "フクシマケン",
    "prefecture_code": 7,
    "city": "二本松市",
    "city_kana": "ニホンマツシ",
    "town": "大平山",
    "town_kana": "オオヒラヤマ",
    "street": null,
    "office_name": null,
    "office_name_kana": null
  },
  "0871": {
    "postcode": "9640871",
    "prefecture": "福島県",
    "prefecture_kana": "フクシマケン",
    "prefecture_code": 7,
    "city": "二本松市",
    "city_kana": "ニホンマツシ",
    "town": "成田町",
    "town_kana": "ナリタマチ",
    "street": null,
    "office_name": null,
    "office_name_kana": null
  },
  "0872": {
    "postcode": "9640872",
    "prefecture": "福島県",
    "prefecture_kana": "フクシマケン",
    "prefecture_code": 7,
    "city": "二本松市",
    "city_kana": "ニホンマツシ",
    "town": "藤太郎内",
    "town_kana": "トウタロウウチ",
    "street": null,
    "office_name": null,
    "office_name_kana": null
  },
  "0873": {
    "postcode": "9640873",
    "prefecture": "福島県",
    "prefecture_kana": "フクシマケン",
    "prefecture_code": 7,
    "city": "二本松市",
    "city_kana": "ニホンマツシ",
    "town": "東裏",
    "town_kana": "ヒガシウラ",
    "street": null,
    "office_name": null,
    "office_name_kana": null
  },
  "0874": {
    "postcode": "9640874",
    "prefecture": "福島県",
    "prefecture_kana": "フクシマケン",
    "prefecture_code": 7,
    "city": "二本松市",
    "city_kana": "ニホンマツシ",
    "town": "中里",
    "town_kana": "ナカサト",
    "street": null,
    "office_name": null,
    "office_name_kana": null
  },
  "0875": {
    "postcode": "9640875",
    "prefecture": "福島県",
    "prefecture_kana": "フクシマケン",
    "prefecture_code": 7,
    "city": "二本松市",
    "city_kana": "ニホンマツシ",
    "town": "槻木",
    "town_kana": "ツキノキ",
    "street": null,
    "office_name": null,
    "office_name_kana": null
  },
  "0876": {
    "postcode": "9640876",
    "prefecture": "福島県",
    "prefecture_kana": "フクシマケン",
    "prefecture_code": 7,
    "city": "二本松市",
    "city_kana": "ニホンマツシ",
    "town": "正法寺町",
    "town_kana": "ショウボウジマチ",
    "street": null,
    "office_name": null,
    "office_name_kana": null
  },
  "0881": {
    "postcode": "9640881",
    "prefecture": "福島県",
    "prefecture_kana": "フクシマケン",
    "prefecture_code": 7,
    "city": "二本松市",
    "city_kana": "ニホンマツシ",
    "town": "藤之前",
    "town_kana": "トウノマエ",
    "street": null,
    "office_name": null,
    "office_name_kana": null
  },
  "0882": {
    "postcode": "9640882",
    "prefecture": "福島県",
    "prefecture_kana": "フクシマケン",
    "prefecture_code": 7,
    "city": "二本松市",
    "city_kana": "ニホンマツシ",
    "town": "新座",
    "town_kana": "シンザ",
    "street": null,
    "office_name": null,
    "office_name_kana": null
  },
  "0883": {
    "postcode": "9640883",
    "prefecture": "福島県",
    "prefecture_kana": "フクシマケン",
    "prefecture_code": 7,
    "city": "二本松市",
    "city_kana": "ニホンマツシ",
    "town": "下山田",
    "town_kana": "シモヤマダ",
    "street": null,
    "office_name": null,
    "office_name_kana": null
  },
  "0884": {
    "postcode": "9640884",
    "prefecture": "福島県",
    "prefecture_kana": "フクシマケン",
    "prefecture_code": 7,
    "city": "二本松市",
    "city_kana": "ニホンマツシ",
    "town": "大作",
    "town_kana": "ダイサク",
    "street": null,
    "office_name": null,
    "office_name_kana": null
  },
  "0885": {
    "postcode": "9640885",
    "prefecture": "福島県",
    "prefecture_kana": "フクシマケン",
    "prefecture_code": 7,
    "city": "二本松市",
    "city_kana": "ニホンマツシ",
    "town": "高越屋戸",
    "town_kana": "タカコシヤド",
    "street": null,
    "office_name": null,
    "office_name_kana": null
  },
  "0886": {
    "postcode": "9640886",
    "prefecture": "福島県",
    "prefecture_kana": "フクシマケン",
    "prefecture_code": 7,
    "city": "二本松市",
    "city_kana": "ニホンマツシ",
    "town": "高越松ケ作",
    "town_kana": "タカコシマツガサク",
    "street": null,
    "office_name": null,
    "office_name_kana": null
  },
  "0887": {
    "postcode": "9640887",
    "prefecture": "福島県",
    "prefecture_kana": "フクシマケン",
    "prefecture_code": 7,
    "city": "二本松市",
    "city_kana": "ニホンマツシ",
    "town": "三保内",
    "town_kana": "ミホウチ",
    "street": null,
    "office_name": null,
    "office_name_kana": null
  },
  "0891": {
    "postcode": "9640891",
    "prefecture": "福島県",
    "prefecture_kana": "フクシマケン",
    "prefecture_code": 7,
    "city": "二本松市",
    "city_kana": "ニホンマツシ",
    "town": "大壇",
    "town_kana": "オオダン",
    "street": null,
    "office_name": null,
    "office_name_kana": null
  },
  "0892": {
    "postcode": "9640892",
    "prefecture": "福島県",
    "prefecture_kana": "フクシマケン",
    "prefecture_code": 7,
    "city": "二本松市",
    "city_kana": "ニホンマツシ",
    "town": "成田日向",
    "town_kana": "ナリタヒナタ",
    "street": null,
    "office_name": null,
    "office_name_kana": null
  },
  "0893": {
    "postcode": "9640893",
    "prefecture": "福島県",
    "prefecture_kana": "フクシマケン",
    "prefecture_code": 7,
    "city": "二本松市",
    "city_kana": "ニホンマツシ",
    "town": "幸町",
    "town_kana": "サイワイチョウ",
    "street": null,
    "office_name": null,
    "office_name_kana": null
  },
  "0894": {
    "postcode": "9640894",
    "prefecture": "福島県",
    "prefecture_kana": "フクシマケン",
    "prefecture_code": 7,
    "city": "二本松市",
    "city_kana": "ニホンマツシ",
    "town": "坦子内",
    "town_kana": "ダンゴウチ",
    "street": null,
    "office_name": null,
    "office_name_kana": null
  },
  "0895": {
    "postcode": "9640895",
    "prefecture": "福島県",
    "prefecture_kana": "フクシマケン",
    "prefecture_code": 7,
    "city": "二本松市",
    "city_kana": "ニホンマツシ",
    "town": "三原町",
    "town_kana": "ミハラチョウ",
    "street": null,
    "office_name": null,
    "office_name_kana": null
  },
  "0896": {
    "postcode": "9640896",
    "prefecture": "福島県",
    "prefecture_kana": "フクシマケン",
    "prefecture_code": 7,
    "city": "二本松市",
    "city_kana": "ニホンマツシ",
    "town": "末広町",
    "town_kana": "スエヒロチョウ",
    "street": null,
    "office_name": null,
    "office_name_kana": null
  },
  "0897": {
    "postcode": "9640897",
    "prefecture": "福島県",
    "prefecture_kana": "フクシマケン",
    "prefecture_code": 7,
    "city": "二本松市",
    "city_kana": "ニホンマツシ",
    "town": "塩沢町",
    "town_kana": "シオザワチョウ",
    "street": null,
    "office_name": null,
    "office_name_kana": null
  },
  "0898": {
    "postcode": "9640898",
    "prefecture": "福島県",
    "prefecture_kana": "フクシマケン",
    "prefecture_code": 7,
    "city": "二本松市",
    "city_kana": "ニホンマツシ",
    "town": "上原",
    "town_kana": "ウワバラ",
    "street": null,
    "office_name": null,
    "office_name_kana": null
  },
  "0901": {
    "postcode": "9640901",
    "prefecture": "福島県",
    "prefecture_kana": "フクシマケン",
    "prefecture_code": 7,
    "city": "二本松市",
    "city_kana": "ニホンマツシ",
    "town": "表",
    "town_kana": "オモテ",
    "street": null,
    "office_name": null,
    "office_name_kana": null
  },
  "0902": {
    "postcode": "9640902",
    "prefecture": "福島県",
    "prefecture_kana": "フクシマケン",
    "prefecture_code": 7,
    "city": "二本松市",
    "city_kana": "ニホンマツシ",
    "town": "竹田",
    "town_kana": "タケダ",
    "street": null,
    "office_name": null,
    "office_name_kana": null
  },
  "0903": {
    "postcode": "9640903",
    "prefecture": "福島県",
    "prefecture_kana": "フクシマケン",
    "prefecture_code": 7,
    "city": "二本松市",
    "city_kana": "ニホンマツシ",
    "town": "根崎",
    "town_kana": "ネザキ",
    "street": null,
    "office_name": null,
    "office_name_kana": null
  },
  "0904": {
    "postcode": "9640904",
    "prefecture": "福島県",
    "prefecture_kana": "フクシマケン",
    "prefecture_code": 7,
    "city": "二本松市",
    "city_kana": "ニホンマツシ",
    "town": "郭内",
    "town_kana": "カクナイ",
    "street": null,
    "office_name": null,
    "office_name_kana": null
  },
  "0905": {
    "postcode": "9640905",
    "prefecture": "福島県",
    "prefecture_kana": "フクシマケン",
    "prefecture_code": 7,
    "city": "二本松市",
    "city_kana": "ニホンマツシ",
    "town": "松岡",
    "town_kana": "マツオカ",
    "street": null,
    "office_name": null,
    "office_name_kana": null
  },
  "0906": {
    "postcode": "9640906",
    "prefecture": "福島県",
    "prefecture_kana": "フクシマケン",
    "prefecture_code": 7,
    "city": "二本松市",
    "city_kana": "ニホンマツシ",
    "town": "若宮",
    "town_kana": "ワカミヤ",
    "street": null,
    "office_name": null,
    "office_name_kana": null
  },
  "0907": {
    "postcode": "9640907",
    "prefecture": "福島県",
    "prefecture_kana": "フクシマケン",
    "prefecture_code": 7,
    "city": "二本松市",
    "city_kana": "ニホンマツシ",
    "town": "細野",
    "town_kana": "ホソノ",
    "street": null,
    "office_name": null,
    "office_name_kana": null
  },
  "0911": {
    "postcode": "9640911",
    "prefecture": "福島県",
    "prefecture_kana": "フクシマケン",
    "prefecture_code": 7,
    "city": "二本松市",
    "city_kana": "ニホンマツシ",
    "town": "亀谷",
    "town_kana": "カメガイ",
    "street": null,
    "office_name": null,
    "office_name_kana": null
  },
  "0912": {
    "postcode": "9640912",
    "prefecture": "福島県",
    "prefecture_kana": "フクシマケン",
    "prefecture_code": 7,
    "city": "二本松市",
    "city_kana": "ニホンマツシ",
    "town": "上竹",
    "town_kana": "ジョウタケ",
    "street": null,
    "office_name": null,
    "office_name_kana": null
  },
  "0913": {
    "postcode": "9640913",
    "prefecture": "福島県",
    "prefecture_kana": "フクシマケン",
    "prefecture_code": 7,
    "city": "二本松市",
    "city_kana": "ニホンマツシ",
    "town": "茶園",
    "town_kana": "サエン",
    "street": null,
    "office_name": null,
    "office_name_kana": null
  },
  "0914": {
    "postcode": "9640914",
    "prefecture": "福島県",
    "prefecture_kana": "フクシマケン",
    "prefecture_code": 7,
    "city": "二本松市",
    "city_kana": "ニホンマツシ",
    "town": "市海道",
    "town_kana": "イチカイドウ",
    "street": null,
    "office_name": null,
    "office_name_kana": null
  },
  "0915": {
    "postcode": "9640915",
    "prefecture": "福島県",
    "prefecture_kana": "フクシマケン",
    "prefecture_code": 7,
    "city": "二本松市",
    "city_kana": "ニホンマツシ",
    "town": "金色",
    "town_kana": "カナイロ",
    "street": null,
    "office_name": null,
    "office_name_kana": null
  },
  "0916": {
    "postcode": "9640916",
    "prefecture": "福島県",
    "prefecture_kana": "フクシマケン",
    "prefecture_code": 7,
    "city": "二本松市",
    "city_kana": "ニホンマツシ",
    "town": "向原",
    "town_kana": "ムカイハラ",
    "street": null,
    "office_name": null,
    "office_name_kana": null
  },
  "0917": {
    "postcode": "9640917",
    "prefecture": "福島県",
    "prefecture_kana": "フクシマケン",
    "prefecture_code": 7,
    "city": "二本松市",
    "city_kana": "ニホンマツシ",
    "town": "本町",
    "town_kana": "モトマチ",
    "street": null,
    "office_name": null,
    "office_name_kana": null
  },
  "0921": {
    "postcode": "9640921",
    "prefecture": "福島県",
    "prefecture_kana": "フクシマケン",
    "prefecture_code": 7,
    "city": "二本松市",
    "city_kana": "ニホンマツシ",
    "town": "小セ川",
    "town_kana": "コセガワ",
    "street": null,
    "office_name": null,
    "office_name_kana": null
  },
  "0922": {
    "postcode": "9640922",
    "prefecture": "福島県",
    "prefecture_kana": "フクシマケン",
    "prefecture_code": 7,
    "city": "二本松市",
    "city_kana": "ニホンマツシ",
    "town": "島寺",
    "town_kana": "シマデラ",
    "street": null,
    "office_name": null,
    "office_name_kana": null
  },
  "0923": {
    "postcode": "9640923",
    "prefecture": "福島県",
    "prefecture_kana": "フクシマケン",
    "prefecture_code": 7,
    "city": "二本松市",
    "city_kana": "ニホンマツシ",
    "town": "長下",
    "town_kana": "ナガシタ",
    "street": null,
    "office_name": null,
    "office_name_kana": null
  },
  "0924": {
    "postcode": "9640924",
    "prefecture": "福島県",
    "prefecture_kana": "フクシマケン",
    "prefecture_code": 7,
    "city": "二本松市",
    "city_kana": "ニホンマツシ",
    "town": "中森",
    "town_kana": "ナカモリ",
    "street": null,
    "office_name": null,
    "office_name_kana": null
  },
  "0925": {
    "postcode": "9640925",
    "prefecture": "福島県",
    "prefecture_kana": "フクシマケン",
    "prefecture_code": 7,
    "city": "二本松市",
    "city_kana": "ニホンマツシ",
    "town": "谷和子",
    "town_kana": "ヤワコ",
    "street": null,
    "office_name": null,
    "office_name_kana": null
  },
  "0926": {
    "postcode": "9640926",
    "prefecture": "福島県",
    "prefecture_kana": "フクシマケン",
    "prefecture_code": 7,
    "city": "二本松市",
    "city_kana": "ニホンマツシ",
    "town": "上蓬田",
    "town_kana": "カミヨモギタ",
    "street": null,
    "office_name": null,
    "office_name_kana": null
  },
  "0927": {
    "postcode": "9640927",
    "prefecture": "福島県",
    "prefecture_kana": "フクシマケン",
    "prefecture_code": 7,
    "city": "二本松市",
    "city_kana": "ニホンマツシ",
    "town": "石畑",
    "town_kana": "イシハタ",
    "street": null,
    "office_name": null,
    "office_name_kana": null
  },
  "0928": {
    "postcode": "9640928",
    "prefecture": "福島県",
    "prefecture_kana": "フクシマケン",
    "prefecture_code": 7,
    "city": "二本松市",
    "city_kana": "ニホンマツシ",
    "town": "蓬田",
    "town_kana": "ヨモギダ",
    "street": null,
    "office_name": null,
    "office_name_kana": null
  },
  "0929": {
    "postcode": "9640929",
    "prefecture": "福島県",
    "prefecture_kana": "フクシマケン",
    "prefecture_code": 7,
    "city": "二本松市",
    "city_kana": "ニホンマツシ",
    "town": "浅川",
    "town_kana": "アサガワ",
    "street": null,
    "office_name": null,
    "office_name_kana": null
  },
  "0931": {
    "postcode": "9640931",
    "prefecture": "福島県",
    "prefecture_kana": "フクシマケン",
    "prefecture_code": 7,
    "city": "二本松市",
    "city_kana": "ニホンマツシ",
    "town": "矢ノ戸",
    "town_kana": "ヤノト",
    "street": null,
    "office_name": null,
    "office_name_kana": null
  },
  "0932": {
    "postcode": "9640932",
    "prefecture": "福島県",
    "prefecture_kana": "フクシマケン",
    "prefecture_code": 7,
    "city": "二本松市",
    "city_kana": "ニホンマツシ",
    "town": "丑子内",
    "town_kana": "ウシコウチ",
    "street": null,
    "office_name": null,
    "office_name_kana": null
  },
  "0933": {
    "postcode": "9640933",
    "prefecture": "福島県",
    "prefecture_kana": "フクシマケン",
    "prefecture_code": 7,
    "city": "二本松市",
    "city_kana": "ニホンマツシ",
    "town": "西光内",
    "town_kana": "サイコウウチ",
    "street": null,
    "office_name": null,
    "office_name_kana": null
  },
  "0934": {
    "postcode": "9640934",
    "prefecture": "福島県",
    "prefecture_kana": "フクシマケン",
    "prefecture_code": 7,
    "city": "二本松市",
    "city_kana": "ニホンマツシ",
    "town": "三合内",
    "town_kana": "サンゴウウチ",
    "street": null,
    "office_name": null,
    "office_name_kana": null
  },
  "0935": {
    "postcode": "9640935",
    "prefecture": "福島県",
    "prefecture_kana": "フクシマケン",
    "prefecture_code": 7,
    "city": "二本松市",
    "city_kana": "ニホンマツシ",
    "town": "島ノ内",
    "town_kana": "シマノウチ",
    "street": null,
    "office_name": null,
    "office_name_kana": null
  },
  "0936": {
    "postcode": "9640936",
    "prefecture": "福島県",
    "prefecture_kana": "フクシマケン",
    "prefecture_code": 7,
    "city": "二本松市",
    "city_kana": "ニホンマツシ",
    "town": "諸越谷",
    "town_kana": "モロコシガイ",
    "street": null,
    "office_name": null,
    "office_name_kana": null
  },
  "0937": {
    "postcode": "9640937",
    "prefecture": "福島県",
    "prefecture_kana": "フクシマケン",
    "prefecture_code": 7,
    "city": "二本松市",
    "city_kana": "ニホンマツシ",
    "town": "榎戸",
    "town_kana": "エノキド",
    "street": null,
    "office_name": null,
    "office_name_kana": null
  },
  "0938": {
    "postcode": "9640938",
    "prefecture": "福島県",
    "prefecture_kana": "フクシマケン",
    "prefecture_code": 7,
    "city": "二本松市",
    "city_kana": "ニホンマツシ",
    "town": "安達ケ原",
    "town_kana": "アダチガハラ",
    "street": null,
    "office_name": null,
    "office_name_kana": null
  },
  "0941": {
    "postcode": "9640941",
    "prefecture": "福島県",
    "prefecture_kana": "フクシマケン",
    "prefecture_code": 7,
    "city": "二本松市",
    "city_kana": "ニホンマツシ",
    "town": "水上",
    "town_kana": "ミズカミ",
    "street": null,
    "office_name": null,
    "office_name_kana": null
  },
  "0942": {
    "postcode": "9640942",
    "prefecture": "福島県",
    "prefecture_kana": "フクシマケン",
    "prefecture_code": 7,
    "city": "二本松市",
    "city_kana": "ニホンマツシ",
    "town": "式部内",
    "town_kana": "シキブウチ",
    "street": null,
    "office_name": null,
    "office_name_kana": null
  },
  "0943": {
    "postcode": "9640943",
    "prefecture": "福島県",
    "prefecture_kana": "フクシマケン",
    "prefecture_code": 7,
    "city": "二本松市",
    "city_kana": "ニホンマツシ",
    "town": "明主内",
    "town_kana": "ミョウシュウチ",
    "street": null,
    "office_name": null,
    "office_name_kana": null
  },
  "0944": {
    "postcode": "9640944",
    "prefecture": "福島県",
    "prefecture_kana": "フクシマケン",
    "prefecture_code": 7,
    "city": "二本松市",
    "city_kana": "ニホンマツシ",
    "town": "作",
    "town_kana": "サク",
    "street": null,
    "office_name": null,
    "office_name_kana": null
  },
  "0945": {
    "postcode": "9640945",
    "prefecture": "福島県",
    "prefecture_kana": "フクシマケン",
    "prefecture_code": 7,
    "city": "二本松市",
    "city_kana": "ニホンマツシ",
    "town": "遠山",
    "town_kana": "トオヤマ",
    "street": null,
    "office_name": null,
    "office_name_kana": null
  },
  "0946": {
    "postcode": "9640946",
    "prefecture": "福島県",
    "prefecture_kana": "フクシマケン",
    "prefecture_code": 7,
    "city": "二本松市",
    "city_kana": "ニホンマツシ",
    "town": "堀越",
    "town_kana": "ホリコシ",
    "street": null,
    "office_name": null,
    "office_name_kana": null
  },
  "0947": {
    "postcode": "9640947",
    "prefecture": "福島県",
    "prefecture_kana": "フクシマケン",
    "prefecture_code": 7,
    "city": "二本松市",
    "city_kana": "ニホンマツシ",
    "town": "松林",
    "town_kana": "マツバヤシ",
    "street": null,
    "office_name": null,
    "office_name_kana": null
  },
  "0948": {
    "postcode": "9640948",
    "prefecture": "福島県",
    "prefecture_kana": "フクシマケン",
    "prefecture_code": 7,
    "city": "二本松市",
    "city_kana": "ニホンマツシ",
    "town": "橋本",
    "town_kana": "ハシモト",
    "street": null,
    "office_name": null,
    "office_name_kana": null
  },
  "0949": {
    "postcode": "9640949",
    "prefecture": "福島県",
    "prefecture_kana": "フクシマケン",
    "prefecture_code": 7,
    "city": "二本松市",
    "city_kana": "ニホンマツシ",
    "town": "大平中井",
    "town_kana": "オオタイラナカイ",
    "street": null,
    "office_name": null,
    "office_name_kana": null
  },
  "0951": {
    "postcode": "9640951",
    "prefecture": "福島県",
    "prefecture_kana": "フクシマケン",
    "prefecture_code": 7,
    "city": "二本松市",
    "city_kana": "ニホンマツシ",
    "town": "宮本",
    "town_kana": "ミヤモト",
    "street": null,
    "office_name": null,
    "office_name_kana": null
  },
  "0952": {
    "postcode": "9640952",
    "prefecture": "福島県",
    "prefecture_kana": "フクシマケン",
    "prefecture_code": 7,
    "city": "二本松市",
    "city_kana": "ニホンマツシ",
    "town": "神明石",
    "town_kana": "シンメイイシ",
    "street": null,
    "office_name": null,
    "office_name_kana": null
  },
  "0953": {
    "postcode": "9640953",
    "prefecture": "福島県",
    "prefecture_kana": "フクシマケン",
    "prefecture_code": 7,
    "city": "二本松市",
    "city_kana": "ニホンマツシ",
    "town": "沼ケ作",
    "town_kana": "ヌマガサク",
    "street": null,
    "office_name": null,
    "office_name_kana": null
  },
  "0954": {
    "postcode": "9640954",
    "prefecture": "福島県",
    "prefecture_kana": "フクシマケン",
    "prefecture_code": 7,
    "city": "二本松市",
    "city_kana": "ニホンマツシ",
    "town": "大稲場",
    "town_kana": "オオイナバ",
    "street": null,
    "office_name": null,
    "office_name_kana": null
  },
  "0955": {
    "postcode": "9640955",
    "prefecture": "福島県",
    "prefecture_kana": "フクシマケン",
    "prefecture_code": 7,
    "city": "二本松市",
    "city_kana": "ニホンマツシ",
    "town": "沖",
    "town_kana": "オキ",
    "street": null,
    "office_name": null,
    "office_name_kana": null
  },
  "0956": {
    "postcode": "9640956",
    "prefecture": "福島県",
    "prefecture_kana": "フクシマケン",
    "prefecture_code": 7,
    "city": "二本松市",
    "city_kana": "ニホンマツシ",
    "town": "木ノ崎",
    "town_kana": "キノサキ",
    "street": null,
    "office_name": null,
    "office_name_kana": null
  },
  "0957": {
    "postcode": "9640957",
    "prefecture": "福島県",
    "prefecture_kana": "フクシマケン",
    "prefecture_code": 7,
    "city": "二本松市",
    "city_kana": "ニホンマツシ",
    "town": "太子堂",
    "town_kana": "タイシドウ",
    "street": null,
    "office_name": null,
    "office_name_kana": null
  },
  "0958": {
    "postcode": "9640958",
    "prefecture": "福島県",
    "prefecture_kana": "フクシマケン",
    "prefecture_code": 7,
    "city": "二本松市",
    "city_kana": "ニホンマツシ",
    "town": "竹ノ内",
    "town_kana": "タケノウチ",
    "street": null,
    "office_name": null,
    "office_name_kana": null
  },
  "0961": {
    "postcode": "9640961",
    "prefecture": "福島県",
    "prefecture_kana": "フクシマケン",
    "prefecture_code": 7,
    "city": "二本松市",
    "city_kana": "ニホンマツシ",
    "town": "八坂町",
    "town_kana": "ヤサカチョウ",
    "street": null,
    "office_name": null,
    "office_name_kana": null
  },
  "0962": {
    "postcode": "9640962",
    "prefecture": "福島県",
    "prefecture_kana": "フクシマケン",
    "prefecture_code": 7,
    "city": "二本松市",
    "city_kana": "ニホンマツシ",
    "town": "鈴石東町",
    "town_kana": "スズイシアズマチョウ",
    "street": null,
    "office_name": null,
    "office_name_kana": null
  },
  "0963": {
    "postcode": "9640963",
    "prefecture": "福島県",
    "prefecture_kana": "フクシマケン",
    "prefecture_code": 7,
    "city": "二本松市",
    "city_kana": "ニホンマツシ",
    "town": "大久保",
    "town_kana": "オオクボ",
    "street": null,
    "office_name": null,
    "office_name_kana": null
  },
  "0964": {
    "postcode": "9640964",
    "prefecture": "福島県",
    "prefecture_kana": "フクシマケン",
    "prefecture_code": 7,
    "city": "二本松市",
    "city_kana": "ニホンマツシ",
    "town": "五月町",
    "town_kana": "サツキチョウ",
    "street": null,
    "office_name": null,
    "office_name_kana": null
  },
  "0965": {
    "postcode": "9640965",
    "prefecture": "福島県",
    "prefecture_kana": "フクシマケン",
    "prefecture_code": 7,
    "city": "二本松市",
    "city_kana": "ニホンマツシ",
    "town": "芹沢",
    "town_kana": "セリサワ",
    "street": null,
    "office_name": null,
    "office_name_kana": null
  },
  "0966": {
    "postcode": "9640966",
    "prefecture": "福島県",
    "prefecture_kana": "フクシマケン",
    "prefecture_code": 7,
    "city": "二本松市",
    "city_kana": "ニホンマツシ",
    "town": "昭和町",
    "town_kana": "ショウワマチ",
    "street": null,
    "office_name": null,
    "office_name_kana": null
  },
  "0971": {
    "postcode": "9640971",
    "prefecture": "福島県",
    "prefecture_kana": "フクシマケン",
    "prefecture_code": 7,
    "city": "二本松市",
    "city_kana": "ニホンマツシ",
    "town": "米五町",
    "town_kana": "ヨナゴチョウ",
    "street": null,
    "office_name": null,
    "office_name_kana": null
  },
  "0972": {
    "postcode": "9640972",
    "prefecture": "福島県",
    "prefecture_kana": "フクシマケン",
    "prefecture_code": 7,
    "city": "二本松市",
    "city_kana": "ニホンマツシ",
    "town": "鈴石町",
    "town_kana": "スズイシチョウ",
    "street": null,
    "office_name": null,
    "office_name_kana": null
  },
  "0973": {
    "postcode": "9640973",
    "prefecture": "福島県",
    "prefecture_kana": "フクシマケン",
    "prefecture_code": 7,
    "city": "二本松市",
    "city_kana": "ニホンマツシ",
    "town": "平石町",
    "town_kana": "ヒライシチョウ",
    "street": null,
    "office_name": null,
    "office_name_kana": null
  },
  "0974": {
    "postcode": "9640974",
    "prefecture": "福島県",
    "prefecture_kana": "フクシマケン",
    "prefecture_code": 7,
    "city": "二本松市",
    "city_kana": "ニホンマツシ",
    "town": "小高内",
    "town_kana": "コダコウチ",
    "street": null,
    "office_name": null,
    "office_name_kana": null
  },
  "0975": {
    "postcode": "9640975",
    "prefecture": "福島県",
    "prefecture_kana": "フクシマケン",
    "prefecture_code": 7,
    "city": "二本松市",
    "city_kana": "ニホンマツシ",
    "town": "岡ノ内",
    "town_kana": "オカノウチ",
    "street": null,
    "office_name": null,
    "office_name_kana": null
  },
  "0976": {
    "postcode": "9640976",
    "prefecture": "福島県",
    "prefecture_kana": "フクシマケン",
    "prefecture_code": 7,
    "city": "二本松市",
    "city_kana": "ニホンマツシ",
    "town": "新生町",
    "town_kana": "シンセイチョウ",
    "street": null,
    "office_name": null,
    "office_name_kana": null
  },
  "0981": {
    "postcode": "9640981",
    "prefecture": "福島県",
    "prefecture_kana": "フクシマケン",
    "prefecture_code": 7,
    "city": "二本松市",
    "city_kana": "ニホンマツシ",
    "town": "平石高田",
    "town_kana": "ヒライシタカダ",
    "street": null,
    "office_name": null,
    "office_name_kana": null
  },
  "0982": {
    "postcode": "9640982",
    "prefecture": "福島県",
    "prefecture_kana": "フクシマケン",
    "prefecture_code": 7,
    "city": "二本松市",
    "city_kana": "ニホンマツシ",
    "town": "赤井沢",
    "town_kana": "アカイサワ",
    "street": null,
    "office_name": null,
    "office_name_kana": null
  },
  "0983": {
    "postcode": "9640983",
    "prefecture": "福島県",
    "prefecture_kana": "フクシマケン",
    "prefecture_code": 7,
    "city": "二本松市",
    "city_kana": "ニホンマツシ",
    "town": "南トロミ",
    "town_kana": "ミナミトロミ",
    "street": null,
    "office_name": null,
    "office_name_kana": null
  },
  "0984": {
    "postcode": "9640984",
    "prefecture": "福島県",
    "prefecture_kana": "フクシマケン",
    "prefecture_code": 7,
    "city": "二本松市",
    "city_kana": "ニホンマツシ",
    "town": "北トロミ",
    "town_kana": "キタトロミ",
    "street": null,
    "office_name": null,
    "office_name_kana": null
  },
  "0985": {
    "postcode": "9640985",
    "prefecture": "福島県",
    "prefecture_kana": "フクシマケン",
    "prefecture_code": 7,
    "city": "二本松市",
    "city_kana": "ニホンマツシ",
    "town": "高田",
    "town_kana": "タカダ",
    "street": null,
    "office_name": null,
    "office_name_kana": null
  },
  "0986": {
    "postcode": "9640986",
    "prefecture": "福島県",
    "prefecture_kana": "フクシマケン",
    "prefecture_code": 7,
    "city": "二本松市",
    "city_kana": "ニホンマツシ",
    "town": "作田",
    "town_kana": "サクタ",
    "street": null,
    "office_name": null,
    "office_name_kana": null
  },
  "0987": {
    "postcode": "9640987",
    "prefecture": "福島県",
    "prefecture_kana": "フクシマケン",
    "prefecture_code": 7,
    "city": "二本松市",
    "city_kana": "ニホンマツシ",
    "town": "冠木",
    "town_kana": "カブキ",
    "street": null,
    "office_name": null,
    "office_name_kana": null
  },
  "0991": {
    "postcode": "9640991",
    "prefecture": "福島県",
    "prefecture_kana": "フクシマケン",
    "prefecture_code": 7,
    "city": "二本松市",
    "city_kana": "ニホンマツシ",
    "town": "中町",
    "town_kana": "ナカマチ",
    "street": null,
    "office_name": null,
    "office_name_kana": null
  },
  "0992": {
    "postcode": "9640992",
    "prefecture": "福島県",
    "prefecture_kana": "フクシマケン",
    "prefecture_code": 7,
    "city": "二本松市",
    "city_kana": "ニホンマツシ",
    "town": "平石三丁目",
    "town_kana": "ヒライシサンチョウメ",
    "street": null,
    "office_name": null,
    "office_name_kana": null
  },
  "0993": {
    "postcode": "9640993",
    "prefecture": "福島県",
    "prefecture_kana": "フクシマケン",
    "prefecture_code": 7,
    "city": "二本松市",
    "city_kana": "ニホンマツシ",
    "town": "田町",
    "town_kana": "タマチ",
    "street": null,
    "office_name": null,
    "office_name_kana": null
  },
  "0994": {
    "postcode": "9640994",
    "prefecture": "福島県",
    "prefecture_kana": "フクシマケン",
    "prefecture_code": 7,
    "city": "二本松市",
    "city_kana": "ニホンマツシ",
    "town": "南町",
    "town_kana": "ミナミマチ",
    "street": null,
    "office_name": null,
    "office_name_kana": null
  },
  "0995": {
    "postcode": "9640995",
    "prefecture": "福島県",
    "prefecture_kana": "フクシマケン",
    "prefecture_code": 7,
    "city": "二本松市",
    "city_kana": "ニホンマツシ",
    "town": "錦町",
    "town_kana": "ニシキチョウ",
    "street": null,
    "office_name": null,
    "office_name_kana": null
  },
  "0996": {
    "postcode": "9640996",
    "prefecture": "福島県",
    "prefecture_kana": "フクシマケン",
    "prefecture_code": 7,
    "city": "二本松市",
    "city_kana": "ニホンマツシ",
    "town": "大町",
    "town_kana": "オオマチ",
    "street": null,
    "office_name": null,
    "office_name_kana": null
  },
  "0997": {
    "postcode": "9640997",
    "prefecture": "福島県",
    "prefecture_kana": "フクシマケン",
    "prefecture_code": 7,
    "city": "二本松市",
    "city_kana": "ニホンマツシ",
    "town": "江口",
    "town_kana": "エグチ",
    "street": null,
    "office_name": null,
    "office_name_kana": null
  },
  "8501": {
    "postcode": "9648501",
    "prefecture": "福島県",
    "prefecture_kana": "フクシマケン",
    "prefecture_code": 7,
    "city": "二本松市",
    "city_kana": "ニホンマツシ",
    "town": "成田町",
    "town_kana": "ナリタマチ",
    "street": "１丁目５５３",
    "office_name": "社会保険福島二本松病院",
    "office_name_kana": "シヤカイホケンフクシマニホンマツビヨウイン"
  },
  "8558": {
    "postcode": "9648558",
    "prefecture": "福島県",
    "prefecture_kana": "フクシマケン",
    "prefecture_code": 7,
    "city": "二本松市",
    "city_kana": "ニホンマツシ",
    "town": "永田",
    "town_kana": "ナガタ",
    "street": "字長坂４−２",
    "office_name": "独立行政法人　国際協力機構　二本松青年海外協力隊訓練所",
    "office_name_kana": "ドクリツギヨウセイホウジン コクサイキヨウリヨクキコウ ニホンマツセイネンカイガイキヨウリヨクタイクンレンジヨ"
  },
  "8567": {
    "postcode": "9648567",
    "prefecture": "福島県",
    "prefecture_kana": "フクシマケン",
    "prefecture_code": 7,
    "city": "二本松市",
    "city_kana": "ニホンマツシ",
    "town": "本町",
    "town_kana": "モトマチ",
    "street": "１丁目１０３",
    "office_name": "医療法人　辰星会　枡病院",
    "office_name_kana": "イリヨウホウジン シンセイカイ マスビヨウイン"
  },
  "8577": {
    "postcode": "9648577",
    "prefecture": "福島県",
    "prefecture_kana": "フクシマケン",
    "prefecture_code": 7,
    "city": "二本松市",
    "city_kana": "ニホンマツシ",
    "town": "本町",
    "town_kana": "モトマチ",
    "street": "１丁目６０−１",
    "office_name": "二本松商工会議所",
    "office_name_kana": "ニホンマツシヨウコウカイギシヨ"
  },
  "8601": {
    "postcode": "9648601",
    "prefecture": "福島県",
    "prefecture_kana": "フクシマケン",
    "prefecture_code": 7,
    "city": "二本松市",
    "city_kana": "ニホンマツシ",
    "town": "金色",
    "town_kana": "カナイロ",
    "street": "４０３−１（二本松郵便局私書箱第１１号）",
    "office_name": "二本松市役所",
    "office_name_kana": "ニホンマツシヤクシヨ"
  }
}