{
  "0000": {
    "postcode": "9670000",
    "prefecture": "福島県",
    "prefecture_kana": "フクシマケン",
    "prefecture_code": 7,
    "city": "南会津郡南会津町",
    "city_kana": "ミナミアイヅグンミナミアイヅマチ",
    "town": "",
    "town_kana": "",
    "street": null,
    "office_name": null,
    "office_name_kana": null
  },
  "0001": {
    "postcode": "9670001",
    "prefecture": "福島県",
    "prefecture_kana": "フクシマケン",
    "prefecture_code": 7,
    "city": "南会津郡南会津町",
    "city_kana": "ミナミアイヅグンミナミアイヅマチ",
    "town": "長野",
    "town_kana": "ナガノ",
    "street": null,
    "office_name": null,
    "office_name_kana": null
  },
  "0002": {
    "postcode": "9670002",
    "prefecture": "福島県",
    "prefecture_kana": "フクシマケン",
    "prefecture_code": 7,
    "city": "南会津郡南会津町",
    "city_kana": "ミナミアイヅグンミナミアイヅマチ",
    "town": "田部",
    "town_kana": "タベ",
    "street": null,
    "office_name": null,
    "office_name_kana": null
  },
  "0003": {
    "postcode": "9670003",
    "prefecture": "福島県",
    "prefecture_kana": "フクシマケン",
    "prefecture_code": 7,
    "city": "南会津郡南会津町",
    "city_kana": "ミナミアイヅグンミナミアイヅマチ",
    "town": "水無",
    "town_kana": "ミズナシ",
    "street": null,
    "office_name": null,
    "office_name_kana": null
  },
  "0004": {
    "postcode": "9670004",
    "prefecture": "福島県",
    "prefecture_kana": "フクシマケン",
    "prefecture_code": 7,
    "city": "南会津郡南会津町",
    "city_kana": "ミナミアイヅグンミナミアイヅマチ",
    "town": "田島",
    "town_kana": "タジマ",
    "street": null,
    "office_name": null,
    "office_name_kana": null
  },
  "0005": {
    "postcode": "9670005",
    "prefecture": "福島県",
    "prefecture_kana": "フクシマケン",
    "prefecture_code": 7,
    "city": "南会津郡南会津町",
    "city_kana": "ミナミアイヅグンミナミアイヅマチ",
    "town": "中荒井",
    "town_kana": "ナカアライ",
    "street": null,
    "office_name": null,
    "office_name_kana": null
  },
  "0006": {
    "postcode": "9670006",
    "prefecture": "福島県",
    "prefecture_kana": "フクシマケン",
    "prefecture_code": 7,
    "city": "南会津郡南会津町",
    "city_kana": "ミナミアイヅグンミナミアイヅマチ",
    "town": "永田",
    "town_kana": "ナガタ",
    "street": null,
    "office_name": null,
    "office_name_kana": null
  },
  "0007": {
    "postcode": "9670007",
    "prefecture": "福島県",
    "prefecture_kana": "フクシマケン",
    "prefecture_code": 7,
    "city": "南会津郡南会津町",
    "city_kana": "ミナミアイヅグンミナミアイヅマチ",
    "town": "丹藤",
    "town_kana": "タンドウ",
    "street": null,
    "office_name": null,
    "office_name_kana": null
  },
  "0011": {
    "postcode": "9670011",
    "prefecture": "福島県",
    "prefecture_kana": "フクシマケン",
    "prefecture_code": 7,
    "city": "南会津郡南会津町",
    "city_kana": "ミナミアイヅグンミナミアイヅマチ",
    "town": "栗生沢",
    "town_kana": "クリュウザワ",
    "street": null,
    "office_name": null,
    "office_name_kana": null
  },
  "0012": {
    "postcode": "9670012",
    "prefecture": "福島県",
    "prefecture_kana": "フクシマケン",
    "prefecture_code": 7,
    "city": "南会津郡南会津町",
    "city_kana": "ミナミアイヅグンミナミアイヅマチ",
    "town": "川島",
    "town_kana": "カワシマ",
    "street": null,
    "office_name": null,
    "office_name_kana": null
  },
  "0013": {
    "postcode": "9670013",
    "prefecture": "福島県",
    "prefecture_kana": "フクシマケン",
    "prefecture_code": 7,
    "city": "南会津郡南会津町",
    "city_kana": "ミナミアイヅグンミナミアイヅマチ",
    "town": "関本",
    "town_kana": "セキモト",
    "street": null,
    "office_name": null,
    "office_name_kana": null
  },
  "0014": {
    "postcode": "9670014",
    "prefecture": "福島県",
    "prefecture_kana": "フクシマケン",
    "prefecture_code": 7,
    "city": "南会津郡南会津町",
    "city_kana": "ミナミアイヅグンミナミアイヅマチ",
    "town": "糸沢",
    "town_kana": "イトザワ",
    "street": null,
    "office_name": null,
    "office_name_kana": null
  },
  "0015": {
    "postcode": "9670015",
    "prefecture": "福島県",
    "prefecture_kana": "フクシマケン",
    "prefecture_code": 7,
    "city": "南会津郡南会津町",
    "city_kana": "ミナミアイヅグンミナミアイヅマチ",
    "town": "滝原",
    "town_kana": "タキノハラ",
    "street": null,
    "office_name": null,
    "office_name_kana": null
  },
  "0016": {
    "postcode": "9670016",
    "prefecture": "福島県",
    "prefecture_kana": "フクシマケン",
    "prefecture_code": 7,
    "city": "南会津郡南会津町",
    "city_kana": "ミナミアイヅグンミナミアイヅマチ",
    "town": "藤生",
    "town_kana": "トウニュウ",
    "street": null,
    "office_name": null,
    "office_name_kana": null
  },
  "0021": {
    "postcode": "9670021",
    "prefecture": "福島県",
    "prefecture_kana": "フクシマケン",
    "prefecture_code": 7,
    "city": "南会津郡南会津町",
    "city_kana": "ミナミアイヅグンミナミアイヅマチ",
    "town": "高野",
    "town_kana": "コウヤ",
    "street": null,
    "office_name": null,
    "office_name_kana": null
  },
  "0022": {
    "postcode": "9670022",
    "prefecture": "福島県",
    "prefecture_kana": "フクシマケン",
    "prefecture_code": 7,
    "city": "南会津郡南会津町",
    "city_kana": "ミナミアイヅグンミナミアイヅマチ",
    "town": "塩江",
    "town_kana": "シオエ",
    "street": null,
    "office_name": null,
    "office_name_kana": null
  },
  "0023": {
    "postcode": "9670023",
    "prefecture": "福島県",
    "prefecture_kana": "フクシマケン",
    "prefecture_code": 7,
    "city": "南会津郡南会津町",
    "city_kana": "ミナミアイヅグンミナミアイヅマチ",
    "town": "福米沢",
    "town_kana": "フクメザワ",
    "street": null,
    "office_name": null,
    "office_name_kana": null
  },
  "0024": {
    "postcode": "9670024",
    "prefecture": "福島県",
    "prefecture_kana": "フクシマケン",
    "prefecture_code": 7,
    "city": "南会津郡南会津町",
    "city_kana": "ミナミアイヅグンミナミアイヅマチ",
    "town": "金井沢",
    "town_kana": "カナイザワ",
    "street": null,
    "office_name": null,
    "office_name_kana": null
  },
  "0025": {
    "postcode": "9670025",
    "prefecture": "福島県",
    "prefecture_kana": "フクシマケン",
    "prefecture_code": 7,
    "city": "南会津郡南会津町",
    "city_kana": "ミナミアイヅグンミナミアイヅマチ",
    "town": "静川",
    "town_kana": "シズカワ",
    "street": null,
    "office_name": null,
    "office_name_kana": null
  },
  "0026": {
    "postcode": "9670026",
    "prefecture": "福島県",
    "prefecture_kana": "フクシマケン",
    "prefecture_code": 7,
    "city": "南会津郡南会津町",
    "city_kana": "ミナミアイヅグンミナミアイヅマチ",
    "town": "針生",
    "town_kana": "ハリュウ",
    "street": null,
    "office_name": null,
    "office_name_kana": null
  },
  "0301": {
    "postcode": "9670301",
    "prefecture": "福島県",
    "prefecture_kana": "フクシマケン",
    "prefecture_code": 7,
    "city": "南会津郡南会津町",
    "city_kana": "ミナミアイヅグンミナミアイヅマチ",
    "town": "たのせ",
    "town_kana": "タノセ",
    "street": null,
    "office_name": null,
    "office_name_kana": null
  },
  "0302": {
    "postcode": "9670302",
    "prefecture": "福島県",
    "prefecture_kana": "フクシマケン",
    "prefecture_code": 7,
    "city": "南会津郡南会津町",
    "city_kana": "ミナミアイヅグンミナミアイヅマチ",
    "town": "塩ノ原",
    "town_kana": "シオノハラ",
    "street": null,
    "office_name": null,
    "office_name_kana": null
  },
  "0303": {
    "postcode": "9670303",
    "prefecture": "福島県",
    "prefecture_kana": "フクシマケン",
    "prefecture_code": 7,
    "city": "南会津郡南会津町",
    "city_kana": "ミナミアイヅグンミナミアイヅマチ",
    "town": "福渡",
    "town_kana": "フクワタ",
    "street": null,
    "office_name": null,
    "office_name_kana": null
  },
  "0304": {
    "postcode": "9670304",
    "prefecture": "福島県",
    "prefecture_kana": "フクシマケン",
    "prefecture_code": 7,
    "city": "南会津郡南会津町",
    "city_kana": "ミナミアイヅグンミナミアイヅマチ",
    "town": "松戸原",
    "town_kana": "マツトハラ",
    "street": null,
    "office_name": null,
    "office_name_kana": null
  },
  "0305": {
    "postcode": "9670305",
    "prefecture": "福島県",
    "prefecture_kana": "フクシマケン",
    "prefecture_code": 7,
    "city": "南会津郡南会津町",
    "city_kana": "ミナミアイヅグンミナミアイヅマチ",
    "town": "戸中",
    "town_kana": "トチュウ",
    "street": null,
    "office_name": null,
    "office_name_kana": null
  },
  "0306": {
    "postcode": "9670306",
    "prefecture": "福島県",
    "prefecture_kana": "フクシマケン",
    "prefecture_code": 7,
    "city": "南会津郡南会津町",
    "city_kana": "ミナミアイヅグンミナミアイヅマチ",
    "town": "前沢",
    "town_kana": "マエザワ",
    "street": null,
    "office_name": null,
    "office_name_kana": null
  },
  "0307": {
    "postcode": "9670307",
    "prefecture": "福島県",
    "prefecture_kana": "フクシマケン",
    "prefecture_code": 7,
    "city": "南会津郡南会津町",
    "city_kana": "ミナミアイヅグンミナミアイヅマチ",
    "town": "水石",
    "town_kana": "スイシ",
    "street": null,
    "office_name": null,
    "office_name_kana": null
  },
  "0311": {
    "postcode": "9670311",
    "prefecture": "福島県",
    "prefecture_kana": "フクシマケン",
    "prefecture_code": 7,
    "city": "南会津郡南会津町",
    "city_kana": "ミナミアイヅグンミナミアイヅマチ",
    "town": "新田原",
    "town_kana": "シンデンハラ",
    "street": null,
    "office_name": null,
    "office_name_kana": null
  },
  "0312": {
    "postcode": "9670312",
    "prefecture": "福島県",
    "prefecture_kana": "フクシマケン",
    "prefecture_code": 7,
    "city": "南会津郡南会津町",
    "city_kana": "ミナミアイヅグンミナミアイヅマチ",
    "town": "熨斗戸",
    "town_kana": "ノシト",
    "street": null,
    "office_name": null,
    "office_name_kana": null
  },
  "0313": {
    "postcode": "9670313",
    "prefecture": "福島県",
    "prefecture_kana": "フクシマケン",
    "prefecture_code": 7,
    "city": "南会津郡南会津町",
    "city_kana": "ミナミアイヅグンミナミアイヅマチ",
    "town": "森戸",
    "town_kana": "モリト",
    "street": null,
    "office_name": null,
    "office_name_kana": null
  },
  "0314": {
    "postcode": "9670314",
    "prefecture": "福島県",
    "prefecture_kana": "フクシマケン",
    "prefecture_code": 7,
    "city": "南会津郡南会津町",
    "city_kana": "ミナミアイヅグンミナミアイヅマチ",
    "town": "八総",
    "town_kana": "ヤソウ",
    "street": null,
    "office_name": null,
    "office_name_kana": null
  },
  "0315": {
    "postcode": "9670315",
    "prefecture": "福島県",
    "prefecture_kana": "フクシマケン",
    "prefecture_code": 7,
    "city": "南会津郡南会津町",
    "city_kana": "ミナミアイヅグンミナミアイヅマチ",
    "town": "高杖原",
    "town_kana": "タカツエハラ",
    "street": null,
    "office_name": null,
    "office_name_kana": null
  },
  "0317": {
    "postcode": "9670317",
    "prefecture": "福島県",
    "prefecture_kana": "フクシマケン",
    "prefecture_code": 7,
    "city": "南会津郡南会津町",
    "city_kana": "ミナミアイヅグンミナミアイヅマチ",
    "town": "伊与戸",
    "town_kana": "イヨト",
    "street": null,
    "office_name": null,
    "office_name_kana": null
  },
  "0318": {
    "postcode": "9670318",
    "prefecture": "福島県",
    "prefecture_kana": "フクシマケン",
    "prefecture_code": 7,
    "city": "南会津郡南会津町",
    "city_kana": "ミナミアイヅグンミナミアイヅマチ",
    "town": "八木ノ沢",
    "town_kana": "ヤギノサワ",
    "street": null,
    "office_name": null,
    "office_name_kana": null
  },
  "0319": {
    "postcode": "9670319",
    "prefecture": "福島県",
    "prefecture_kana": "フクシマケン",
    "prefecture_code": 7,
    "city": "南会津郡南会津町",
    "city_kana": "ミナミアイヅグンミナミアイヅマチ",
    "town": "大久保",
    "town_kana": "オオクボ",
    "street": null,
    "office_name": null,
    "office_name_kana": null
  },
  "0321": {
    "postcode": "9670321",
    "prefecture": "福島県",
    "prefecture_kana": "フクシマケン",
    "prefecture_code": 7,
    "city": "南会津郡南会津町",
    "city_kana": "ミナミアイヅグンミナミアイヅマチ",
    "town": "井桁",
    "town_kana": "イゲタ",
    "street": null,
    "office_name": null,
    "office_name_kana": null
  },
  "0322": {
    "postcode": "9670322",
    "prefecture": "福島県",
    "prefecture_kana": "フクシマケン",
    "prefecture_code": 7,
    "city": "南会津郡南会津町",
    "city_kana": "ミナミアイヅグンミナミアイヅマチ",
    "town": "精舎",
    "town_kana": "ショウジャ",
    "street": null,
    "office_name": null,
    "office_name_kana": null
  },
  "0323": {
    "postcode": "9670323",
    "prefecture": "福島県",
    "prefecture_kana": "フクシマケン",
    "prefecture_code": 7,
    "city": "南会津郡南会津町",
    "city_kana": "ミナミアイヅグンミナミアイヅマチ",
    "town": "岩下",
    "town_kana": "イワシタ",
    "street": null,
    "office_name": null,
    "office_name_kana": null
  },
  "0324": {
    "postcode": "9670324",
    "prefecture": "福島県",
    "prefecture_kana": "フクシマケン",
    "prefecture_code": 7,
    "city": "南会津郡南会津町",
    "city_kana": "ミナミアイヅグンミナミアイヅマチ",
    "town": "番屋",
    "town_kana": "バンヤ",
    "street": null,
    "office_name": null,
    "office_name_kana": null
  },
  "0331": {
    "postcode": "9670331",
    "prefecture": "福島県",
    "prefecture_kana": "フクシマケン",
    "prefecture_code": 7,
    "city": "南会津郡南会津町",
    "city_kana": "ミナミアイヅグンミナミアイヅマチ",
    "town": "押戸",
    "town_kana": "オシド",
    "street": null,
    "office_name": null,
    "office_name_kana": null
  },
  "0332": {
    "postcode": "9670332",
    "prefecture": "福島県",
    "prefecture_kana": "フクシマケン",
    "prefecture_code": 7,
    "city": "南会津郡南会津町",
    "city_kana": "ミナミアイヅグンミナミアイヅマチ",
    "town": "角生",
    "town_kana": "ツノウ",
    "street": null,
    "office_name": null,
    "office_name_kana": null
  },
  "0333": {
    "postcode": "9670333",
    "prefecture": "福島県",
    "prefecture_kana": "フクシマケン",
    "prefecture_code": 7,
    "city": "南会津郡南会津町",
    "city_kana": "ミナミアイヅグンミナミアイヅマチ",
    "town": "湯ノ花",
    "town_kana": "ユノハナ",
    "street": null,
    "office_name": null,
    "office_name_kana": null
  },
  "0334": {
    "postcode": "9670334",
    "prefecture": "福島県",
    "prefecture_kana": "フクシマケン",
    "prefecture_code": 7,
    "city": "南会津郡南会津町",
    "city_kana": "ミナミアイヅグンミナミアイヅマチ",
    "town": "水引",
    "town_kana": "ミズヒキ",
    "street": null,
    "office_name": null,
    "office_name_kana": null
  },
  "0335": {
    "postcode": "9670335",
    "prefecture": "福島県",
    "prefecture_kana": "フクシマケン",
    "prefecture_code": 7,
    "city": "南会津郡南会津町",
    "city_kana": "ミナミアイヅグンミナミアイヅマチ",
    "town": "貝原",
    "town_kana": "カイバラ",
    "street": null,
    "office_name": null,
    "office_name_kana": null
  },
  "0336": {
    "postcode": "9670336",
    "prefecture": "福島県",
    "prefecture_kana": "フクシマケン",
    "prefecture_code": 7,
    "city": "南会津郡南会津町",
    "city_kana": "ミナミアイヅグンミナミアイヅマチ",
    "town": "吉高",
    "town_kana": "ヨシタカ",
    "street": null,
    "office_name": null,
    "office_name_kana": null
  },
  "0341": {
    "postcode": "9670341",
    "prefecture": "福島県",
    "prefecture_kana": "フクシマケン",
    "prefecture_code": 7,
    "city": "南会津郡南会津町",
    "city_kana": "ミナミアイヅグンミナミアイヅマチ",
    "town": "穴原",
    "town_kana": "アナバラ",
    "street": null,
    "office_name": null,
    "office_name_kana": null
  },
  "0342": {
    "postcode": "9670342",
    "prefecture": "福島県",
    "prefecture_kana": "フクシマケン",
    "prefecture_code": 7,
    "city": "南会津郡南会津町",
    "city_kana": "ミナミアイヅグンミナミアイヅマチ",
    "town": "助木生",
    "town_kana": "スケギュウ",
    "street": null,
    "office_name": null,
    "office_name_kana": null
  },
  "0343": {
    "postcode": "9670343",
    "prefecture": "福島県",
    "prefecture_kana": "フクシマケン",
    "prefecture_code": 7,
    "city": "南会津郡南会津町",
    "city_kana": "ミナミアイヅグンミナミアイヅマチ",
    "town": "小高林",
    "town_kana": "コタカバヤシ",
    "street": null,
    "office_name": null,
    "office_name_kana": null
  },
  "0344": {
    "postcode": "9670344",
    "prefecture": "福島県",
    "prefecture_kana": "フクシマケン",
    "prefecture_code": 7,
    "city": "南会津郡南会津町",
    "city_kana": "ミナミアイヅグンミナミアイヅマチ",
    "town": "上ノ原",
    "town_kana": "カミノハラ",
    "street": null,
    "office_name": null,
    "office_name_kana": null
  },
  "0345": {
    "postcode": "9670345",
    "prefecture": "福島県",
    "prefecture_kana": "フクシマケン",
    "prefecture_code": 7,
    "city": "南会津郡南会津町",
    "city_kana": "ミナミアイヅグンミナミアイヅマチ",
    "town": "木賊",
    "town_kana": "トクサ",
    "street": null,
    "office_name": null,
    "office_name_kana": null
  },
  "0346": {
    "postcode": "9670346",
    "prefecture": "福島県",
    "prefecture_kana": "フクシマケン",
    "prefecture_code": 7,
    "city": "南会津郡南会津町",
    "city_kana": "ミナミアイヅグンミナミアイヅマチ",
    "town": "川衣",
    "town_kana": "カワギヌ",
    "street": null,
    "office_name": null,
    "office_name_kana": null
  },
  "0347": {
    "postcode": "9670347",
    "prefecture": "福島県",
    "prefecture_kana": "フクシマケン",
    "prefecture_code": 7,
    "city": "南会津郡南会津町",
    "city_kana": "ミナミアイヅグンミナミアイヅマチ",
    "town": "宮里",
    "town_kana": "ミヤザト",
    "street": null,
    "office_name": null,
    "office_name_kana": null
  },
  "0500": {
    "postcode": "9670500",
    "prefecture": "福島県",
    "prefecture_kana": "フクシマケン",
    "prefecture_code": 7,
    "city": "南会津郡檜枝岐村",
    "city_kana": "ミナミアイヅグンヒノエマタムラ",
    "town": "",
    "town_kana": "",
    "street": null,
    "office_name": null,
    "office_name_kana": null
  },
  "0501": {
    "postcode": "9670501",
    "prefecture": "福島県",
    "prefecture_kana": "フクシマケン",
    "prefecture_code": 7,
    "city": "南会津郡南会津町",
    "city_kana": "ミナミアイヅグンミナミアイヅマチ",
    "town": "古町",
    "town_kana": "フルマチ",
    "street": null,
    "office_name": null,
    "office_name_kana": null
  },
  "0502": {
    "postcode": "9670502",
    "prefecture": "福島県",
    "prefecture_kana": "フクシマケン",
    "prefecture_code": 7,
    "city": "南会津郡南会津町",
    "city_kana": "ミナミアイヅグンミナミアイヅマチ",
    "town": "多々石",
    "town_kana": "タダイシ",
    "street": null,
    "office_name": null,
    "office_name_kana": null
  },
  "0503": {
    "postcode": "9670503",
    "prefecture": "福島県",
    "prefecture_kana": "フクシマケン",
    "prefecture_code": 7,
    "city": "南会津郡南会津町",
    "city_kana": "ミナミアイヅグンミナミアイヅマチ",
    "town": "白沢",
    "town_kana": "シラサワ",
    "street": null,
    "office_name": null,
    "office_name_kana": null
  },
  "0504": {
    "postcode": "9670504",
    "prefecture": "福島県",
    "prefecture_kana": "フクシマケン",
    "prefecture_code": 7,
    "city": "南会津郡南会津町",
    "city_kana": "ミナミアイヅグンミナミアイヅマチ",
    "town": "浜野",
    "town_kana": "ハマノ",
    "street": null,
    "office_name": null,
    "office_name_kana": null
  },
  "0505": {
    "postcode": "9670505",
    "prefecture": "福島県",
    "prefecture_kana": "フクシマケン",
    "prefecture_code": 7,
    "city": "南会津郡南会津町",
    "city_kana": "ミナミアイヅグンミナミアイヅマチ",
    "town": "宮沢",
    "town_kana": "ミヤザワ",
    "street": null,
    "office_name": null,
    "office_name_kana": null
  },
  "0506": {
    "postcode": "9670506",
    "prefecture": "福島県",
    "prefecture_kana": "フクシマケン",
    "prefecture_code": 7,
    "city": "南会津郡南会津町",
    "city_kana": "ミナミアイヅグンミナミアイヅマチ",
    "town": "小塩",
    "town_kana": "コシオ",
    "street": null,
    "office_name": null,
    "office_name_kana": null
  },
  "0507": {
    "postcode": "9670507",
    "prefecture": "福島県",
    "prefecture_kana": "フクシマケン",
    "prefecture_code": 7,
    "city": "南会津郡南会津町",
    "city_kana": "ミナミアイヅグンミナミアイヅマチ",
    "town": "青柳",
    "town_kana": "アオヤギ",
    "street": null,
    "office_name": null,
    "office_name_kana": null
  },
  "0511": {
    "postcode": "9670511",
    "prefecture": "福島県",
    "prefecture_kana": "フクシマケン",
    "prefecture_code": 7,
    "city": "南会津郡南会津町",
    "city_kana": "ミナミアイヅグンミナミアイヅマチ",
    "town": "内川",
    "town_kana": "ウチカワ",
    "street": null,
    "office_name": null,
    "office_name_kana": null
  },
  "0512": {
    "postcode": "9670512",
    "prefecture": "福島県",
    "prefecture_kana": "フクシマケン",
    "prefecture_code": 7,
    "city": "南会津郡南会津町",
    "city_kana": "ミナミアイヅグンミナミアイヅマチ",
    "town": "耻風",
    "town_kana": "ハジカゼ",
    "street": null,
    "office_name": null,
    "office_name_kana": null
  },
  "0513": {
    "postcode": "9670513",
    "prefecture": "福島県",
    "prefecture_kana": "フクシマケン",
    "prefecture_code": 7,
    "city": "南会津郡南会津町",
    "city_kana": "ミナミアイヅグンミナミアイヅマチ",
    "town": "大原",
    "town_kana": "オオハラ",
    "street": null,
    "office_name": null,
    "office_name_kana": null
  },
  "0514": {
    "postcode": "9670514",
    "prefecture": "福島県",
    "prefecture_kana": "フクシマケン",
    "prefecture_code": 7,
    "city": "南会津郡南会津町",
    "city_kana": "ミナミアイヅグンミナミアイヅマチ",
    "town": "小立岩",
    "town_kana": "コダテイワ",
    "street": null,
    "office_name": null,
    "office_name_kana": null
  },
  "0515": {
    "postcode": "9670515",
    "prefecture": "福島県",
    "prefecture_kana": "フクシマケン",
    "prefecture_code": 7,
    "city": "南会津郡南会津町",
    "city_kana": "ミナミアイヅグンミナミアイヅマチ",
    "town": "大桃",
    "town_kana": "オオモモ",
    "street": null,
    "office_name": null,
    "office_name_kana": null
  },
  "0521": {
    "postcode": "9670521",
    "prefecture": "福島県",
    "prefecture_kana": "フクシマケン",
    "prefecture_code": 7,
    "city": "南会津郡檜枝岐村",
    "city_kana": "ミナミアイヅグンヒノエマタムラ",
    "town": "居平",
    "town_kana": "イダイラ",
    "street": null,
    "office_name": null,
    "office_name_kana": null
  },
  "0522": {
    "postcode": "9670522",
    "prefecture": "福島県",
    "prefecture_kana": "フクシマケン",
    "prefecture_code": 7,
    "city": "南会津郡檜枝岐村",
    "city_kana": "ミナミアイヅグンヒノエマタムラ",
    "town": "上ノ原",
    "town_kana": "カミノハラ",
    "street": null,
    "office_name": null,
    "office_name_kana": null
  },
  "0523": {
    "postcode": "9670523",
    "prefecture": "福島県",
    "prefecture_kana": "フクシマケン",
    "prefecture_code": 7,
    "city": "南会津郡檜枝岐村",
    "city_kana": "ミナミアイヅグンヒノエマタムラ",
    "town": "下ノ台",
    "town_kana": "シタノダイ",
    "street": null,
    "office_name": null,
    "office_name_kana": null
  },
  "0524": {
    "postcode": "9670524",
    "prefecture": "福島県",
    "prefecture_kana": "フクシマケン",
    "prefecture_code": 7,
    "city": "南会津郡檜枝岐村",
    "city_kana": "ミナミアイヅグンヒノエマタムラ",
    "town": "上ノ台",
    "town_kana": "ウエノダイ",
    "street": null,
    "office_name": null,
    "office_name_kana": null
  },
  "0525": {
    "postcode": "9670525",
    "prefecture": "福島県",
    "prefecture_kana": "フクシマケン",
    "prefecture_code": 7,
    "city": "南会津郡檜枝岐村",
    "city_kana": "ミナミアイヅグンヒノエマタムラ",
    "town": "下ノ原",
    "town_kana": "シモノハラ",
    "street": null,
    "office_name": null,
    "office_name_kana": null
  },
  "0526": {
    "postcode": "9670526",
    "prefecture": "福島県",
    "prefecture_kana": "フクシマケン",
    "prefecture_code": 7,
    "city": "南会津郡檜枝岐村",
    "city_kana": "ミナミアイヅグンヒノエマタムラ",
    "town": "滝沢",
    "town_kana": "タキザワ",
    "street": null,
    "office_name": null,
    "office_name_kana": null
  },
  "0527": {
    "postcode": "9670527",
    "prefecture": "福島県",
    "prefecture_kana": "フクシマケン",
    "prefecture_code": 7,
    "city": "南会津郡檜枝岐村",
    "city_kana": "ミナミアイヅグンヒノエマタムラ",
    "town": "見通",
    "town_kana": "ミヅウリ",
    "street": null,
    "office_name": null,
    "office_name_kana": null
  },
  "0528": {
    "postcode": "9670528",
    "prefecture": "福島県",
    "prefecture_kana": "フクシマケン",
    "prefecture_code": 7,
    "city": "南会津郡檜枝岐村",
    "city_kana": "ミナミアイヅグンヒノエマタムラ",
    "town": "葭ケ平",
    "town_kana": "ヨシガタイラ",
    "street": null,
    "office_name": null,
    "office_name_kana": null
  },
  "0531": {
    "postcode": "9670531",
    "prefecture": "福島県",
    "prefecture_kana": "フクシマケン",
    "prefecture_code": 7,
    "city": "南会津郡檜枝岐村",
    "city_kana": "ミナミアイヅグンヒノエマタムラ",
    "town": "燧ケ岳",
    "town_kana": "ヒウチガタケ",
    "street": null,
    "office_name": null,
    "office_name_kana": null
  },
  "0532": {
    "postcode": "9670532",
    "prefecture": "福島県",
    "prefecture_kana": "フクシマケン",
    "prefecture_code": 7,
    "city": "南会津郡檜枝岐村",
    "city_kana": "ミナミアイヅグンヒノエマタムラ",
    "town": "尾瀬沼",
    "town_kana": "オゼヌマ",
    "street": null,
    "office_name": null,
    "office_name_kana": null
  },
  "0601": {
    "postcode": "9670601",
    "prefecture": "福島県",
    "prefecture_kana": "フクシマケン",
    "prefecture_code": 7,
    "city": "南会津郡南会津町",
    "city_kana": "ミナミアイヅグンミナミアイヅマチ",
    "town": "木伏",
    "town_kana": "キブシ",
    "street": null,
    "office_name": null,
    "office_name_kana": null
  },
  "0602": {
    "postcode": "9670602",
    "prefecture": "福島県",
    "prefecture_kana": "フクシマケン",
    "prefecture_code": 7,
    "city": "南会津郡南会津町",
    "city_kana": "ミナミアイヅグンミナミアイヅマチ",
    "town": "水根沢",
    "town_kana": "ミズネサワ",
    "street": null,
    "office_name": null,
    "office_name_kana": null
  },
  "0603": {
    "postcode": "9670603",
    "prefecture": "福島県",
    "prefecture_kana": "フクシマケン",
    "prefecture_code": 7,
    "city": "南会津郡南会津町",
    "city_kana": "ミナミアイヅグンミナミアイヅマチ",
    "town": "大新田",
    "town_kana": "オオニタ",
    "street": null,
    "office_name": null,
    "office_name_kana": null
  },
  "0604": {
    "postcode": "9670604",
    "prefecture": "福島県",
    "prefecture_kana": "フクシマケン",
    "prefecture_code": 7,
    "city": "南会津郡南会津町",
    "city_kana": "ミナミアイヅグンミナミアイヅマチ",
    "town": "大橋",
    "town_kana": "オオハシ",
    "street": null,
    "office_name": null,
    "office_name_kana": null
  },
  "0605": {
    "postcode": "9670605",
    "prefecture": "福島県",
    "prefecture_kana": "フクシマケン",
    "prefecture_code": 7,
    "city": "南会津郡南会津町",
    "city_kana": "ミナミアイヅグンミナミアイヅマチ",
    "town": "東",
    "town_kana": "アズマ",
    "street": null,
    "office_name": null,
    "office_name_kana": null
  },
  "0611": {
    "postcode": "9670611",
    "prefecture": "福島県",
    "prefecture_kana": "フクシマケン",
    "prefecture_code": 7,
    "city": "南会津郡南会津町",
    "city_kana": "ミナミアイヅグンミナミアイヅマチ",
    "town": "山口",
    "town_kana": "ヤマグチ",
    "street": null,
    "office_name": null,
    "office_name_kana": null
  },
  "0621": {
    "postcode": "9670621",
    "prefecture": "福島県",
    "prefecture_kana": "フクシマケン",
    "prefecture_code": 7,
    "city": "南会津郡南会津町",
    "city_kana": "ミナミアイヅグンミナミアイヅマチ",
    "town": "鴇巣",
    "town_kana": "トウノス",
    "street": null,
    "office_name": null,
    "office_name_kana": null
  },
  "0622": {
    "postcode": "9670622",
    "prefecture": "福島県",
    "prefecture_kana": "フクシマケン",
    "prefecture_code": 7,
    "city": "南会津郡南会津町",
    "city_kana": "ミナミアイヅグンミナミアイヅマチ",
    "town": "宮床",
    "town_kana": "ミヤトコ",
    "street": null,
    "office_name": null,
    "office_name_kana": null
  },
  "0631": {
    "postcode": "9670631",
    "prefecture": "福島県",
    "prefecture_kana": "フクシマケン",
    "prefecture_code": 7,
    "city": "南会津郡南会津町",
    "city_kana": "ミナミアイヅグンミナミアイヅマチ",
    "town": "界",
    "town_kana": "サカイ",
    "street": null,
    "office_name": null,
    "office_name_kana": null
  },
  "0632": {
    "postcode": "9670632",
    "prefecture": "福島県",
    "prefecture_kana": "フクシマケン",
    "prefecture_code": 7,
    "city": "南会津郡南会津町",
    "city_kana": "ミナミアイヅグンミナミアイヅマチ",
    "town": "片貝",
    "town_kana": "カタカイ",
    "street": null,
    "office_name": null,
    "office_name_kana": null
  },
  "0633": {
    "postcode": "9670633",
    "prefecture": "福島県",
    "prefecture_kana": "フクシマケン",
    "prefecture_code": 7,
    "city": "南会津郡南会津町",
    "city_kana": "ミナミアイヅグンミナミアイヅマチ",
    "town": "富山",
    "town_kana": "トミヤマ",
    "street": null,
    "office_name": null,
    "office_name_kana": null
  },
  "0634": {
    "postcode": "9670634",
    "prefecture": "福島県",
    "prefecture_kana": "フクシマケン",
    "prefecture_code": 7,
    "city": "南会津郡南会津町",
    "city_kana": "ミナミアイヅグンミナミアイヅマチ",
    "town": "下山",
    "town_kana": "シモヤマ",
    "street": null,
    "office_name": null,
    "office_name_kana": null
  },
  "0641": {
    "postcode": "9670641",
    "prefecture": "福島県",
    "prefecture_kana": "フクシマケン",
    "prefecture_code": 7,
    "city": "南会津郡南会津町",
    "city_kana": "ミナミアイヅグンミナミアイヅマチ",
    "town": "和泉田",
    "town_kana": "イズミタ",
    "street": null,
    "office_name": null,
    "office_name_kana": null
  },
  "0642": {
    "postcode": "9670642",
    "prefecture": "福島県",
    "prefecture_kana": "フクシマケン",
    "prefecture_code": 7,
    "city": "南会津郡南会津町",
    "city_kana": "ミナミアイヅグンミナミアイヅマチ",
    "town": "小野島",
    "town_kana": "オノシマ",
    "street": null,
    "office_name": null,
    "office_name_kana": null
  },
  "0692": {
    "postcode": "9670692",
    "prefecture": "福島県",
    "prefecture_kana": "フクシマケン",
    "prefecture_code": 7,
    "city": "南会津郡南会津町",
    "city_kana": "ミナミアイヅグンミナミアイヅマチ",
    "town": "山口",
    "town_kana": "ヤマグチ",
    "street": "字村上８６７",
    "office_name": "会津森林管理署南会津支署",
    "office_name_kana": "アイヅシンリンカンリシヨミナミアイヅシシヨ"
  },
  "8501": {
    "postcode": "9678501",
    "prefecture": "福島県",
    "prefecture_kana": "フクシマケン",
    "prefecture_code": 7,
    "city": "南会津郡南会津町",
    "city_kana": "ミナミアイヅグンミナミアイヅマチ",
    "town": "田島",
    "town_kana": "タジマ",
    "street": "字後原甲３５３１番地１",
    "office_name": "南会津町役場",
    "office_name_kana": "ミナミアイヅマチヤクバ"
  }
}