{
  "0000": {
    "postcode": "9680000",
    "prefecture": "福島県",
    "prefecture_kana": "フクシマケン",
    "prefecture_code": 7,
    "city": "大沼郡金山町",
    "city_kana": "オオヌマグンカネヤママチ",
    "town": "",
    "town_kana": "",
    "street": null,
    "office_name": null,
    "office_name_kana": null
  },
  "0001": {
    "postcode": "9680001",
    "prefecture": "福島県",
    "prefecture_kana": "フクシマケン",
    "prefecture_code": 7,
    "city": "大沼郡金山町",
    "city_kana": "オオヌマグンカネヤママチ",
    "town": "水沼",
    "town_kana": "ミズヌマ",
    "street": null,
    "office_name": null,
    "office_name_kana": null
  },
  "0002": {
    "postcode": "9680002",
    "prefecture": "福島県",
    "prefecture_kana": "フクシマケン",
    "prefecture_code": 7,
    "city": "大沼郡金山町",
    "city_kana": "オオヌマグンカネヤママチ",
    "town": "大栗山",
    "town_kana": "オオクリヤマ",
    "street": null,
    "office_name": null,
    "office_name_kana": null
  },
  "0003": {
    "postcode": "9680003",
    "prefecture": "福島県",
    "prefecture_kana": "フクシマケン",
    "prefecture_code": 7,
    "city": "大沼郡金山町",
    "city_kana": "オオヌマグンカネヤママチ",
    "town": "沼沢",
    "town_kana": "ヌマザワ",
    "street": null,
    "office_name": null,
    "office_name_kana": null
  },
  "0004": {
    "postcode": "9680004",
    "prefecture": "福島県",
    "prefecture_kana": "フクシマケン",
    "prefecture_code": 7,
    "city": "大沼郡金山町",
    "city_kana": "オオヌマグンカネヤママチ",
    "town": "太郎布",
    "town_kana": "タラブ",
    "street": null,
    "office_name": null,
    "office_name_kana": null
  },
  "0005": {
    "postcode": "9680005",
    "prefecture": "福島県",
    "prefecture_kana": "フクシマケン",
    "prefecture_code": 7,
    "city": "大沼郡金山町",
    "city_kana": "オオヌマグンカネヤママチ",
    "town": "大志",
    "town_kana": "オオシ",
    "street": null,
    "office_name": null,
    "office_name_kana": null
  },
  "0006": {
    "postcode": "9680006",
    "prefecture": "福島県",
    "prefecture_kana": "フクシマケン",
    "prefecture_code": 7,
    "city": "大沼郡金山町",
    "city_kana": "オオヌマグンカネヤママチ",
    "town": "中川",
    "town_kana": "ナカガワ",
    "street": null,
    "office_name": null,
    "office_name_kana": null
  },
  "0011": {
    "postcode": "9680011",
    "prefecture": "福島県",
    "prefecture_kana": "フクシマケン",
    "prefecture_code": 7,
    "city": "大沼郡金山町",
    "city_kana": "オオヌマグンカネヤママチ",
    "town": "川口",
    "town_kana": "カワグチ",
    "street": null,
    "office_name": null,
    "office_name_kana": null
  },
  "0012": {
    "postcode": "9680012",
    "prefecture": "福島県",
    "prefecture_kana": "フクシマケン",
    "prefecture_code": 7,
    "city": "大沼郡金山町",
    "city_kana": "オオヌマグンカネヤママチ",
    "town": "小栗山",
    "town_kana": "コグリヤマ",
    "street": null,
    "office_name": null,
    "office_name_kana": null
  },
  "0013": {
    "postcode": "9680013",
    "prefecture": "福島県",
    "prefecture_kana": "フクシマケン",
    "prefecture_code": 7,
    "city": "大沼郡金山町",
    "city_kana": "オオヌマグンカネヤママチ",
    "town": "八町",
    "town_kana": "ハチマチ",
    "street": null,
    "office_name": null,
    "office_name_kana": null
  },
  "0014": {
    "postcode": "9680014",
    "prefecture": "福島県",
    "prefecture_kana": "フクシマケン",
    "prefecture_code": 7,
    "city": "大沼郡金山町",
    "city_kana": "オオヌマグンカネヤママチ",
    "town": "玉梨",
    "town_kana": "タマナシ",
    "street": null,
    "office_name": null,
    "office_name_kana": null
  },
  "0015": {
    "postcode": "9680015",
    "prefecture": "福島県",
    "prefecture_kana": "フクシマケン",
    "prefecture_code": 7,
    "city": "大沼郡金山町",
    "city_kana": "オオヌマグンカネヤママチ",
    "town": "西谷",
    "town_kana": "ニシタニ",
    "street": null,
    "office_name": null,
    "office_name_kana": null
  },
  "0016": {
    "postcode": "9680016",
    "prefecture": "福島県",
    "prefecture_kana": "フクシマケン",
    "prefecture_code": 7,
    "city": "大沼郡金山町",
    "city_kana": "オオヌマグンカネヤママチ",
    "town": "本名",
    "town_kana": "ホンナ",
    "street": null,
    "office_name": null,
    "office_name_kana": null
  },
  "0100": {
    "postcode": "9680100",
    "prefecture": "福島県",
    "prefecture_kana": "フクシマケン",
    "prefecture_code": 7,
    "city": "大沼郡昭和村",
    "city_kana": "オオヌマグンショウワムラ",
    "town": "",
    "town_kana": "",
    "street": null,
    "office_name": null,
    "office_name_kana": null
  },
  "0101": {
    "postcode": "9680101",
    "prefecture": "福島県",
    "prefecture_kana": "フクシマケン",
    "prefecture_code": 7,
    "city": "大沼郡昭和村",
    "city_kana": "オオヌマグンショウワムラ",
    "town": "松山",
    "town_kana": "マツヤマ",
    "street": null,
    "office_name": null,
    "office_name_kana": null
  },
  "0102": {
    "postcode": "9680102",
    "prefecture": "福島県",
    "prefecture_kana": "フクシマケン",
    "prefecture_code": 7,
    "city": "大沼郡昭和村",
    "city_kana": "オオヌマグンショウワムラ",
    "town": "野尻",
    "town_kana": "ノジリ",
    "street": null,
    "office_name": null,
    "office_name_kana": null
  },
  "0103": {
    "postcode": "9680103",
    "prefecture": "福島県",
    "prefecture_kana": "フクシマケン",
    "prefecture_code": 7,
    "city": "大沼郡昭和村",
    "city_kana": "オオヌマグンショウワムラ",
    "town": "下中津川",
    "town_kana": "シモナカツカワ",
    "street": null,
    "office_name": null,
    "office_name_kana": null
  },
  "0104": {
    "postcode": "9680104",
    "prefecture": "福島県",
    "prefecture_kana": "フクシマケン",
    "prefecture_code": 7,
    "city": "大沼郡昭和村",
    "city_kana": "オオヌマグンショウワムラ",
    "town": "小中津川",
    "town_kana": "コナカツカワ",
    "street": null,
    "office_name": null,
    "office_name_kana": null
  },
  "0211": {
    "postcode": "9680211",
    "prefecture": "福島県",
    "prefecture_kana": "フクシマケン",
    "prefecture_code": 7,
    "city": "大沼郡昭和村",
    "city_kana": "オオヌマグンショウワムラ",
    "town": "小野川",
    "town_kana": "オノガワ",
    "street": null,
    "office_name": null,
    "office_name_kana": null
  },
  "0212": {
    "postcode": "9680212",
    "prefecture": "福島県",
    "prefecture_kana": "フクシマケン",
    "prefecture_code": 7,
    "city": "大沼郡昭和村",
    "city_kana": "オオヌマグンショウワムラ",
    "town": "喰丸",
    "town_kana": "クイマル",
    "street": null,
    "office_name": null,
    "office_name_kana": null
  },
  "0213": {
    "postcode": "9680213",
    "prefecture": "福島県",
    "prefecture_kana": "フクシマケン",
    "prefecture_code": 7,
    "city": "大沼郡昭和村",
    "city_kana": "オオヌマグンショウワムラ",
    "town": "両原",
    "town_kana": "リョウハラ",
    "street": null,
    "office_name": null,
    "office_name_kana": null
  },
  "0214": {
    "postcode": "9680214",
    "prefecture": "福島県",
    "prefecture_kana": "フクシマケン",
    "prefecture_code": 7,
    "city": "大沼郡昭和村",
    "city_kana": "オオヌマグンショウワムラ",
    "town": "大芦",
    "town_kana": "オオアシ",
    "street": null,
    "office_name": null,
    "office_name_kana": null
  },
  "0215": {
    "postcode": "9680215",
    "prefecture": "福島県",
    "prefecture_kana": "フクシマケン",
    "prefecture_code": 7,
    "city": "大沼郡昭和村",
    "city_kana": "オオヌマグンショウワムラ",
    "town": "佐倉",
    "town_kana": "サグラ",
    "street": null,
    "office_name": null,
    "office_name_kana": null
  },
  "0321": {
    "postcode": "9680321",
    "prefecture": "福島県",
    "prefecture_kana": "フクシマケン",
    "prefecture_code": 7,
    "city": "大沼郡金山町",
    "city_kana": "オオヌマグンカネヤママチ",
    "town": "越川",
    "town_kana": "コスガワ",
    "street": null,
    "office_name": null,
    "office_name_kana": null
  },
  "0322": {
    "postcode": "9680322",
    "prefecture": "福島県",
    "prefecture_kana": "フクシマケン",
    "prefecture_code": 7,
    "city": "大沼郡金山町",
    "city_kana": "オオヌマグンカネヤママチ",
    "town": "横田",
    "town_kana": "ヨコタ",
    "street": null,
    "office_name": null,
    "office_name_kana": null
  },
  "0323": {
    "postcode": "9680323",
    "prefecture": "福島県",
    "prefecture_kana": "フクシマケン",
    "prefecture_code": 7,
    "city": "大沼郡金山町",
    "city_kana": "オオヌマグンカネヤママチ",
    "town": "山入",
    "town_kana": "ヤマイリ",
    "street": null,
    "office_name": null,
    "office_name_kana": null
  },
  "0324": {
    "postcode": "9680324",
    "prefecture": "福島県",
    "prefecture_kana": "フクシマケン",
    "prefecture_code": 7,
    "city": "大沼郡金山町",
    "city_kana": "オオヌマグンカネヤママチ",
    "town": "田沢",
    "town_kana": "タザワ",
    "street": null,
    "office_name": null,
    "office_name_kana": null
  },
  "0325": {
    "postcode": "9680325",
    "prefecture": "福島県",
    "prefecture_kana": "フクシマケン",
    "prefecture_code": 7,
    "city": "大沼郡金山町",
    "city_kana": "オオヌマグンカネヤママチ",
    "town": "滝沢",
    "town_kana": "タキザワ",
    "street": null,
    "office_name": null,
    "office_name_kana": null
  },
  "0326": {
    "postcode": "9680326",
    "prefecture": "福島県",
    "prefecture_kana": "フクシマケン",
    "prefecture_code": 7,
    "city": "大沼郡金山町",
    "city_kana": "オオヌマグンカネヤママチ",
    "town": "大塩",
    "town_kana": "オオシオ",
    "street": null,
    "office_name": null,
    "office_name_kana": null
  },
  "0400": {
    "postcode": "9680400",
    "prefecture": "福島県",
    "prefecture_kana": "フクシマケン",
    "prefecture_code": 7,
    "city": "南会津郡只見町",
    "city_kana": "ミナミアイヅグンタダミマチ",
    "town": "",
    "town_kana": "",
    "street": null,
    "office_name": null,
    "office_name_kana": null
  },
  "0411": {
    "postcode": "9680411",
    "prefecture": "福島県",
    "prefecture_kana": "フクシマケン",
    "prefecture_code": 7,
    "city": "南会津郡只見町",
    "city_kana": "ミナミアイヅグンタダミマチ",
    "town": "塩沢",
    "town_kana": "シオザワ",
    "street": null,
    "office_name": null,
    "office_name_kana": null
  },
  "0412": {
    "postcode": "9680412",
    "prefecture": "福島県",
    "prefecture_kana": "フクシマケン",
    "prefecture_code": 7,
    "city": "南会津郡只見町",
    "city_kana": "ミナミアイヅグンタダミマチ",
    "town": "十島",
    "town_kana": "ジュウジマ",
    "street": null,
    "office_name": null,
    "office_name_kana": null
  },
  "0413": {
    "postcode": "9680413",
    "prefecture": "福島県",
    "prefecture_kana": "フクシマケン",
    "prefecture_code": 7,
    "city": "南会津郡只見町",
    "city_kana": "ミナミアイヅグンタダミマチ",
    "town": "寄岩",
    "town_kana": "ヨリイワ",
    "street": null,
    "office_name": null,
    "office_name_kana": null
  },
  "0414": {
    "postcode": "9680414",
    "prefecture": "福島県",
    "prefecture_kana": "フクシマケン",
    "prefecture_code": 7,
    "city": "南会津郡只見町",
    "city_kana": "ミナミアイヅグンタダミマチ",
    "town": "蒲生",
    "town_kana": "ガモウ",
    "street": null,
    "office_name": null,
    "office_name_kana": null
  },
  "0415": {
    "postcode": "9680415",
    "prefecture": "福島県",
    "prefecture_kana": "フクシマケン",
    "prefecture_code": 7,
    "city": "南会津郡只見町",
    "city_kana": "ミナミアイヅグンタダミマチ",
    "town": "叶津",
    "town_kana": "カノウヅ",
    "street": null,
    "office_name": null,
    "office_name_kana": null
  },
  "0421": {
    "postcode": "9680421",
    "prefecture": "福島県",
    "prefecture_kana": "フクシマケン",
    "prefecture_code": 7,
    "city": "南会津郡只見町",
    "city_kana": "ミナミアイヅグンタダミマチ",
    "town": "只見",
    "town_kana": "タダミ",
    "street": null,
    "office_name": null,
    "office_name_kana": null
  },
  "0422": {
    "postcode": "9680422",
    "prefecture": "福島県",
    "prefecture_kana": "フクシマケン",
    "prefecture_code": 7,
    "city": "南会津郡只見町",
    "city_kana": "ミナミアイヅグンタダミマチ",
    "town": "石伏",
    "town_kana": "イシブシ",
    "street": null,
    "office_name": null,
    "office_name_kana": null
  },
  "0423": {
    "postcode": "9680423",
    "prefecture": "福島県",
    "prefecture_kana": "フクシマケン",
    "prefecture_code": 7,
    "city": "南会津郡只見町",
    "city_kana": "ミナミアイヅグンタダミマチ",
    "town": "田子倉",
    "town_kana": "タゴクラ",
    "street": null,
    "office_name": null,
    "office_name_kana": null
  },
  "0431": {
    "postcode": "9680431",
    "prefecture": "福島県",
    "prefecture_kana": "フクシマケン",
    "prefecture_code": 7,
    "city": "南会津郡只見町",
    "city_kana": "ミナミアイヅグンタダミマチ",
    "town": "楢戸",
    "town_kana": "ナラト",
    "street": null,
    "office_name": null,
    "office_name_kana": null
  },
  "0432": {
    "postcode": "9680432",
    "prefecture": "福島県",
    "prefecture_kana": "フクシマケン",
    "prefecture_code": 7,
    "city": "南会津郡只見町",
    "city_kana": "ミナミアイヅグンタダミマチ",
    "town": "黒沢",
    "town_kana": "クロサワ",
    "street": null,
    "office_name": null,
    "office_name_kana": null
  },
  "0433": {
    "postcode": "9680433",
    "prefecture": "福島県",
    "prefecture_kana": "フクシマケン",
    "prefecture_code": 7,
    "city": "南会津郡只見町",
    "city_kana": "ミナミアイヅグンタダミマチ",
    "town": "福井",
    "town_kana": "フクイ",
    "street": null,
    "office_name": null,
    "office_name_kana": null
  },
  "0434": {
    "postcode": "9680434",
    "prefecture": "福島県",
    "prefecture_kana": "フクシマケン",
    "prefecture_code": 7,
    "city": "南会津郡只見町",
    "city_kana": "ミナミアイヅグンタダミマチ",
    "town": "小川",
    "town_kana": "オガワ",
    "street": null,
    "office_name": null,
    "office_name_kana": null
  },
  "0441": {
    "postcode": "9680441",
    "prefecture": "福島県",
    "prefecture_kana": "フクシマケン",
    "prefecture_code": 7,
    "city": "南会津郡只見町",
    "city_kana": "ミナミアイヅグンタダミマチ",
    "town": "黒谷",
    "town_kana": "クロタニ",
    "street": null,
    "office_name": null,
    "office_name_kana": null
  },
  "0442": {
    "postcode": "9680442",
    "prefecture": "福島県",
    "prefecture_kana": "フクシマケン",
    "prefecture_code": 7,
    "city": "南会津郡只見町",
    "city_kana": "ミナミアイヅグンタダミマチ",
    "town": "長浜",
    "town_kana": "ナガハマ",
    "street": null,
    "office_name": null,
    "office_name_kana": null
  },
  "0443": {
    "postcode": "9680443",
    "prefecture": "福島県",
    "prefecture_kana": "フクシマケン",
    "prefecture_code": 7,
    "city": "南会津郡只見町",
    "city_kana": "ミナミアイヅグンタダミマチ",
    "town": "荒島",
    "town_kana": "アラシマ",
    "street": null,
    "office_name": null,
    "office_name_kana": null
  },
  "0444": {
    "postcode": "9680444",
    "prefecture": "福島県",
    "prefecture_kana": "フクシマケン",
    "prefecture_code": 7,
    "city": "南会津郡只見町",
    "city_kana": "ミナミアイヅグンタダミマチ",
    "town": "熊倉",
    "town_kana": "クマグラ",
    "street": null,
    "office_name": null,
    "office_name_kana": null
  },
  "0445": {
    "postcode": "9680445",
    "prefecture": "福島県",
    "prefecture_kana": "フクシマケン",
    "prefecture_code": 7,
    "city": "南会津郡只見町",
    "city_kana": "ミナミアイヅグンタダミマチ",
    "town": "亀岡",
    "town_kana": "カメオカ",
    "street": null,
    "office_name": null,
    "office_name_kana": null
  },
  "0498": {
    "postcode": "9680498",
    "prefecture": "福島県",
    "prefecture_kana": "フクシマケン",
    "prefecture_code": 7,
    "city": "南会津郡只見町",
    "city_kana": "ミナミアイヅグンタダミマチ",
    "town": "大字只見",
    "town_kana": null,
    "street": "字雨堤１０３９番地",
    "office_name": "只見町役場",
    "office_name_kana": "タダミマチヤクバ"
  },
  "0601": {
    "postcode": "9680601",
    "prefecture": "福島県",
    "prefecture_kana": "フクシマケン",
    "prefecture_code": 7,
    "city": "南会津郡只見町",
    "city_kana": "ミナミアイヅグンタダミマチ",
    "town": "小林",
    "town_kana": "コバヤシ",
    "street": null,
    "office_name": null,
    "office_name_kana": null
  },
  "0602": {
    "postcode": "9680602",
    "prefecture": "福島県",
    "prefecture_kana": "フクシマケン",
    "prefecture_code": 7,
    "city": "南会津郡只見町",
    "city_kana": "ミナミアイヅグンタダミマチ",
    "town": "大倉",
    "town_kana": "オオクラ",
    "street": null,
    "office_name": null,
    "office_name_kana": null
  },
  "0603": {
    "postcode": "9680603",
    "prefecture": "福島県",
    "prefecture_kana": "フクシマケン",
    "prefecture_code": 7,
    "city": "南会津郡只見町",
    "city_kana": "ミナミアイヅグンタダミマチ",
    "town": "梁取",
    "town_kana": "ヤナトリ",
    "street": null,
    "office_name": null,
    "office_name_kana": null
  },
  "0604": {
    "postcode": "9680604",
    "prefecture": "福島県",
    "prefecture_kana": "フクシマケン",
    "prefecture_code": 7,
    "city": "南会津郡只見町",
    "city_kana": "ミナミアイヅグンタダミマチ",
    "town": "塩ノ岐",
    "town_kana": "シオノマタ",
    "street": null,
    "office_name": null,
    "office_name_kana": null
  },
  "0605": {
    "postcode": "9680605",
    "prefecture": "福島県",
    "prefecture_kana": "フクシマケン",
    "prefecture_code": 7,
    "city": "南会津郡只見町",
    "city_kana": "ミナミアイヅグンタダミマチ",
    "town": "二軒在家",
    "town_kana": "ニケンザイケ",
    "street": null,
    "office_name": null,
    "office_name_kana": null
  },
  "0606": {
    "postcode": "9680606",
    "prefecture": "福島県",
    "prefecture_kana": "フクシマケン",
    "prefecture_code": 7,
    "city": "南会津郡只見町",
    "city_kana": "ミナミアイヅグンタダミマチ",
    "town": "坂田",
    "town_kana": "サカタ",
    "street": null,
    "office_name": null,
    "office_name_kana": null
  },
  "0607": {
    "postcode": "9680607",
    "prefecture": "福島県",
    "prefecture_kana": "フクシマケン",
    "prefecture_code": 7,
    "city": "南会津郡只見町",
    "city_kana": "ミナミアイヅグンタダミマチ",
    "town": "布沢",
    "town_kana": "フザワ",
    "street": null,
    "office_name": null,
    "office_name_kana": null
  }
}