{
  "8101": {
    "postcode": "9718101",
    "prefecture": "福島県",
    "prefecture_kana": "フクシマケン",
    "prefecture_code": 7,
    "city": "いわき市",
    "city_kana": "イワキシ",
    "town": "小名浜",
    "town_kana": "オナハマ",
    "street": null,
    "office_name": null,
    "office_name_kana": null
  },
  "8102": {
    "postcode": "9718102",
    "prefecture": "福島県",
    "prefecture_kana": "フクシマケン",
    "prefecture_code": 7,
    "city": "いわき市",
    "city_kana": "イワキシ",
    "town": "小名浜港ケ丘",
    "town_kana": "オナハマミナトガオカ",
    "street": null,
    "office_name": null,
    "office_name_kana": null
  },
  "8111": {
    "postcode": "9718111",
    "prefecture": "福島県",
    "prefecture_kana": "フクシマケン",
    "prefecture_code": 7,
    "city": "いわき市",
    "city_kana": "イワキシ",
    "town": "小名浜大原",
    "town_kana": "オナハマオオハラ",
    "street": null,
    "office_name": null,
    "office_name_kana": null
  },
  "8112": {
    "postcode": "9718112",
    "prefecture": "福島県",
    "prefecture_kana": "フクシマケン",
    "prefecture_code": 7,
    "city": "いわき市",
    "city_kana": "イワキシ",
    "town": "小名浜南富岡",
    "town_kana": "オナハマミナミトミオカ",
    "street": null,
    "office_name": null,
    "office_name_kana": null
  },
  "8121": {
    "postcode": "9718121",
    "prefecture": "福島県",
    "prefecture_kana": "フクシマケン",
    "prefecture_code": 7,
    "city": "いわき市",
    "city_kana": "イワキシ",
    "town": "小名浜岩出",
    "town_kana": "オナハマイワデ",
    "street": null,
    "office_name": null,
    "office_name_kana": null
  },
  "8122": {
    "postcode": "9718122",
    "prefecture": "福島県",
    "prefecture_kana": "フクシマケン",
    "prefecture_code": 7,
    "city": "いわき市",
    "city_kana": "イワキシ",
    "town": "小名浜林城",
    "town_kana": "オナハマリンジョウ",
    "street": null,
    "office_name": null,
    "office_name_kana": null
  },
  "8123": {
    "postcode": "9718123",
    "prefecture": "福島県",
    "prefecture_kana": "フクシマケン",
    "prefecture_code": 7,
    "city": "いわき市",
    "city_kana": "イワキシ",
    "town": "小名浜相子島",
    "town_kana": "オナハマアイコシマ",
    "street": null,
    "office_name": null,
    "office_name_kana": null
  },
  "8124": {
    "postcode": "9718124",
    "prefecture": "福島県",
    "prefecture_kana": "フクシマケン",
    "prefecture_code": 7,
    "city": "いわき市",
    "city_kana": "イワキシ",
    "town": "小名浜住吉",
    "town_kana": "オナハマスミヨシ",
    "street": null,
    "office_name": null,
    "office_name_kana": null
  },
  "8125": {
    "postcode": "9718125",
    "prefecture": "福島県",
    "prefecture_kana": "フクシマケン",
    "prefecture_code": 7,
    "city": "いわき市",
    "city_kana": "イワキシ",
    "town": "小名浜島",
    "town_kana": "オナハマシマ",
    "street": null,
    "office_name": null,
    "office_name_kana": null
  },
  "8126": {
    "postcode": "9718126",
    "prefecture": "福島県",
    "prefecture_kana": "フクシマケン",
    "prefecture_code": 7,
    "city": "いわき市",
    "city_kana": "イワキシ",
    "town": "小名浜野田",
    "town_kana": "オナハマノダ",
    "street": null,
    "office_name": null,
    "office_name_kana": null
  },
  "8127": {
    "postcode": "9718127",
    "prefecture": "福島県",
    "prefecture_kana": "フクシマケン",
    "prefecture_code": 7,
    "city": "いわき市",
    "city_kana": "イワキシ",
    "town": "小名浜玉川町",
    "town_kana": "オナハマタマガワマチ",
    "street": null,
    "office_name": null,
    "office_name_kana": null
  },
  "8131": {
    "postcode": "9718131",
    "prefecture": "福島県",
    "prefecture_kana": "フクシマケン",
    "prefecture_code": 7,
    "city": "いわき市",
    "city_kana": "イワキシ",
    "town": "常磐上矢田町",
    "town_kana": "ジョウバンカミヤダマチ",
    "street": null,
    "office_name": null,
    "office_name_kana": null
  },
  "8132": {
    "postcode": "9718132",
    "prefecture": "福島県",
    "prefecture_kana": "フクシマケン",
    "prefecture_code": 7,
    "city": "いわき市",
    "city_kana": "イワキシ",
    "town": "鹿島町下矢田",
    "town_kana": "カシママチシモヤダ",
    "street": null,
    "office_name": null,
    "office_name_kana": null
  },
  "8133": {
    "postcode": "9718133",
    "prefecture": "福島県",
    "prefecture_kana": "フクシマケン",
    "prefecture_code": 7,
    "city": "いわき市",
    "city_kana": "イワキシ",
    "town": "鹿島町米田",
    "town_kana": "カシママチコモダ",
    "street": null,
    "office_name": null,
    "office_name_kana": null
  },
  "8134": {
    "postcode": "9718134",
    "prefecture": "福島県",
    "prefecture_kana": "フクシマケン",
    "prefecture_code": 7,
    "city": "いわき市",
    "city_kana": "イワキシ",
    "town": "鹿島町飯田",
    "town_kana": "カシママチイイダ",
    "street": null,
    "office_name": null,
    "office_name_kana": null
  },
  "8135": {
    "postcode": "9718135",
    "prefecture": "福島県",
    "prefecture_kana": "フクシマケン",
    "prefecture_code": 7,
    "city": "いわき市",
    "city_kana": "イワキシ",
    "town": "小名浜金成",
    "town_kana": "オナハマカナリ",
    "street": null,
    "office_name": null,
    "office_name_kana": null
  },
  "8136": {
    "postcode": "9718136",
    "prefecture": "福島県",
    "prefecture_kana": "フクシマケン",
    "prefecture_code": 7,
    "city": "いわき市",
    "city_kana": "イワキシ",
    "town": "常磐三沢町",
    "town_kana": "ジョウバンミサワマチ",
    "street": null,
    "office_name": null,
    "office_name_kana": null
  },
  "8137": {
    "postcode": "9718137",
    "prefecture": "福島県",
    "prefecture_kana": "フクシマケン",
    "prefecture_code": 7,
    "city": "いわき市",
    "city_kana": "イワキシ",
    "town": "常磐松久須根町",
    "town_kana": "ジョウバンマツクスネマチ",
    "street": null,
    "office_name": null,
    "office_name_kana": null
  },
  "8138": {
    "postcode": "9718138",
    "prefecture": "福島県",
    "prefecture_kana": "フクシマケン",
    "prefecture_code": 7,
    "city": "いわき市",
    "city_kana": "イワキシ",
    "town": "若葉台",
    "town_kana": "ワカバダイ",
    "street": null,
    "office_name": null,
    "office_name_kana": null
  },
  "8139": {
    "postcode": "9718139",
    "prefecture": "福島県",
    "prefecture_kana": "フクシマケン",
    "prefecture_code": 7,
    "city": "いわき市",
    "city_kana": "イワキシ",
    "town": "鹿島町鹿島",
    "town_kana": "カシママチカシマ",
    "street": null,
    "office_name": null,
    "office_name_kana": null
  },
  "8141": {
    "postcode": "9718141",
    "prefecture": "福島県",
    "prefecture_kana": "フクシマケン",
    "prefecture_code": 7,
    "city": "いわき市",
    "city_kana": "イワキシ",
    "town": "鹿島町走熊",
    "town_kana": "カシママチハシリクマ",
    "street": null,
    "office_name": null,
    "office_name_kana": null
  },
  "8142": {
    "postcode": "9718142",
    "prefecture": "福島県",
    "prefecture_kana": "フクシマケン",
    "prefecture_code": 7,
    "city": "いわき市",
    "city_kana": "イワキシ",
    "town": "鹿島町上蔵持",
    "town_kana": "カシママチカミクラモチ",
    "street": null,
    "office_name": null,
    "office_name_kana": null
  },
  "8143": {
    "postcode": "9718143",
    "prefecture": "福島県",
    "prefecture_kana": "フクシマケン",
    "prefecture_code": 7,
    "city": "いわき市",
    "city_kana": "イワキシ",
    "town": "鹿島町下蔵持",
    "town_kana": "カシママチシモクラモチ",
    "street": null,
    "office_name": null,
    "office_name_kana": null
  },
  "8144": {
    "postcode": "9718144",
    "prefecture": "福島県",
    "prefecture_kana": "フクシマケン",
    "prefecture_code": 7,
    "city": "いわき市",
    "city_kana": "イワキシ",
    "town": "鹿島町久保",
    "town_kana": "カシママチクボ",
    "street": null,
    "office_name": null,
    "office_name_kana": null
  },
  "8145": {
    "postcode": "9718145",
    "prefecture": "福島県",
    "prefecture_kana": "フクシマケン",
    "prefecture_code": 7,
    "city": "いわき市",
    "city_kana": "イワキシ",
    "town": "鹿島町船戸",
    "town_kana": "カシママチフナド",
    "street": null,
    "office_name": null,
    "office_name_kana": null
  },
  "8146": {
    "postcode": "9718146",
    "prefecture": "福島県",
    "prefecture_kana": "フクシマケン",
    "prefecture_code": 7,
    "city": "いわき市",
    "city_kana": "イワキシ",
    "town": "鹿島町御代",
    "town_kana": "カシママチミヨ",
    "street": null,
    "office_name": null,
    "office_name_kana": null
  },
  "8151": {
    "postcode": "9718151",
    "prefecture": "福島県",
    "prefecture_kana": "フクシマケン",
    "prefecture_code": 7,
    "city": "いわき市",
    "city_kana": "イワキシ",
    "town": "小名浜岡小名",
    "town_kana": "オナハマオカオナ",
    "street": null,
    "office_name": null,
    "office_name_kana": null
  },
  "8152": {
    "postcode": "9718152",
    "prefecture": "福島県",
    "prefecture_kana": "フクシマケン",
    "prefecture_code": 7,
    "city": "いわき市",
    "city_kana": "イワキシ",
    "town": "湘南台",
    "town_kana": "ショウナンダイ",
    "street": null,
    "office_name": null,
    "office_name_kana": null
  },
  "8161": {
    "postcode": "9718161",
    "prefecture": "福島県",
    "prefecture_kana": "フクシマケン",
    "prefecture_code": 7,
    "city": "いわき市",
    "city_kana": "イワキシ",
    "town": "小名浜諏訪町",
    "town_kana": "オナハマスワチョウ",
    "street": null,
    "office_name": null,
    "office_name_kana": null
  },
  "8162": {
    "postcode": "9718162",
    "prefecture": "福島県",
    "prefecture_kana": "フクシマケン",
    "prefecture_code": 7,
    "city": "いわき市",
    "city_kana": "イワキシ",
    "town": "小名浜花畑町",
    "town_kana": "オナハマハナバタケチョウ",
    "street": null,
    "office_name": null,
    "office_name_kana": null
  },
  "8163": {
    "postcode": "9718163",
    "prefecture": "福島県",
    "prefecture_kana": "フクシマケン",
    "prefecture_code": 7,
    "city": "いわき市",
    "city_kana": "イワキシ",
    "town": "小名浜中町境",
    "town_kana": "オナハマナカチョウザカイ",
    "street": null,
    "office_name": null,
    "office_name_kana": null
  },
  "8164": [
    {
      "postcode": "9718164",
      "prefecture": "福島県",
      "prefecture_kana": "フクシマケン",
      "prefecture_code": 7,
      "city": "いわき市",
      "city_kana": "イワキシ",
      "town": "小名浜寺廻町",
      "town_kana": "オナハマテラマワリチョウ",
      "street": null,
      "office_name": null,
      "office_name_kana": null
    },
    {
      "postcode": "9718164",
      "prefecture": "福島県",
      "prefecture_kana": "フクシマケン",
      "prefecture_code": 7,
      "city": "いわき市",
      "city_kana": "イワキシ",
      "town": "小名浜西町",
      "town_kana": "オナハマニシチョウ",
      "street": null,
      "office_name": null,
      "office_name_kana": null
    }
  ],
  "8165": {
    "postcode": "9718165",
    "prefecture": "福島県",
    "prefecture_kana": "フクシマケン",
    "prefecture_code": 7,
    "city": "いわき市",
    "city_kana": "イワキシ",
    "town": "小名浜愛宕町",
    "town_kana": "オナハマアタゴチョウ",
    "street": null,
    "office_name": null,
    "office_name_kana": null
  },
  "8166": {
    "postcode": "9718166",
    "prefecture": "福島県",
    "prefecture_kana": "フクシマケン",
    "prefecture_code": 7,
    "city": "いわき市",
    "city_kana": "イワキシ",
    "town": "小名浜愛宕上",
    "town_kana": "オナハマアタゴウエ",
    "street": null,
    "office_name": null,
    "office_name_kana": null
  },
  "8167": {
    "postcode": "9718167",
    "prefecture": "福島県",
    "prefecture_kana": "フクシマケン",
    "prefecture_code": 7,
    "city": "いわき市",
    "city_kana": "イワキシ",
    "town": "小名浜西君ケ塚町",
    "town_kana": "オナハマニシキミガツカチョウ",
    "street": null,
    "office_name": null,
    "office_name_kana": null
  },
  "8168": {
    "postcode": "9718168",
    "prefecture": "福島県",
    "prefecture_kana": "フクシマケン",
    "prefecture_code": 7,
    "city": "いわき市",
    "city_kana": "イワキシ",
    "town": "小名浜君ケ塚町",
    "town_kana": "オナハマキミガツカチョウ",
    "street": null,
    "office_name": null,
    "office_name_kana": null
  },
  "8169": {
    "postcode": "9718169",
    "prefecture": "福島県",
    "prefecture_kana": "フクシマケン",
    "prefecture_code": 7,
    "city": "いわき市",
    "city_kana": "イワキシ",
    "town": "小名浜南君ケ塚町",
    "town_kana": "オナハマミナミキミガツカチョウ",
    "street": null,
    "office_name": null,
    "office_name_kana": null
  },
  "8171": {
    "postcode": "9718171",
    "prefecture": "福島県",
    "prefecture_kana": "フクシマケン",
    "prefecture_code": 7,
    "city": "いわき市",
    "city_kana": "イワキシ",
    "town": "泉ケ丘",
    "town_kana": "イズミガオカ",
    "street": null,
    "office_name": null,
    "office_name_kana": null
  },
  "8172": {
    "postcode": "9718172",
    "prefecture": "福島県",
    "prefecture_kana": "フクシマケン",
    "prefecture_code": 7,
    "city": "いわき市",
    "city_kana": "イワキシ",
    "town": "泉玉露",
    "town_kana": "イズミタマツユ",
    "street": null,
    "office_name": null,
    "office_name_kana": null
  },
  "8181": {
    "postcode": "9718181",
    "prefecture": "福島県",
    "prefecture_kana": "フクシマケン",
    "prefecture_code": 7,
    "city": "いわき市",
    "city_kana": "イワキシ",
    "town": "泉町本谷",
    "town_kana": "イズミマチホンヤ",
    "street": null,
    "office_name": null,
    "office_name_kana": null
  },
  "8182": {
    "postcode": "9718182",
    "prefecture": "福島県",
    "prefecture_kana": "フクシマケン",
    "prefecture_code": 7,
    "city": "いわき市",
    "city_kana": "イワキシ",
    "town": "泉町滝尻",
    "town_kana": "イズミマチタキジリ",
    "street": null,
    "office_name": null,
    "office_name_kana": null
  },
  "8183": {
    "postcode": "9718183",
    "prefecture": "福島県",
    "prefecture_kana": "フクシマケン",
    "prefecture_code": 7,
    "city": "いわき市",
    "city_kana": "イワキシ",
    "town": "泉町下川",
    "town_kana": "イズミマチシモガワ",
    "street": null,
    "office_name": null,
    "office_name_kana": null
  },
  "8184": {
    "postcode": "9718184",
    "prefecture": "福島県",
    "prefecture_kana": "フクシマケン",
    "prefecture_code": 7,
    "city": "いわき市",
    "city_kana": "イワキシ",
    "town": "泉町黒須野",
    "town_kana": "イズミマチクロスノ",
    "street": null,
    "office_name": null,
    "office_name_kana": null
  },
  "8185": {
    "postcode": "9718185",
    "prefecture": "福島県",
    "prefecture_kana": "フクシマケン",
    "prefecture_code": 7,
    "city": "いわき市",
    "city_kana": "イワキシ",
    "town": "泉町",
    "town_kana": "イズミマチ",
    "street": null,
    "office_name": null,
    "office_name_kana": null
  },
  "8186": {
    "postcode": "9718186",
    "prefecture": "福島県",
    "prefecture_kana": "フクシマケン",
    "prefecture_code": 7,
    "city": "いわき市",
    "city_kana": "イワキシ",
    "town": "泉町玉露",
    "town_kana": "イズミマチタマツユ",
    "street": null,
    "office_name": null,
    "office_name_kana": null
  },
  "8187": {
    "postcode": "9718187",
    "prefecture": "福島県",
    "prefecture_kana": "フクシマケン",
    "prefecture_code": 7,
    "city": "いわき市",
    "city_kana": "イワキシ",
    "town": "葉山",
    "town_kana": "ハヤマ",
    "street": null,
    "office_name": null,
    "office_name_kana": null
  },
  "8188": {
    "postcode": "9718188",
    "prefecture": "福島県",
    "prefecture_kana": "フクシマケン",
    "prefecture_code": 7,
    "city": "いわき市",
    "city_kana": "イワキシ",
    "town": "泉もえぎ台",
    "town_kana": "イズミモエギダイ",
    "street": null,
    "office_name": null,
    "office_name_kana": null
  },
  "8189": {
    "postcode": "9718189",
    "prefecture": "福島県",
    "prefecture_kana": "フクシマケン",
    "prefecture_code": 7,
    "city": "いわき市",
    "city_kana": "イワキシ",
    "town": "泉滝尻",
    "town_kana": "イズミタキジリ",
    "street": null,
    "office_name": null,
    "office_name_kana": null
  },
  "8555": {
    "postcode": "9718555",
    "prefecture": "福島県",
    "prefecture_kana": "フクシマケン",
    "prefecture_code": 7,
    "city": "いわき市",
    "city_kana": "イワキシ",
    "town": "小名浜",
    "town_kana": "オナハマ",
    "street": "字辰巳町７９番地",
    "office_name": "イオンモールいわき小名浜　イオンモール事務所",
    "office_name_kana": "イオンモ-ルイワキオナハマ イオンモ-ルジムシヨ"
  }
}