{
  "0141": [
    {
      "postcode": "9790141",
      "prefecture": "福島県",
      "prefecture_kana": "フクシマケン",
      "prefecture_code": 7,
      "city": "いわき市",
      "city_kana": "イワキシ",
      "town": "勿来町",
      "town_kana": "ナコソマチ",
      "street": null,
      "office_name": null,
      "office_name_kana": null
    },
    {
      "postcode": "9790141",
      "prefecture": "福島県",
      "prefecture_kana": "フクシマケン",
      "prefecture_code": 7,
      "city": "いわき市",
      "city_kana": "イワキシ",
      "town": "勿来町窪田",
      "town_kana": "ナコソマチクボタ",
      "street": null,
      "office_name": null,
      "office_name_kana": null
    }
  ],
  "0142": [
    {
      "postcode": "9790142",
      "prefecture": "福島県",
      "prefecture_kana": "フクシマケン",
      "prefecture_code": 7,
      "city": "いわき市",
      "city_kana": "イワキシ",
      "town": "勿来町",
      "town_kana": "ナコソマチ",
      "street": null,
      "office_name": null,
      "office_name_kana": null
    },
    {
      "postcode": "9790142",
      "prefecture": "福島県",
      "prefecture_kana": "フクシマケン",
      "prefecture_code": 7,
      "city": "いわき市",
      "city_kana": "イワキシ",
      "town": "勿来町酒井",
      "town_kana": "ナコソマチサカイ",
      "street": null,
      "office_name": null,
      "office_name_kana": null
    }
  ],
  "0143": [
    {
      "postcode": "9790143",
      "prefecture": "福島県",
      "prefecture_kana": "フクシマケン",
      "prefecture_code": 7,
      "city": "いわき市",
      "city_kana": "イワキシ",
      "town": "勿来町",
      "town_kana": "ナコソマチ",
      "street": null,
      "office_name": null,
      "office_name_kana": null
    },
    {
      "postcode": "9790143",
      "prefecture": "福島県",
      "prefecture_kana": "フクシマケン",
      "prefecture_code": 7,
      "city": "いわき市",
      "city_kana": "イワキシ",
      "town": "勿来町白米",
      "town_kana": "ナコソマチシロヨネ",
      "street": null,
      "office_name": null,
      "office_name_kana": null
    }
  ],
  "0144": [
    {
      "postcode": "9790144",
      "prefecture": "福島県",
      "prefecture_kana": "フクシマケン",
      "prefecture_code": 7,
      "city": "いわき市",
      "city_kana": "イワキシ",
      "town": "勿来町",
      "town_kana": "ナコソマチ",
      "street": null,
      "office_name": null,
      "office_name_kana": null
    },
    {
      "postcode": "9790144",
      "prefecture": "福島県",
      "prefecture_kana": "フクシマケン",
      "prefecture_code": 7,
      "city": "いわき市",
      "city_kana": "イワキシ",
      "town": "勿来町大高",
      "town_kana": "ナコソマチオオダカ",
      "street": null,
      "office_name": null,
      "office_name_kana": null
    }
  ],
  "0145": [
    {
      "postcode": "9790145",
      "prefecture": "福島県",
      "prefecture_kana": "フクシマケン",
      "prefecture_code": 7,
      "city": "いわき市",
      "city_kana": "イワキシ",
      "town": "勿来町",
      "town_kana": "ナコソマチ",
      "street": null,
      "office_name": null,
      "office_name_kana": null
    },
    {
      "postcode": "9790145",
      "prefecture": "福島県",
      "prefecture_kana": "フクシマケン",
      "prefecture_code": 7,
      "city": "いわき市",
      "city_kana": "イワキシ",
      "town": "勿来町四沢",
      "town_kana": "ナコソマチシサワ",
      "street": null,
      "office_name": null,
      "office_name_kana": null
    }
  ],
  "0146": [
    {
      "postcode": "9790146",
      "prefecture": "福島県",
      "prefecture_kana": "フクシマケン",
      "prefecture_code": 7,
      "city": "いわき市",
      "city_kana": "イワキシ",
      "town": "勿来町",
      "town_kana": "ナコソマチ",
      "street": null,
      "office_name": null,
      "office_name_kana": null
    },
    {
      "postcode": "9790146",
      "prefecture": "福島県",
      "prefecture_kana": "フクシマケン",
      "prefecture_code": 7,
      "city": "いわき市",
      "city_kana": "イワキシ",
      "town": "勿来町関田",
      "town_kana": "ナコソマチセキタ",
      "street": null,
      "office_name": null,
      "office_name_kana": null
    }
  ],
  "0147": [
    {
      "postcode": "9790147",
      "prefecture": "福島県",
      "prefecture_kana": "フクシマケン",
      "prefecture_code": 7,
      "city": "いわき市",
      "city_kana": "イワキシ",
      "town": "勿来町",
      "town_kana": "ナコソマチ",
      "street": null,
      "office_name": null,
      "office_name_kana": null
    },
    {
      "postcode": "9790147",
      "prefecture": "福島県",
      "prefecture_kana": "フクシマケン",
      "prefecture_code": 7,
      "city": "いわき市",
      "city_kana": "イワキシ",
      "town": "勿来町九面",
      "town_kana": "ナコソマチココヅラ",
      "street": null,
      "office_name": null,
      "office_name_kana": null
    }
  ],
  "0151": {
    "postcode": "9790151",
    "prefecture": "福島県",
    "prefecture_kana": "フクシマケン",
    "prefecture_code": 7,
    "city": "いわき市",
    "city_kana": "イワキシ",
    "town": "瀬戸町",
    "town_kana": "セトマチ",
    "street": null,
    "office_name": null,
    "office_name_kana": null
  },
  "0152": {
    "postcode": "9790152",
    "prefecture": "福島県",
    "prefecture_kana": "フクシマケン",
    "prefecture_code": 7,
    "city": "いわき市",
    "city_kana": "イワキシ",
    "town": "山玉町",
    "town_kana": "ヤマダママチ",
    "street": null,
    "office_name": null,
    "office_name_kana": null
  },
  "0153": {
    "postcode": "9790153",
    "prefecture": "福島県",
    "prefecture_kana": "フクシマケン",
    "prefecture_code": 7,
    "city": "いわき市",
    "city_kana": "イワキシ",
    "town": "川部町",
    "town_kana": "カワベマチ",
    "street": null,
    "office_name": null,
    "office_name_kana": null
  },
  "0154": {
    "postcode": "9790154",
    "prefecture": "福島県",
    "prefecture_kana": "フクシマケン",
    "prefecture_code": 7,
    "city": "いわき市",
    "city_kana": "イワキシ",
    "town": "沼部町",
    "town_kana": "ヌマベマチ",
    "street": null,
    "office_name": null,
    "office_name_kana": null
  },
  "0155": {
    "postcode": "9790155",
    "prefecture": "福島県",
    "prefecture_kana": "フクシマケン",
    "prefecture_code": 7,
    "city": "いわき市",
    "city_kana": "イワキシ",
    "town": "三沢町",
    "town_kana": "ミサワマチ",
    "street": null,
    "office_name": null,
    "office_name_kana": null
  },
  "0192": {
    "postcode": "9790192",
    "prefecture": "福島県",
    "prefecture_kana": "フクシマケン",
    "prefecture_code": 7,
    "city": "いわき市",
    "city_kana": "イワキシ",
    "town": "勿来町",
    "town_kana": "ナコソマチ",
    "street": "窪田十条１",
    "office_name": "日本製紙　株式会社　勿来工場",
    "office_name_kana": "ニツポンセイシ カブシキガイシヤ ナコソコウジヨウ"
  },
  "0195": {
    "postcode": "9790195",
    "prefecture": "福島県",
    "prefecture_kana": "フクシマケン",
    "prefecture_code": 7,
    "city": "いわき市",
    "city_kana": "イワキシ",
    "town": "勿来町",
    "town_kana": "ナコソマチ",
    "street": "窪田十条３番１",
    "office_name": "株式会社　マルト",
    "office_name_kana": "カブシキガイシヤ マルト"
  },
  "0196": {
    "postcode": "9790196",
    "prefecture": "福島県",
    "prefecture_kana": "フクシマケン",
    "prefecture_code": 7,
    "city": "いわき市",
    "city_kana": "イワキシ",
    "town": "勿来町",
    "town_kana": "ナコソマチ",
    "street": "窪田十条３番１−２",
    "office_name": "株式会社　マルト　ＳＣ窪田店",
    "office_name_kana": "カブシキガイシヤ マルト エスシ-クボタテン"
  },
  "0197": {
    "postcode": "9790197",
    "prefecture": "福島県",
    "prefecture_kana": "フクシマケン",
    "prefecture_code": 7,
    "city": "いわき市",
    "city_kana": "イワキシ",
    "town": "勿来町",
    "town_kana": "ナコソマチ",
    "street": "窪田十条３番１−３",
    "office_name": "株式会社　くすりのマルト　マルト健康の森　窪田店",
    "office_name_kana": "カブシキガイシヤ クスリノマルト マルトケンコウノモリ クボタテン"
  },
  "0198": {
    "postcode": "9790198",
    "prefecture": "福島県",
    "prefecture_kana": "フクシマケン",
    "prefecture_code": 7,
    "city": "いわき市",
    "city_kana": "イワキシ",
    "town": "勿来町",
    "town_kana": "ナコソマチ",
    "street": "窪田十条３番１−４",
    "office_name": "株式会社　ファミリー　ファミリー窪田店",
    "office_name_kana": "カブシキガイシヤ フアミリ- フアミリ-クボタテン"
  },
  "0201": {
    "postcode": "9790201",
    "prefecture": "福島県",
    "prefecture_kana": "フクシマケン",
    "prefecture_code": 7,
    "city": "いわき市",
    "city_kana": "イワキシ",
    "town": "四倉町",
    "town_kana": "ヨツクラマチ",
    "street": null,
    "office_name": null,
    "office_name_kana": null
  },
  "0202": {
    "postcode": "9790202",
    "prefecture": "福島県",
    "prefecture_kana": "フクシマケン",
    "prefecture_code": 7,
    "city": "いわき市",
    "city_kana": "イワキシ",
    "town": "四倉町上仁井田",
    "town_kana": "ヨツクラマチカミニイダ",
    "street": null,
    "office_name": null,
    "office_name_kana": null
  },
  "0203": {
    "postcode": "9790203",
    "prefecture": "福島県",
    "prefecture_kana": "フクシマケン",
    "prefecture_code": 7,
    "city": "いわき市",
    "city_kana": "イワキシ",
    "town": "四倉町下仁井田",
    "town_kana": "ヨツクラマチシモニイダ",
    "street": null,
    "office_name": null,
    "office_name_kana": null
  },
  "0204": {
    "postcode": "9790204",
    "prefecture": "福島県",
    "prefecture_kana": "フクシマケン",
    "prefecture_code": 7,
    "city": "いわき市",
    "city_kana": "イワキシ",
    "town": "四倉町細谷",
    "town_kana": "ヨツクラマチホソヤ",
    "street": null,
    "office_name": null,
    "office_name_kana": null
  },
  "0205": {
    "postcode": "9790205",
    "prefecture": "福島県",
    "prefecture_kana": "フクシマケン",
    "prefecture_code": 7,
    "city": "いわき市",
    "city_kana": "イワキシ",
    "town": "四倉町大森",
    "town_kana": "ヨツクラマチオオモリ",
    "street": null,
    "office_name": null,
    "office_name_kana": null
  },
  "0206": {
    "postcode": "9790206",
    "prefecture": "福島県",
    "prefecture_kana": "フクシマケン",
    "prefecture_code": 7,
    "city": "いわき市",
    "city_kana": "イワキシ",
    "town": "四倉町狐塚",
    "town_kana": "ヨツクラマチキツネヅカ",
    "street": null,
    "office_name": null,
    "office_name_kana": null
  },
  "0207": {
    "postcode": "9790207",
    "prefecture": "福島県",
    "prefecture_kana": "フクシマケン",
    "prefecture_code": 7,
    "city": "いわき市",
    "city_kana": "イワキシ",
    "town": "四倉町塩木",
    "town_kana": "ヨツクラマチシオキ",
    "street": null,
    "office_name": null,
    "office_name_kana": null
  },
  "0211": {
    "postcode": "9790211",
    "prefecture": "福島県",
    "prefecture_kana": "フクシマケン",
    "prefecture_code": 7,
    "city": "いわき市",
    "city_kana": "イワキシ",
    "town": "四倉町白岩",
    "town_kana": "ヨツクラマチシライワ",
    "street": null,
    "office_name": null,
    "office_name_kana": null
  },
  "0212": {
    "postcode": "9790212",
    "prefecture": "福島県",
    "prefecture_kana": "フクシマケン",
    "prefecture_code": 7,
    "city": "いわき市",
    "city_kana": "イワキシ",
    "town": "四倉町戸田",
    "town_kana": "ヨツクラマチトダ",
    "street": null,
    "office_name": null,
    "office_name_kana": null
  },
  "0213": {
    "postcode": "9790213",
    "prefecture": "福島県",
    "prefecture_kana": "フクシマケン",
    "prefecture_code": 7,
    "city": "いわき市",
    "city_kana": "イワキシ",
    "town": "四倉町名木",
    "town_kana": "ヨツクラマチナギ",
    "street": null,
    "office_name": null,
    "office_name_kana": null
  },
  "0214": {
    "postcode": "9790214",
    "prefecture": "福島県",
    "prefecture_kana": "フクシマケン",
    "prefecture_code": 7,
    "city": "いわき市",
    "city_kana": "イワキシ",
    "town": "四倉町長友",
    "town_kana": "ヨツクラマチナガトモ",
    "street": null,
    "office_name": null,
    "office_name_kana": null
  },
  "0215": {
    "postcode": "9790215",
    "prefecture": "福島県",
    "prefecture_kana": "フクシマケン",
    "prefecture_code": 7,
    "city": "いわき市",
    "city_kana": "イワキシ",
    "town": "四倉町中島",
    "town_kana": "ヨツクラマチナカジマ",
    "street": null,
    "office_name": null,
    "office_name_kana": null
  },
  "0216": {
    "postcode": "9790216",
    "prefecture": "福島県",
    "prefecture_kana": "フクシマケン",
    "prefecture_code": 7,
    "city": "いわき市",
    "city_kana": "イワキシ",
    "town": "四倉町玉山",
    "town_kana": "ヨツクラマチタマヤマ",
    "street": null,
    "office_name": null,
    "office_name_kana": null
  },
  "0221": {
    "postcode": "9790221",
    "prefecture": "福島県",
    "prefecture_kana": "フクシマケン",
    "prefecture_code": 7,
    "city": "いわき市",
    "city_kana": "イワキシ",
    "town": "四倉町上岡",
    "town_kana": "ヨツクラマチカミオカ",
    "street": null,
    "office_name": null,
    "office_name_kana": null
  },
  "0222": {
    "postcode": "9790222",
    "prefecture": "福島県",
    "prefecture_kana": "フクシマケン",
    "prefecture_code": 7,
    "city": "いわき市",
    "city_kana": "イワキシ",
    "town": "四倉町八茎",
    "town_kana": "ヨツクラマチヤグキ",
    "street": null,
    "office_name": null,
    "office_name_kana": null
  },
  "0223": {
    "postcode": "9790223",
    "prefecture": "福島県",
    "prefecture_kana": "フクシマケン",
    "prefecture_code": 7,
    "city": "いわき市",
    "city_kana": "イワキシ",
    "town": "四倉町山田小湊",
    "town_kana": "ヨツクラマチヤマダコミナト",
    "street": null,
    "office_name": null,
    "office_name_kana": null
  },
  "0224": {
    "postcode": "9790224",
    "prefecture": "福島県",
    "prefecture_kana": "フクシマケン",
    "prefecture_code": 7,
    "city": "いわき市",
    "city_kana": "イワキシ",
    "town": "四倉町薬王寺",
    "town_kana": "ヨツクラマチヤクオウジ",
    "street": null,
    "office_name": null,
    "office_name_kana": null
  },
  "0225": {
    "postcode": "9790225",
    "prefecture": "福島県",
    "prefecture_kana": "フクシマケン",
    "prefecture_code": 7,
    "city": "いわき市",
    "city_kana": "イワキシ",
    "town": "四倉町下柳生",
    "town_kana": "ヨツクラマチシモヤギュウ",
    "street": null,
    "office_name": null,
    "office_name_kana": null
  },
  "0226": {
    "postcode": "9790226",
    "prefecture": "福島県",
    "prefecture_kana": "フクシマケン",
    "prefecture_code": 7,
    "city": "いわき市",
    "city_kana": "イワキシ",
    "town": "四倉町上柳生",
    "town_kana": "ヨツクラマチカミヤギュウ",
    "street": null,
    "office_name": null,
    "office_name_kana": null
  },
  "0227": {
    "postcode": "9790227",
    "prefecture": "福島県",
    "prefecture_kana": "フクシマケン",
    "prefecture_code": 7,
    "city": "いわき市",
    "city_kana": "イワキシ",
    "town": "四倉町駒込",
    "town_kana": "ヨツクラマチコマゴメ",
    "street": null,
    "office_name": null,
    "office_name_kana": null
  },
  "0331": {
    "postcode": "9790331",
    "prefecture": "福島県",
    "prefecture_kana": "フクシマケン",
    "prefecture_code": 7,
    "city": "いわき市",
    "city_kana": "イワキシ",
    "town": "久之浜町末続",
    "town_kana": "ヒサノハママチスエツギ",
    "street": null,
    "office_name": null,
    "office_name_kana": null
  },
  "0332": {
    "postcode": "9790332",
    "prefecture": "福島県",
    "prefecture_kana": "フクシマケン",
    "prefecture_code": 7,
    "city": "いわき市",
    "city_kana": "イワキシ",
    "town": "久之浜町金ケ沢",
    "town_kana": "ヒサノハママチカネガサワ",
    "street": null,
    "office_name": null,
    "office_name_kana": null
  },
  "0333": {
    "postcode": "9790333",
    "prefecture": "福島県",
    "prefecture_kana": "フクシマケン",
    "prefecture_code": 7,
    "city": "いわき市",
    "city_kana": "イワキシ",
    "town": "久之浜町久之浜",
    "town_kana": "ヒサノハママチヒサノハマ",
    "street": null,
    "office_name": null,
    "office_name_kana": null
  },
  "0334": {
    "postcode": "9790334",
    "prefecture": "福島県",
    "prefecture_kana": "フクシマケン",
    "prefecture_code": 7,
    "city": "いわき市",
    "city_kana": "イワキシ",
    "town": "久之浜町西",
    "town_kana": "ヒサノハママチニシ",
    "street": null,
    "office_name": null,
    "office_name_kana": null
  },
  "0335": {
    "postcode": "9790335",
    "prefecture": "福島県",
    "prefecture_kana": "フクシマケン",
    "prefecture_code": 7,
    "city": "いわき市",
    "city_kana": "イワキシ",
    "town": "久之浜町田之網",
    "town_kana": "ヒサノハママチタノアミ",
    "street": null,
    "office_name": null,
    "office_name_kana": null
  },
  "0336": {
    "postcode": "9790336",
    "prefecture": "福島県",
    "prefecture_kana": "フクシマケン",
    "prefecture_code": 7,
    "city": "いわき市",
    "city_kana": "イワキシ",
    "town": "大久町小山田",
    "town_kana": "オオヒサマチオヤマダ",
    "street": null,
    "office_name": null,
    "office_name_kana": null
  },
  "0337": {
    "postcode": "9790337",
    "prefecture": "福島県",
    "prefecture_kana": "フクシマケン",
    "prefecture_code": 7,
    "city": "いわき市",
    "city_kana": "イワキシ",
    "town": "大久町小久",
    "town_kana": "オオヒサマチコヒサ",
    "street": null,
    "office_name": null,
    "office_name_kana": null
  },
  "0338": {
    "postcode": "9790338",
    "prefecture": "福島県",
    "prefecture_kana": "フクシマケン",
    "prefecture_code": 7,
    "city": "いわき市",
    "city_kana": "イワキシ",
    "town": "大久町大久",
    "town_kana": "オオヒサマチオオヒサ",
    "street": null,
    "office_name": null,
    "office_name_kana": null
  },
  "0400": {
    "postcode": "9790400",
    "prefecture": "福島県",
    "prefecture_kana": "フクシマケン",
    "prefecture_code": 7,
    "city": "双葉郡広野町",
    "city_kana": "フタバグンヒロノマチ",
    "town": "",
    "town_kana": "",
    "street": null,
    "office_name": null,
    "office_name_kana": null
  },
  "0401": {
    "postcode": "9790401",
    "prefecture": "福島県",
    "prefecture_kana": "フクシマケン",
    "prefecture_code": 7,
    "city": "双葉郡広野町",
    "city_kana": "フタバグンヒロノマチ",
    "town": "上北迫",
    "town_kana": "カミキタバ",
    "street": null,
    "office_name": null,
    "office_name_kana": null
  },
  "0402": {
    "postcode": "9790402",
    "prefecture": "福島県",
    "prefecture_kana": "フクシマケン",
    "prefecture_code": 7,
    "city": "双葉郡広野町",
    "city_kana": "フタバグンヒロノマチ",
    "town": "下北迫",
    "town_kana": "シモキタバ",
    "street": null,
    "office_name": null,
    "office_name_kana": null
  },
  "0403": {
    "postcode": "9790403",
    "prefecture": "福島県",
    "prefecture_kana": "フクシマケン",
    "prefecture_code": 7,
    "city": "双葉郡広野町",
    "city_kana": "フタバグンヒロノマチ",
    "town": "下浅見川",
    "town_kana": "シモアサミガワ",
    "street": null,
    "office_name": null,
    "office_name_kana": null
  },
  "0404": {
    "postcode": "9790404",
    "prefecture": "福島県",
    "prefecture_kana": "フクシマケン",
    "prefecture_code": 7,
    "city": "双葉郡広野町",
    "city_kana": "フタバグンヒロノマチ",
    "town": "折木",
    "town_kana": "オリキ",
    "street": null,
    "office_name": null,
    "office_name_kana": null
  },
  "0405": {
    "postcode": "9790405",
    "prefecture": "福島県",
    "prefecture_kana": "フクシマケン",
    "prefecture_code": 7,
    "city": "双葉郡広野町",
    "city_kana": "フタバグンヒロノマチ",
    "town": "夕筋",
    "town_kana": "ユウスジ",
    "street": null,
    "office_name": null,
    "office_name_kana": null
  },
  "0406": {
    "postcode": "9790406",
    "prefecture": "福島県",
    "prefecture_kana": "フクシマケン",
    "prefecture_code": 7,
    "city": "双葉郡広野町",
    "city_kana": "フタバグンヒロノマチ",
    "town": "上浅見川",
    "town_kana": "カミアサミガワ",
    "street": null,
    "office_name": null,
    "office_name_kana": null
  },
  "0407": {
    "postcode": "9790407",
    "prefecture": "福島県",
    "prefecture_kana": "フクシマケン",
    "prefecture_code": 7,
    "city": "双葉郡広野町",
    "city_kana": "フタバグンヒロノマチ",
    "town": "広洋台",
    "town_kana": "コウヨウダイ",
    "street": null,
    "office_name": null,
    "office_name_kana": null
  },
  "0408": {
    "postcode": "9790408",
    "prefecture": "福島県",
    "prefecture_kana": "フクシマケン",
    "prefecture_code": 7,
    "city": "双葉郡広野町",
    "city_kana": "フタバグンヒロノマチ",
    "town": "中央台",
    "town_kana": "チュウオウダイ",
    "street": null,
    "office_name": null,
    "office_name_kana": null
  },
  "0511": {
    "postcode": "9790511",
    "prefecture": "福島県",
    "prefecture_kana": "フクシマケン",
    "prefecture_code": 7,
    "city": "双葉郡楢葉町",
    "city_kana": "フタバグンナラハマチ",
    "town": "前原",
    "town_kana": "マエバラ",
    "street": null,
    "office_name": null,
    "office_name_kana": null
  },
  "0512": {
    "postcode": "9790512",
    "prefecture": "福島県",
    "prefecture_kana": "フクシマケン",
    "prefecture_code": 7,
    "city": "双葉郡楢葉町",
    "city_kana": "フタバグンナラハマチ",
    "town": "山田浜",
    "town_kana": "ヤマダハマ",
    "street": null,
    "office_name": null,
    "office_name_kana": null
  },
  "0513": {
    "postcode": "9790513",
    "prefecture": "福島県",
    "prefecture_kana": "フクシマケン",
    "prefecture_code": 7,
    "city": "双葉郡楢葉町",
    "city_kana": "フタバグンナラハマチ",
    "town": "山田岡",
    "town_kana": "ヤマダオカ",
    "street": null,
    "office_name": null,
    "office_name_kana": null
  },
  "0514": {
    "postcode": "9790514",
    "prefecture": "福島県",
    "prefecture_kana": "フクシマケン",
    "prefecture_code": 7,
    "city": "双葉郡楢葉町",
    "city_kana": "フタバグンナラハマチ",
    "town": "下小塙",
    "town_kana": "シモコバナ",
    "street": null,
    "office_name": null,
    "office_name_kana": null
  },
  "0515": {
    "postcode": "9790515",
    "prefecture": "福島県",
    "prefecture_kana": "フクシマケン",
    "prefecture_code": 7,
    "city": "双葉郡楢葉町",
    "city_kana": "フタバグンナラハマチ",
    "town": "上小塙",
    "town_kana": "カミコバナ",
    "street": null,
    "office_name": null,
    "office_name_kana": null
  },
  "0600": {
    "postcode": "9790600",
    "prefecture": "福島県",
    "prefecture_kana": "フクシマケン",
    "prefecture_code": 7,
    "city": "双葉郡楢葉町",
    "city_kana": "フタバグンナラハマチ",
    "town": "",
    "town_kana": "",
    "street": null,
    "office_name": null,
    "office_name_kana": null
  },
  "0601": {
    "postcode": "9790601",
    "prefecture": "福島県",
    "prefecture_kana": "フクシマケン",
    "prefecture_code": 7,
    "city": "双葉郡楢葉町",
    "city_kana": "フタバグンナラハマチ",
    "town": "波倉",
    "town_kana": "ナミクラ",
    "street": null,
    "office_name": null,
    "office_name_kana": null
  },
  "0602": {
    "postcode": "9790602",
    "prefecture": "福島県",
    "prefecture_kana": "フクシマケン",
    "prefecture_code": 7,
    "city": "双葉郡楢葉町",
    "city_kana": "フタバグンナラハマチ",
    "town": "下繁岡",
    "town_kana": "シモシゲオカ",
    "street": null,
    "office_name": null,
    "office_name_kana": null
  },
  "0603": {
    "postcode": "9790603",
    "prefecture": "福島県",
    "prefecture_kana": "フクシマケン",
    "prefecture_code": 7,
    "city": "双葉郡楢葉町",
    "city_kana": "フタバグンナラハマチ",
    "town": "井出",
    "town_kana": "イデ",
    "street": null,
    "office_name": null,
    "office_name_kana": null
  },
  "0604": {
    "postcode": "9790604",
    "prefecture": "福島県",
    "prefecture_kana": "フクシマケン",
    "prefecture_code": 7,
    "city": "双葉郡楢葉町",
    "city_kana": "フタバグンナラハマチ",
    "town": "北田",
    "town_kana": "キタダ",
    "street": null,
    "office_name": null,
    "office_name_kana": null
  },
  "0605": {
    "postcode": "9790605",
    "prefecture": "福島県",
    "prefecture_kana": "フクシマケン",
    "prefecture_code": 7,
    "city": "双葉郡楢葉町",
    "city_kana": "フタバグンナラハマチ",
    "town": "大谷",
    "town_kana": "オオヤ",
    "street": null,
    "office_name": null,
    "office_name_kana": null
  },
  "0606": {
    "postcode": "9790606",
    "prefecture": "福島県",
    "prefecture_kana": "フクシマケン",
    "prefecture_code": 7,
    "city": "双葉郡楢葉町",
    "city_kana": "フタバグンナラハマチ",
    "town": "上繁岡",
    "town_kana": "カミシゲオカ",
    "street": null,
    "office_name": null,
    "office_name_kana": null
  },
  "0622": {
    "postcode": "9790622",
    "prefecture": "福島県",
    "prefecture_kana": "フクシマケン",
    "prefecture_code": 7,
    "city": "双葉郡富岡町",
    "city_kana": "フタバグントミオカマチ",
    "town": "毛萱",
    "town_kana": "ケガヤ",
    "street": null,
    "office_name": null,
    "office_name_kana": null
  },
  "0695": {
    "postcode": "9790695",
    "prefecture": "福島県",
    "prefecture_kana": "フクシマケン",
    "prefecture_code": 7,
    "city": "双葉郡楢葉町",
    "city_kana": "フタバグンナラハマチ",
    "town": "大字波倉",
    "town_kana": null,
    "street": "字小浜作１２（楢葉郵便局私書箱第１号）",
    "office_name": "東京電力　株式会社　福島第二原子力発電所",
    "office_name_kana": "トウキヨウデンリヨク カブシキガイシヤ フクシマダイニゲンシリヨクハツデンシヨ"
  },
  "0696": {
    "postcode": "9790696",
    "prefecture": "福島県",
    "prefecture_kana": "フクシマケン",
    "prefecture_code": 7,
    "city": "双葉郡楢葉町",
    "city_kana": "フタバグンナラハマチ",
    "town": "大字北田",
    "town_kana": null,
    "street": "字鐘突堂５−６（楢葉郵便局私書箱第２号）",
    "office_name": "楢葉町役場",
    "office_name_kana": "ナラハマチヤクバ"
  },
  "1100": {
    "postcode": "9791100",
    "prefecture": "福島県",
    "prefecture_kana": "フクシマケン",
    "prefecture_code": 7,
    "city": "双葉郡富岡町",
    "city_kana": "フタバグントミオカマチ",
    "town": "",
    "town_kana": "",
    "street": null,
    "office_name": null,
    "office_name_kana": null
  },
  "1101": {
    "postcode": "9791101",
    "prefecture": "福島県",
    "prefecture_kana": "フクシマケン",
    "prefecture_code": 7,
    "city": "双葉郡富岡町",
    "city_kana": "フタバグントミオカマチ",
    "town": "小良ケ浜",
    "town_kana": "オラガハマ",
    "street": null,
    "office_name": null,
    "office_name_kana": null
  },
  "1111": {
    "postcode": "9791111",
    "prefecture": "福島県",
    "prefecture_kana": "フクシマケン",
    "prefecture_code": 7,
    "city": "双葉郡富岡町",
    "city_kana": "フタバグントミオカマチ",
    "town": "小浜",
    "town_kana": "コバマ",
    "street": null,
    "office_name": null,
    "office_name_kana": null
  },
  "1112": {
    "postcode": "9791112",
    "prefecture": "福島県",
    "prefecture_kana": "フクシマケン",
    "prefecture_code": 7,
    "city": "双葉郡富岡町",
    "city_kana": "フタバグントミオカマチ",
    "town": "中央",
    "town_kana": "チュウオウ",
    "street": null,
    "office_name": null,
    "office_name_kana": null
  },
  "1113": {
    "postcode": "9791113",
    "prefecture": "福島県",
    "prefecture_kana": "フクシマケン",
    "prefecture_code": 7,
    "city": "双葉郡富岡町",
    "city_kana": "フタバグントミオカマチ",
    "town": "曲田",
    "town_kana": "マガタ",
    "street": null,
    "office_name": null,
    "office_name_kana": null
  },
  "1121": {
    "postcode": "9791121",
    "prefecture": "福島県",
    "prefecture_kana": "フクシマケン",
    "prefecture_code": 7,
    "city": "双葉郡富岡町",
    "city_kana": "フタバグントミオカマチ",
    "town": "仏浜",
    "town_kana": "ホトケハマ",
    "street": null,
    "office_name": null,
    "office_name_kana": null
  },
  "1122": {
    "postcode": "9791122",
    "prefecture": "福島県",
    "prefecture_kana": "フクシマケン",
    "prefecture_code": 7,
    "city": "双葉郡富岡町",
    "city_kana": "フタバグントミオカマチ",
    "town": "毛萱",
    "town_kana": "ケガヤ",
    "street": null,
    "office_name": null,
    "office_name_kana": null
  },
  "1123": {
    "postcode": "9791123",
    "prefecture": "福島県",
    "prefecture_kana": "フクシマケン",
    "prefecture_code": 7,
    "city": "双葉郡富岡町",
    "city_kana": "フタバグントミオカマチ",
    "town": "駅前",
    "town_kana": "エキマエ",
    "street": null,
    "office_name": null,
    "office_name_kana": null
  },
  "1131": {
    "postcode": "9791131",
    "prefecture": "福島県",
    "prefecture_kana": "フクシマケン",
    "prefecture_code": 7,
    "city": "双葉郡富岡町",
    "city_kana": "フタバグントミオカマチ",
    "town": "上郡山",
    "town_kana": "カミコオリヤマ",
    "street": null,
    "office_name": null,
    "office_name_kana": null
  },
  "1132": {
    "postcode": "9791132",
    "prefecture": "福島県",
    "prefecture_kana": "フクシマケン",
    "prefecture_code": 7,
    "city": "双葉郡富岡町",
    "city_kana": "フタバグントミオカマチ",
    "town": "下郡山",
    "town_kana": "シモコオリヤマ",
    "street": null,
    "office_name": null,
    "office_name_kana": null
  },
  "1141": {
    "postcode": "9791141",
    "prefecture": "福島県",
    "prefecture_kana": "フクシマケン",
    "prefecture_code": 7,
    "city": "双葉郡富岡町",
    "city_kana": "フタバグントミオカマチ",
    "town": "上手岡",
    "town_kana": "カミテオカ",
    "street": null,
    "office_name": null,
    "office_name_kana": null
  },
  "1151": {
    "postcode": "9791151",
    "prefecture": "福島県",
    "prefecture_kana": "フクシマケン",
    "prefecture_code": 7,
    "city": "双葉郡富岡町",
    "city_kana": "フタバグントミオカマチ",
    "town": "本岡",
    "town_kana": "モトオカ",
    "street": null,
    "office_name": null,
    "office_name_kana": null
  },
  "1152": {
    "postcode": "9791152",
    "prefecture": "福島県",
    "prefecture_kana": "フクシマケン",
    "prefecture_code": 7,
    "city": "双葉郡富岡町",
    "city_kana": "フタバグントミオカマチ",
    "town": "本町",
    "town_kana": "モトマチ",
    "street": null,
    "office_name": null,
    "office_name_kana": null
  },
  "1161": {
    "postcode": "9791161",
    "prefecture": "福島県",
    "prefecture_kana": "フクシマケン",
    "prefecture_code": 7,
    "city": "双葉郡富岡町",
    "city_kana": "フタバグントミオカマチ",
    "town": "夜の森",
    "town_kana": "ヨノモリ",
    "street": null,
    "office_name": null,
    "office_name_kana": null
  },
  "1162": {
    "postcode": "9791162",
    "prefecture": "福島県",
    "prefecture_kana": "フクシマケン",
    "prefecture_code": 7,
    "city": "双葉郡富岡町",
    "city_kana": "フタバグントミオカマチ",
    "town": "桜",
    "town_kana": "サクラ",
    "street": null,
    "office_name": null,
    "office_name_kana": null
  },
  "1171": {
    "postcode": "9791171",
    "prefecture": "福島県",
    "prefecture_kana": "フクシマケン",
    "prefecture_code": 7,
    "city": "双葉郡富岡町",
    "city_kana": "フタバグントミオカマチ",
    "town": "大菅",
    "town_kana": "オオスゲ",
    "street": null,
    "office_name": null,
    "office_name_kana": null
  },
  "1192": {
    "postcode": "9791192",
    "prefecture": "福島県",
    "prefecture_kana": "フクシマケン",
    "prefecture_code": 7,
    "city": "双葉郡富岡町",
    "city_kana": "フタバグントミオカマチ",
    "town": "大字本岡",
    "town_kana": null,
    "street": "字王塚６２２−１",
    "office_name": "富岡町役場",
    "office_name_kana": "トミオカマチヤクバ"
  },
  "1200": {
    "postcode": "9791200",
    "prefecture": "福島県",
    "prefecture_kana": "フクシマケン",
    "prefecture_code": 7,
    "city": "双葉郡川内村",
    "city_kana": "フタバグンカワウチムラ",
    "town": "",
    "town_kana": "",
    "street": null,
    "office_name": null,
    "office_name_kana": null
  },
  "1201": {
    "postcode": "9791201",
    "prefecture": "福島県",
    "prefecture_kana": "フクシマケン",
    "prefecture_code": 7,
    "city": "双葉郡川内村",
    "city_kana": "フタバグンカワウチムラ",
    "town": "上川内",
    "town_kana": "カミカワウチ",
    "street": null,
    "office_name": null,
    "office_name_kana": null
  },
  "1202": {
    "postcode": "9791202",
    "prefecture": "福島県",
    "prefecture_kana": "フクシマケン",
    "prefecture_code": 7,
    "city": "双葉郡川内村",
    "city_kana": "フタバグンカワウチムラ",
    "town": "下川内",
    "town_kana": "シモカワウチ",
    "street": null,
    "office_name": null,
    "office_name_kana": null
  },
  "1300": {
    "postcode": "9791300",
    "prefecture": "福島県",
    "prefecture_kana": "フクシマケン",
    "prefecture_code": 7,
    "city": "双葉郡大熊町",
    "city_kana": "フタバグンオオクママチ",
    "town": "",
    "town_kana": "",
    "street": null,
    "office_name": null,
    "office_name_kana": null
  },
  "1301": {
    "postcode": "9791301",
    "prefecture": "福島県",
    "prefecture_kana": "フクシマケン",
    "prefecture_code": 7,
    "city": "双葉郡大熊町",
    "city_kana": "フタバグンオオクママチ",
    "town": "夫沢",
    "town_kana": "オットザワ",
    "street": null,
    "office_name": null,
    "office_name_kana": null
  },
  "1302": {
    "postcode": "9791302",
    "prefecture": "福島県",
    "prefecture_kana": "フクシマケン",
    "prefecture_code": 7,
    "city": "双葉郡大熊町",
    "city_kana": "フタバグンオオクママチ",
    "town": "小入野",
    "town_kana": "コイリノ",
    "street": null,
    "office_name": null,
    "office_name_kana": null
  },
  "1303": {
    "postcode": "9791303",
    "prefecture": "福島県",
    "prefecture_kana": "フクシマケン",
    "prefecture_code": 7,
    "city": "双葉郡大熊町",
    "city_kana": "フタバグンオオクママチ",
    "town": "熊川",
    "town_kana": "クマガワ",
    "street": null,
    "office_name": null,
    "office_name_kana": null
  },
  "1304": {
    "postcode": "9791304",
    "prefecture": "福島県",
    "prefecture_kana": "フクシマケン",
    "prefecture_code": 7,
    "city": "双葉郡大熊町",
    "city_kana": "フタバグンオオクママチ",
    "town": "小良浜",
    "town_kana": "オラハマ",
    "street": null,
    "office_name": null,
    "office_name_kana": null
  },
  "1305": {
    "postcode": "9791305",
    "prefecture": "福島県",
    "prefecture_kana": "フクシマケン",
    "prefecture_code": 7,
    "city": "双葉郡大熊町",
    "city_kana": "フタバグンオオクママチ",
    "town": "熊",
    "town_kana": "クマ",
    "street": null,
    "office_name": null,
    "office_name_kana": null
  },
  "1306": {
    "postcode": "9791306",
    "prefecture": "福島県",
    "prefecture_kana": "フクシマケン",
    "prefecture_code": 7,
    "city": "双葉郡大熊町",
    "city_kana": "フタバグンオオクママチ",
    "town": "大川原",
    "town_kana": "オオガワラ",
    "street": null,
    "office_name": null,
    "office_name_kana": null
  },
  "1307": {
    "postcode": "9791307",
    "prefecture": "福島県",
    "prefecture_kana": "フクシマケン",
    "prefecture_code": 7,
    "city": "双葉郡大熊町",
    "city_kana": "フタバグンオオクママチ",
    "town": "野上",
    "town_kana": "ノガミ",
    "street": null,
    "office_name": null,
    "office_name_kana": null
  },
  "1308": {
    "postcode": "9791308",
    "prefecture": "福島県",
    "prefecture_kana": "フクシマケン",
    "prefecture_code": 7,
    "city": "双葉郡大熊町",
    "city_kana": "フタバグンオオクママチ",
    "town": "下野上",
    "town_kana": "シモノガミ",
    "street": null,
    "office_name": null,
    "office_name_kana": null
  },
  "1392": {
    "postcode": "9791392",
    "prefecture": "福島県",
    "prefecture_kana": "フクシマケン",
    "prefecture_code": 7,
    "city": "双葉郡大熊町",
    "city_kana": "フタバグンオオクママチ",
    "town": "大字夫沢",
    "town_kana": null,
    "street": "字北原２２",
    "office_name": "東京電力　（株）　福島第一原子力発電所",
    "office_name_kana": "トウキヨウデンリヨク カブシキガイシヤ フクシマダイイチゲンシリヨクハツデンシヨ"
  },
  "1400": {
    "postcode": "9791400",
    "prefecture": "福島県",
    "prefecture_kana": "フクシマケン",
    "prefecture_code": 7,
    "city": "双葉郡双葉町",
    "city_kana": "フタバグンフタバマチ",
    "town": "",
    "town_kana": "",
    "street": null,
    "office_name": null,
    "office_name_kana": null
  },
  "1401": {
    "postcode": "9791401",
    "prefecture": "福島県",
    "prefecture_kana": "フクシマケン",
    "prefecture_code": 7,
    "city": "双葉郡双葉町",
    "city_kana": "フタバグンフタバマチ",
    "town": "中野",
    "town_kana": "ナカノ",
    "street": null,
    "office_name": null,
    "office_name_kana": null
  },
  "1402": {
    "postcode": "9791402",
    "prefecture": "福島県",
    "prefecture_kana": "フクシマケン",
    "prefecture_code": 7,
    "city": "双葉郡双葉町",
    "city_kana": "フタバグンフタバマチ",
    "town": "中浜",
    "town_kana": "ナカハマ",
    "street": null,
    "office_name": null,
    "office_name_kana": null
  },
  "1411": {
    "postcode": "9791411",
    "prefecture": "福島県",
    "prefecture_kana": "フクシマケン",
    "prefecture_code": 7,
    "city": "双葉郡双葉町",
    "city_kana": "フタバグンフタバマチ",
    "town": "郡山",
    "town_kana": "コオリヤマ",
    "street": null,
    "office_name": null,
    "office_name_kana": null
  },
  "1412": {
    "postcode": "9791412",
    "prefecture": "福島県",
    "prefecture_kana": "フクシマケン",
    "prefecture_code": 7,
    "city": "双葉郡双葉町",
    "city_kana": "フタバグンフタバマチ",
    "town": "細谷",
    "town_kana": "ホソヤ",
    "street": null,
    "office_name": null,
    "office_name_kana": null
  },
  "1421": {
    "postcode": "9791421",
    "prefecture": "福島県",
    "prefecture_kana": "フクシマケン",
    "prefecture_code": 7,
    "city": "双葉郡双葉町",
    "city_kana": "フタバグンフタバマチ",
    "town": "前田",
    "town_kana": "マエダ",
    "street": null,
    "office_name": null,
    "office_name_kana": null
  },
  "1422": {
    "postcode": "9791422",
    "prefecture": "福島県",
    "prefecture_kana": "フクシマケン",
    "prefecture_code": 7,
    "city": "双葉郡双葉町",
    "city_kana": "フタバグンフタバマチ",
    "town": "水沢",
    "town_kana": "ミズサワ",
    "street": null,
    "office_name": null,
    "office_name_kana": null
  },
  "1423": {
    "postcode": "9791423",
    "prefecture": "福島県",
    "prefecture_kana": "フクシマケン",
    "prefecture_code": 7,
    "city": "双葉郡双葉町",
    "city_kana": "フタバグンフタバマチ",
    "town": "目迫",
    "town_kana": "メサク",
    "street": null,
    "office_name": null,
    "office_name_kana": null
  },
  "1431": {
    "postcode": "9791431",
    "prefecture": "福島県",
    "prefecture_kana": "フクシマケン",
    "prefecture_code": 7,
    "city": "双葉郡双葉町",
    "city_kana": "フタバグンフタバマチ",
    "town": "山田",
    "town_kana": "ヤマダ",
    "street": null,
    "office_name": null,
    "office_name_kana": null
  },
  "1432": {
    "postcode": "9791432",
    "prefecture": "福島県",
    "prefecture_kana": "フクシマケン",
    "prefecture_code": 7,
    "city": "双葉郡双葉町",
    "city_kana": "フタバグンフタバマチ",
    "town": "松迫",
    "town_kana": "マツザク",
    "street": null,
    "office_name": null,
    "office_name_kana": null
  },
  "1433": {
    "postcode": "9791433",
    "prefecture": "福島県",
    "prefecture_kana": "フクシマケン",
    "prefecture_code": 7,
    "city": "双葉郡双葉町",
    "city_kana": "フタバグンフタバマチ",
    "town": "石熊",
    "town_kana": "イシクマ",
    "street": null,
    "office_name": null,
    "office_name_kana": null
  },
  "1441": {
    "postcode": "9791441",
    "prefecture": "福島県",
    "prefecture_kana": "フクシマケン",
    "prefecture_code": 7,
    "city": "双葉郡双葉町",
    "city_kana": "フタバグンフタバマチ",
    "town": "下羽鳥",
    "town_kana": "シモハトリ",
    "street": null,
    "office_name": null,
    "office_name_kana": null
  },
  "1442": {
    "postcode": "9791442",
    "prefecture": "福島県",
    "prefecture_kana": "フクシマケン",
    "prefecture_code": 7,
    "city": "双葉郡双葉町",
    "city_kana": "フタバグンフタバマチ",
    "town": "上羽鳥",
    "town_kana": "カミハトリ",
    "street": null,
    "office_name": null,
    "office_name_kana": null
  },
  "1451": {
    "postcode": "9791451",
    "prefecture": "福島県",
    "prefecture_kana": "フクシマケン",
    "prefecture_code": 7,
    "city": "双葉郡双葉町",
    "city_kana": "フタバグンフタバマチ",
    "town": "渋川",
    "town_kana": "シブカワ",
    "street": null,
    "office_name": null,
    "office_name_kana": null
  },
  "1452": {
    "postcode": "9791452",
    "prefecture": "福島県",
    "prefecture_kana": "フクシマケン",
    "prefecture_code": 7,
    "city": "双葉郡双葉町",
    "city_kana": "フタバグンフタバマチ",
    "town": "松倉",
    "town_kana": "マツクラ",
    "street": null,
    "office_name": null,
    "office_name_kana": null
  },
  "1453": {
    "postcode": "9791453",
    "prefecture": "福島県",
    "prefecture_kana": "フクシマケン",
    "prefecture_code": 7,
    "city": "双葉郡双葉町",
    "city_kana": "フタバグンフタバマチ",
    "town": "寺沢",
    "town_kana": "テラザワ",
    "street": null,
    "office_name": null,
    "office_name_kana": null
  },
  "1461": {
    "postcode": "9791461",
    "prefecture": "福島県",
    "prefecture_kana": "フクシマケン",
    "prefecture_code": 7,
    "city": "双葉郡双葉町",
    "city_kana": "フタバグンフタバマチ",
    "town": "両竹",
    "town_kana": "モロタケ",
    "street": null,
    "office_name": null,
    "office_name_kana": null
  },
  "1462": {
    "postcode": "9791462",
    "prefecture": "福島県",
    "prefecture_kana": "フクシマケン",
    "prefecture_code": 7,
    "city": "双葉郡双葉町",
    "city_kana": "フタバグンフタバマチ",
    "town": "中田",
    "town_kana": "ナカダ",
    "street": null,
    "office_name": null,
    "office_name_kana": null
  },
  "1463": {
    "postcode": "9791463",
    "prefecture": "福島県",
    "prefecture_kana": "フクシマケン",
    "prefecture_code": 7,
    "city": "双葉郡双葉町",
    "city_kana": "フタバグンフタバマチ",
    "town": "鴻草",
    "town_kana": "コウノクサ",
    "street": null,
    "office_name": null,
    "office_name_kana": null
  },
  "1471": {
    "postcode": "9791471",
    "prefecture": "福島県",
    "prefecture_kana": "フクシマケン",
    "prefecture_code": 7,
    "city": "双葉郡双葉町",
    "city_kana": "フタバグンフタバマチ",
    "town": "長塚",
    "town_kana": "ナガツカ",
    "street": null,
    "office_name": null,
    "office_name_kana": null
  },
  "1472": {
    "postcode": "9791472",
    "prefecture": "福島県",
    "prefecture_kana": "フクシマケン",
    "prefecture_code": 7,
    "city": "双葉郡双葉町",
    "city_kana": "フタバグンフタバマチ",
    "town": "新山",
    "town_kana": "シンザン",
    "street": null,
    "office_name": null,
    "office_name_kana": null
  },
  "1495": {
    "postcode": "9791495",
    "prefecture": "福島県",
    "prefecture_kana": "フクシマケン",
    "prefecture_code": 7,
    "city": "双葉郡双葉町",
    "city_kana": "フタバグンフタバマチ",
    "town": "大字長塚",
    "town_kana": null,
    "street": "字町西７３番地４",
    "office_name": "双葉町役場",
    "office_name_kana": "フタバマチヤクバ"
  },
  "1500": {
    "postcode": "9791500",
    "prefecture": "福島県",
    "prefecture_kana": "フクシマケン",
    "prefecture_code": 7,
    "city": "双葉郡浪江町",
    "city_kana": "フタバグンナミエマチ",
    "town": "",
    "town_kana": "",
    "street": null,
    "office_name": null,
    "office_name_kana": null
  },
  "1501": {
    "postcode": "9791501",
    "prefecture": "福島県",
    "prefecture_kana": "フクシマケン",
    "prefecture_code": 7,
    "city": "双葉郡浪江町",
    "city_kana": "フタバグンナミエマチ",
    "town": "立野",
    "town_kana": "タツノ",
    "street": null,
    "office_name": null,
    "office_name_kana": null
  },
  "1502": {
    "postcode": "9791502",
    "prefecture": "福島県",
    "prefecture_kana": "フクシマケン",
    "prefecture_code": 7,
    "city": "双葉郡浪江町",
    "city_kana": "フタバグンナミエマチ",
    "town": "藤橋",
    "town_kana": "フジハシ",
    "street": null,
    "office_name": null,
    "office_name_kana": null
  },
  "1503": {
    "postcode": "9791503",
    "prefecture": "福島県",
    "prefecture_kana": "フクシマケン",
    "prefecture_code": 7,
    "city": "双葉郡浪江町",
    "city_kana": "フタバグンナミエマチ",
    "town": "西台",
    "town_kana": "ニシダイ",
    "street": null,
    "office_name": null,
    "office_name_kana": null
  },
  "1504": {
    "postcode": "9791504",
    "prefecture": "福島県",
    "prefecture_kana": "フクシマケン",
    "prefecture_code": 7,
    "city": "双葉郡浪江町",
    "city_kana": "フタバグンナミエマチ",
    "town": "酒田",
    "town_kana": "サカタ",
    "street": null,
    "office_name": null,
    "office_name_kana": null
  },
  "1505": {
    "postcode": "9791505",
    "prefecture": "福島県",
    "prefecture_kana": "フクシマケン",
    "prefecture_code": 7,
    "city": "双葉郡浪江町",
    "city_kana": "フタバグンナミエマチ",
    "town": "苅宿",
    "town_kana": "カリヤド",
    "street": null,
    "office_name": null,
    "office_name_kana": null
  },
  "1506": {
    "postcode": "9791506",
    "prefecture": "福島県",
    "prefecture_kana": "フクシマケン",
    "prefecture_code": 7,
    "city": "双葉郡浪江町",
    "city_kana": "フタバグンナミエマチ",
    "town": "室原",
    "town_kana": "ムロハラ",
    "street": null,
    "office_name": null,
    "office_name_kana": null
  },
  "1511": {
    "postcode": "9791511",
    "prefecture": "福島県",
    "prefecture_kana": "フクシマケン",
    "prefecture_code": 7,
    "city": "双葉郡浪江町",
    "city_kana": "フタバグンナミエマチ",
    "town": "棚塩",
    "town_kana": "タナシオ",
    "street": null,
    "office_name": null,
    "office_name_kana": null
  },
  "1512": {
    "postcode": "9791512",
    "prefecture": "福島県",
    "prefecture_kana": "フクシマケン",
    "prefecture_code": 7,
    "city": "双葉郡浪江町",
    "city_kana": "フタバグンナミエマチ",
    "town": "北幾世橋",
    "town_kana": "キタキヨハシ",
    "street": null,
    "office_name": null,
    "office_name_kana": null
  },
  "1513": {
    "postcode": "9791513",
    "prefecture": "福島県",
    "prefecture_kana": "フクシマケン",
    "prefecture_code": 7,
    "city": "双葉郡浪江町",
    "city_kana": "フタバグンナミエマチ",
    "town": "幾世橋",
    "town_kana": "キヨハシ",
    "street": null,
    "office_name": null,
    "office_name_kana": null
  },
  "1521": {
    "postcode": "9791521",
    "prefecture": "福島県",
    "prefecture_kana": "フクシマケン",
    "prefecture_code": 7,
    "city": "双葉郡浪江町",
    "city_kana": "フタバグンナミエマチ",
    "town": "権現堂",
    "town_kana": "ゴンゲンドウ",
    "street": null,
    "office_name": null,
    "office_name_kana": null
  },
  "1522": {
    "postcode": "9791522",
    "prefecture": "福島県",
    "prefecture_kana": "フクシマケン",
    "prefecture_code": 7,
    "city": "双葉郡浪江町",
    "city_kana": "フタバグンナミエマチ",
    "town": "請戸",
    "town_kana": "ウケド",
    "street": null,
    "office_name": null,
    "office_name_kana": null
  },
  "1523": {
    "postcode": "9791523",
    "prefecture": "福島県",
    "prefecture_kana": "フクシマケン",
    "prefecture_code": 7,
    "city": "双葉郡浪江町",
    "city_kana": "フタバグンナミエマチ",
    "town": "中浜",
    "town_kana": "ナカハマ",
    "street": null,
    "office_name": null,
    "office_name_kana": null
  },
  "1524": {
    "postcode": "9791524",
    "prefecture": "福島県",
    "prefecture_kana": "フクシマケン",
    "prefecture_code": 7,
    "city": "双葉郡浪江町",
    "city_kana": "フタバグンナミエマチ",
    "town": "両竹",
    "town_kana": "モロタケ",
    "street": null,
    "office_name": null,
    "office_name_kana": null
  },
  "1525": {
    "postcode": "9791525",
    "prefecture": "福島県",
    "prefecture_kana": "フクシマケン",
    "prefecture_code": 7,
    "city": "双葉郡浪江町",
    "city_kana": "フタバグンナミエマチ",
    "town": "高瀬",
    "town_kana": "タカセ",
    "street": null,
    "office_name": null,
    "office_name_kana": null
  },
  "1526": {
    "postcode": "9791526",
    "prefecture": "福島県",
    "prefecture_kana": "フクシマケン",
    "prefecture_code": 7,
    "city": "双葉郡浪江町",
    "city_kana": "フタバグンナミエマチ",
    "town": "牛渡",
    "town_kana": "ウシワタ",
    "street": null,
    "office_name": null,
    "office_name_kana": null
  },
  "1531": {
    "postcode": "9791531",
    "prefecture": "福島県",
    "prefecture_kana": "フクシマケン",
    "prefecture_code": 7,
    "city": "双葉郡浪江町",
    "city_kana": "フタバグンナミエマチ",
    "town": "川添",
    "town_kana": "カワゾエ",
    "street": null,
    "office_name": null,
    "office_name_kana": null
  },
  "1532": {
    "postcode": "9791532",
    "prefecture": "福島県",
    "prefecture_kana": "フクシマケン",
    "prefecture_code": 7,
    "city": "双葉郡浪江町",
    "city_kana": "フタバグンナミエマチ",
    "town": "樋渡",
    "town_kana": "ヒワタシ",
    "street": null,
    "office_name": null,
    "office_name_kana": null
  },
  "1533": {
    "postcode": "9791533",
    "prefecture": "福島県",
    "prefecture_kana": "フクシマケン",
    "prefecture_code": 7,
    "city": "双葉郡浪江町",
    "city_kana": "フタバグンナミエマチ",
    "town": "酒井",
    "town_kana": "サカイ",
    "street": null,
    "office_name": null,
    "office_name_kana": null
  },
  "1534": {
    "postcode": "9791534",
    "prefecture": "福島県",
    "prefecture_kana": "フクシマケン",
    "prefecture_code": 7,
    "city": "双葉郡浪江町",
    "city_kana": "フタバグンナミエマチ",
    "town": "谷津田",
    "town_kana": "ヤツダ",
    "street": null,
    "office_name": null,
    "office_name_kana": null
  },
  "1535": {
    "postcode": "9791535",
    "prefecture": "福島県",
    "prefecture_kana": "フクシマケン",
    "prefecture_code": 7,
    "city": "双葉郡浪江町",
    "city_kana": "フタバグンナミエマチ",
    "town": "井手",
    "town_kana": "イデ",
    "street": null,
    "office_name": null,
    "office_name_kana": null
  },
  "1536": {
    "postcode": "9791536",
    "prefecture": "福島県",
    "prefecture_kana": "フクシマケン",
    "prefecture_code": 7,
    "city": "双葉郡浪江町",
    "city_kana": "フタバグンナミエマチ",
    "town": "加倉",
    "town_kana": "カクラ",
    "street": null,
    "office_name": null,
    "office_name_kana": null
  },
  "1541": {
    "postcode": "9791541",
    "prefecture": "福島県",
    "prefecture_kana": "フクシマケン",
    "prefecture_code": 7,
    "city": "双葉郡浪江町",
    "city_kana": "フタバグンナミエマチ",
    "town": "田尻",
    "town_kana": "タジリ",
    "street": null,
    "office_name": null,
    "office_name_kana": null
  },
  "1542": {
    "postcode": "9791542",
    "prefecture": "福島県",
    "prefecture_kana": "フクシマケン",
    "prefecture_code": 7,
    "city": "双葉郡浪江町",
    "city_kana": "フタバグンナミエマチ",
    "town": "末森",
    "town_kana": "スエノモリ",
    "street": null,
    "office_name": null,
    "office_name_kana": null
  },
  "1543": {
    "postcode": "9791543",
    "prefecture": "福島県",
    "prefecture_kana": "フクシマケン",
    "prefecture_code": 7,
    "city": "双葉郡浪江町",
    "city_kana": "フタバグンナミエマチ",
    "town": "小野田",
    "town_kana": "オノダ",
    "street": null,
    "office_name": null,
    "office_name_kana": null
  },
  "1544": {
    "postcode": "9791544",
    "prefecture": "福島県",
    "prefecture_kana": "フクシマケン",
    "prefecture_code": 7,
    "city": "双葉郡浪江町",
    "city_kana": "フタバグンナミエマチ",
    "town": "大堀",
    "town_kana": "オオボリ",
    "street": null,
    "office_name": null,
    "office_name_kana": null
  },
  "1545": {
    "postcode": "9791545",
    "prefecture": "福島県",
    "prefecture_kana": "フクシマケン",
    "prefecture_code": 7,
    "city": "双葉郡浪江町",
    "city_kana": "フタバグンナミエマチ",
    "town": "小丸",
    "town_kana": "オマル",
    "street": null,
    "office_name": null,
    "office_name_kana": null
  },
  "1592": {
    "postcode": "9791592",
    "prefecture": "福島県",
    "prefecture_kana": "フクシマケン",
    "prefecture_code": 7,
    "city": "双葉郡浪江町",
    "city_kana": "フタバグンナミエマチ",
    "town": "大字幾世橋",
    "town_kana": null,
    "street": "字六反田７−２",
    "office_name": "浪江町役場",
    "office_name_kana": "ナミエマチヤクバ"
  },
  "1600": {
    "postcode": "9791600",
    "prefecture": "福島県",
    "prefecture_kana": "フクシマケン",
    "prefecture_code": 7,
    "city": "双葉郡葛尾村",
    "city_kana": "フタバグンカツラオムラ",
    "town": "",
    "town_kana": "",
    "street": null,
    "office_name": null,
    "office_name_kana": null
  },
  "1601": {
    "postcode": "9791601",
    "prefecture": "福島県",
    "prefecture_kana": "フクシマケン",
    "prefecture_code": 7,
    "city": "双葉郡葛尾村",
    "city_kana": "フタバグンカツラオムラ",
    "town": "葛尾",
    "town_kana": "カツラオ",
    "street": null,
    "office_name": null,
    "office_name_kana": null
  },
  "1602": {
    "postcode": "9791602",
    "prefecture": "福島県",
    "prefecture_kana": "フクシマケン",
    "prefecture_code": 7,
    "city": "双葉郡葛尾村",
    "city_kana": "フタバグンカツラオムラ",
    "town": "落合",
    "town_kana": "オチアイ",
    "street": null,
    "office_name": null,
    "office_name_kana": null
  },
  "1603": {
    "postcode": "9791603",
    "prefecture": "福島県",
    "prefecture_kana": "フクシマケン",
    "prefecture_code": 7,
    "city": "双葉郡葛尾村",
    "city_kana": "フタバグンカツラオムラ",
    "town": "野川",
    "town_kana": "ノガワ",
    "street": null,
    "office_name": null,
    "office_name_kana": null
  },
  "1604": {
    "postcode": "9791604",
    "prefecture": "福島県",
    "prefecture_kana": "フクシマケン",
    "prefecture_code": 7,
    "city": "双葉郡葛尾村",
    "city_kana": "フタバグンカツラオムラ",
    "town": "上野川",
    "town_kana": "カミノガワ",
    "street": null,
    "office_name": null,
    "office_name_kana": null
  },
  "1706": {
    "postcode": "9791706",
    "prefecture": "福島県",
    "prefecture_kana": "フクシマケン",
    "prefecture_code": 7,
    "city": "双葉郡浪江町",
    "city_kana": "フタバグンナミエマチ",
    "town": "室原",
    "town_kana": "ムロハラ",
    "street": null,
    "office_name": null,
    "office_name_kana": null
  },
  "1751": {
    "postcode": "9791751",
    "prefecture": "福島県",
    "prefecture_kana": "フクシマケン",
    "prefecture_code": 7,
    "city": "双葉郡浪江町",
    "city_kana": "フタバグンナミエマチ",
    "town": "赤宇木",
    "town_kana": "アコウギ",
    "street": null,
    "office_name": null,
    "office_name_kana": null
  },
  "1752": {
    "postcode": "9791752",
    "prefecture": "福島県",
    "prefecture_kana": "フクシマケン",
    "prefecture_code": 7,
    "city": "双葉郡浪江町",
    "city_kana": "フタバグンナミエマチ",
    "town": "昼曽根",
    "town_kana": "ヒルソネ",
    "street": null,
    "office_name": null,
    "office_name_kana": null
  },
  "1753": {
    "postcode": "9791753",
    "prefecture": "福島県",
    "prefecture_kana": "フクシマケン",
    "prefecture_code": 7,
    "city": "双葉郡浪江町",
    "city_kana": "フタバグンナミエマチ",
    "town": "川房",
    "town_kana": "カワブサ",
    "street": null,
    "office_name": null,
    "office_name_kana": null
  },
  "1754": {
    "postcode": "9791754",
    "prefecture": "福島県",
    "prefecture_kana": "フクシマケン",
    "prefecture_code": 7,
    "city": "双葉郡浪江町",
    "city_kana": "フタバグンナミエマチ",
    "town": "南津島",
    "town_kana": "ミナミツシマ",
    "street": null,
    "office_name": null,
    "office_name_kana": null
  },
  "1755": {
    "postcode": "9791755",
    "prefecture": "福島県",
    "prefecture_kana": "フクシマケン",
    "prefecture_code": 7,
    "city": "双葉郡浪江町",
    "city_kana": "フタバグンナミエマチ",
    "town": "羽附",
    "town_kana": "ハツケ",
    "street": null,
    "office_name": null,
    "office_name_kana": null
  },
  "1756": {
    "postcode": "9791756",
    "prefecture": "福島県",
    "prefecture_kana": "フクシマケン",
    "prefecture_code": 7,
    "city": "双葉郡浪江町",
    "city_kana": "フタバグンナミエマチ",
    "town": "下津島",
    "town_kana": "シモツシマ",
    "street": null,
    "office_name": null,
    "office_name_kana": null
  },
  "1757": {
    "postcode": "9791757",
    "prefecture": "福島県",
    "prefecture_kana": "フクシマケン",
    "prefecture_code": 7,
    "city": "双葉郡浪江町",
    "city_kana": "フタバグンナミエマチ",
    "town": "津島",
    "town_kana": "ツシマ",
    "street": null,
    "office_name": null,
    "office_name_kana": null
  },
  "2101": {
    "postcode": "9792101",
    "prefecture": "福島県",
    "prefecture_kana": "フクシマケン",
    "prefecture_code": 7,
    "city": "南相馬市",
    "city_kana": "ミナミソウマシ",
    "town": "小高区片草",
    "town_kana": "オダカクカタクサ",
    "street": null,
    "office_name": null,
    "office_name_kana": null
  },
  "2102": {
    "postcode": "9792102",
    "prefecture": "福島県",
    "prefecture_kana": "フクシマケン",
    "prefecture_code": 7,
    "city": "南相馬市",
    "city_kana": "ミナミソウマシ",
    "town": "小高区小高",
    "town_kana": "オダカクオダカ",
    "street": null,
    "office_name": null,
    "office_name_kana": null
  },
  "2103": {
    "postcode": "9792103",
    "prefecture": "福島県",
    "prefecture_kana": "フクシマケン",
    "prefecture_code": 7,
    "city": "南相馬市",
    "city_kana": "ミナミソウマシ",
    "town": "小高区大井",
    "town_kana": "オダカクオオイ",
    "street": null,
    "office_name": null,
    "office_name_kana": null
  },
  "2104": {
    "postcode": "9792104",
    "prefecture": "福島県",
    "prefecture_kana": "フクシマケン",
    "prefecture_code": 7,
    "city": "南相馬市",
    "city_kana": "ミナミソウマシ",
    "town": "小高区塚原",
    "town_kana": "オダカクツカバラ",
    "street": null,
    "office_name": null,
    "office_name_kana": null
  },
  "2111": {
    "postcode": "9792111",
    "prefecture": "福島県",
    "prefecture_kana": "フクシマケン",
    "prefecture_code": 7,
    "city": "南相馬市",
    "city_kana": "ミナミソウマシ",
    "town": "小高区仲町",
    "town_kana": "オダカクナカマチ",
    "street": null,
    "office_name": null,
    "office_name_kana": null
  },
  "2112": {
    "postcode": "9792112",
    "prefecture": "福島県",
    "prefecture_kana": "フクシマケン",
    "prefecture_code": 7,
    "city": "南相馬市",
    "city_kana": "ミナミソウマシ",
    "town": "小高区田町",
    "town_kana": "オダカクタマチ",
    "street": null,
    "office_name": null,
    "office_name_kana": null
  },
  "2113": {
    "postcode": "9792113",
    "prefecture": "福島県",
    "prefecture_kana": "フクシマケン",
    "prefecture_code": 7,
    "city": "南相馬市",
    "city_kana": "ミナミソウマシ",
    "town": "小高区関場",
    "town_kana": "オダカクセキバ",
    "street": null,
    "office_name": null,
    "office_name_kana": null
  },
  "2114": {
    "postcode": "9792114",
    "prefecture": "福島県",
    "prefecture_kana": "フクシマケン",
    "prefecture_code": 7,
    "city": "南相馬市",
    "city_kana": "ミナミソウマシ",
    "town": "小高区西町",
    "town_kana": "オダカクニシマチ",
    "street": null,
    "office_name": null,
    "office_name_kana": null
  },
  "2115": {
    "postcode": "9792115",
    "prefecture": "福島県",
    "prefecture_kana": "フクシマケン",
    "prefecture_code": 7,
    "city": "南相馬市",
    "city_kana": "ミナミソウマシ",
    "town": "小高区上町",
    "town_kana": "オダカクカミマチ",
    "street": null,
    "office_name": null,
    "office_name_kana": null
  },
  "2121": {
    "postcode": "9792121",
    "prefecture": "福島県",
    "prefecture_kana": "フクシマケン",
    "prefecture_code": 7,
    "city": "南相馬市",
    "city_kana": "ミナミソウマシ",
    "town": "小高区東町",
    "town_kana": "オダカクヒガシマチ",
    "street": null,
    "office_name": null,
    "office_name_kana": null
  },
  "2122": {
    "postcode": "9792122",
    "prefecture": "福島県",
    "prefecture_kana": "フクシマケン",
    "prefecture_code": 7,
    "city": "南相馬市",
    "city_kana": "ミナミソウマシ",
    "town": "小高区南町",
    "town_kana": "オダカクミナミマチ",
    "street": null,
    "office_name": null,
    "office_name_kana": null
  },
  "2123": {
    "postcode": "9792123",
    "prefecture": "福島県",
    "prefecture_kana": "フクシマケン",
    "prefecture_code": 7,
    "city": "南相馬市",
    "city_kana": "ミナミソウマシ",
    "town": "小高区大町",
    "town_kana": "オダカクオオマチ",
    "street": null,
    "office_name": null,
    "office_name_kana": null
  },
  "2124": {
    "postcode": "9792124",
    "prefecture": "福島県",
    "prefecture_kana": "フクシマケン",
    "prefecture_code": 7,
    "city": "南相馬市",
    "city_kana": "ミナミソウマシ",
    "town": "小高区本町",
    "town_kana": "オダカクモトマチ",
    "street": null,
    "office_name": null,
    "office_name_kana": null
  },
  "2131": {
    "postcode": "9792131",
    "prefecture": "福島県",
    "prefecture_kana": "フクシマケン",
    "prefecture_code": 7,
    "city": "南相馬市",
    "city_kana": "ミナミソウマシ",
    "town": "小高区福岡",
    "town_kana": "オダカクフクオカ",
    "street": null,
    "office_name": null,
    "office_name_kana": null
  },
  "2132": {
    "postcode": "9792132",
    "prefecture": "福島県",
    "prefecture_kana": "フクシマケン",
    "prefecture_code": 7,
    "city": "南相馬市",
    "city_kana": "ミナミソウマシ",
    "town": "小高区水谷",
    "town_kana": "オダカクミズガイ",
    "street": null,
    "office_name": null,
    "office_name_kana": null
  },
  "2133": {
    "postcode": "9792133",
    "prefecture": "福島県",
    "prefecture_kana": "フクシマケン",
    "prefecture_code": 7,
    "city": "南相馬市",
    "city_kana": "ミナミソウマシ",
    "town": "小高区泉沢",
    "town_kana": "オダカクイズミサワ",
    "street": null,
    "office_name": null,
    "office_name_kana": null
  },
  "2134": {
    "postcode": "9792134",
    "prefecture": "福島県",
    "prefecture_kana": "フクシマケン",
    "prefecture_code": 7,
    "city": "南相馬市",
    "city_kana": "ミナミソウマシ",
    "town": "小高区岡田",
    "town_kana": "オダカクオカダ",
    "street": null,
    "office_name": null,
    "office_name_kana": null
  },
  "2141": {
    "postcode": "9792141",
    "prefecture": "福島県",
    "prefecture_kana": "フクシマケン",
    "prefecture_code": 7,
    "city": "南相馬市",
    "city_kana": "ミナミソウマシ",
    "town": "小高区村上",
    "town_kana": "オダカクムラカミ",
    "street": null,
    "office_name": null,
    "office_name_kana": null
  },
  "2142": {
    "postcode": "9792142",
    "prefecture": "福島県",
    "prefecture_kana": "フクシマケン",
    "prefecture_code": 7,
    "city": "南相馬市",
    "city_kana": "ミナミソウマシ",
    "town": "小高区角部内",
    "town_kana": "オダカクツノベウチ",
    "street": null,
    "office_name": null,
    "office_name_kana": null
  },
  "2143": {
    "postcode": "9792143",
    "prefecture": "福島県",
    "prefecture_kana": "フクシマケン",
    "prefecture_code": 7,
    "city": "南相馬市",
    "city_kana": "ミナミソウマシ",
    "town": "小高区蛯沢",
    "town_kana": "オダカクエビサワ",
    "street": null,
    "office_name": null,
    "office_name_kana": null
  },
  "2144": {
    "postcode": "9792144",
    "prefecture": "福島県",
    "prefecture_kana": "フクシマケン",
    "prefecture_code": 7,
    "city": "南相馬市",
    "city_kana": "ミナミソウマシ",
    "town": "小高区井田川",
    "town_kana": "オダカクイダガワ",
    "street": null,
    "office_name": null,
    "office_name_kana": null
  },
  "2145": {
    "postcode": "9792145",
    "prefecture": "福島県",
    "prefecture_kana": "フクシマケン",
    "prefecture_code": 7,
    "city": "南相馬市",
    "city_kana": "ミナミソウマシ",
    "town": "小高区浦尻",
    "town_kana": "オダカクウラジリ",
    "street": null,
    "office_name": null,
    "office_name_kana": null
  },
  "2146": {
    "postcode": "9792146",
    "prefecture": "福島県",
    "prefecture_kana": "フクシマケン",
    "prefecture_code": 7,
    "city": "南相馬市",
    "city_kana": "ミナミソウマシ",
    "town": "小高区下浦",
    "town_kana": "オダカクシモウラ",
    "street": null,
    "office_name": null,
    "office_name_kana": null
  },
  "2147": {
    "postcode": "9792147",
    "prefecture": "福島県",
    "prefecture_kana": "フクシマケン",
    "prefecture_code": 7,
    "city": "南相馬市",
    "city_kana": "ミナミソウマシ",
    "town": "小高区女場",
    "town_kana": "オダカクオナバ",
    "street": null,
    "office_name": null,
    "office_name_kana": null
  },
  "2151": {
    "postcode": "9792151",
    "prefecture": "福島県",
    "prefecture_kana": "フクシマケン",
    "prefecture_code": 7,
    "city": "南相馬市",
    "city_kana": "ミナミソウマシ",
    "town": "小高区耳谷",
    "town_kana": "オダカクミミガイ",
    "street": null,
    "office_name": null,
    "office_name_kana": null
  },
  "2152": {
    "postcode": "9792152",
    "prefecture": "福島県",
    "prefecture_kana": "フクシマケン",
    "prefecture_code": 7,
    "city": "南相馬市",
    "city_kana": "ミナミソウマシ",
    "town": "小高区行津",
    "town_kana": "オダカクナメヅ",
    "street": null,
    "office_name": null,
    "office_name_kana": null
  },
  "2153": {
    "postcode": "9792153",
    "prefecture": "福島県",
    "prefecture_kana": "フクシマケン",
    "prefecture_code": 7,
    "city": "南相馬市",
    "city_kana": "ミナミソウマシ",
    "town": "小高区上浦",
    "town_kana": "オダカクカミウラ",
    "street": null,
    "office_name": null,
    "office_name_kana": null
  },
  "2154": {
    "postcode": "9792154",
    "prefecture": "福島県",
    "prefecture_kana": "フクシマケン",
    "prefecture_code": 7,
    "city": "南相馬市",
    "city_kana": "ミナミソウマシ",
    "town": "小高区神山",
    "town_kana": "オダカクカミヤマ",
    "street": null,
    "office_name": null,
    "office_name_kana": null
  },
  "2155": {
    "postcode": "9792155",
    "prefecture": "福島県",
    "prefecture_kana": "フクシマケン",
    "prefecture_code": 7,
    "city": "南相馬市",
    "city_kana": "ミナミソウマシ",
    "town": "小高区上根沢",
    "town_kana": "オダカクウワネザワ",
    "street": null,
    "office_name": null,
    "office_name_kana": null
  },
  "2156": {
    "postcode": "9792156",
    "prefecture": "福島県",
    "prefecture_kana": "フクシマケン",
    "prefecture_code": 7,
    "city": "南相馬市",
    "city_kana": "ミナミソウマシ",
    "town": "小高区小屋木",
    "town_kana": "オダカクコヤギ",
    "street": null,
    "office_name": null,
    "office_name_kana": null
  },
  "2157": {
    "postcode": "9792157",
    "prefecture": "福島県",
    "prefecture_kana": "フクシマケン",
    "prefecture_code": 7,
    "city": "南相馬市",
    "city_kana": "ミナミソウマシ",
    "town": "小高区吉名",
    "town_kana": "オダカクヨシナ",
    "street": null,
    "office_name": null,
    "office_name_kana": null
  },
  "2161": {
    "postcode": "9792161",
    "prefecture": "福島県",
    "prefecture_kana": "フクシマケン",
    "prefecture_code": 7,
    "city": "南相馬市",
    "city_kana": "ミナミソウマシ",
    "town": "小高区藤木",
    "town_kana": "オダカクフジキ",
    "street": null,
    "office_name": null,
    "office_name_kana": null
  },
  "2162": {
    "postcode": "9792162",
    "prefecture": "福島県",
    "prefecture_kana": "フクシマケン",
    "prefecture_code": 7,
    "city": "南相馬市",
    "city_kana": "ミナミソウマシ",
    "town": "小高区飯崎",
    "town_kana": "オダカクハンサキ",
    "street": null,
    "office_name": null,
    "office_name_kana": null
  },
  "2163": {
    "postcode": "9792163",
    "prefecture": "福島県",
    "prefecture_kana": "フクシマケン",
    "prefecture_code": 7,
    "city": "南相馬市",
    "city_kana": "ミナミソウマシ",
    "town": "小高区大田和",
    "town_kana": "オダカクオオタワ",
    "street": null,
    "office_name": null,
    "office_name_kana": null
  },
  "2164": {
    "postcode": "9792164",
    "prefecture": "福島県",
    "prefecture_kana": "フクシマケン",
    "prefecture_code": 7,
    "city": "南相馬市",
    "city_kana": "ミナミソウマシ",
    "town": "小高区川房",
    "town_kana": "オダカクカワブサ",
    "street": null,
    "office_name": null,
    "office_name_kana": null
  },
  "2165": {
    "postcode": "9792165",
    "prefecture": "福島県",
    "prefecture_kana": "フクシマケン",
    "prefecture_code": 7,
    "city": "南相馬市",
    "city_kana": "ミナミソウマシ",
    "town": "小高区金谷",
    "town_kana": "オダカクカナヤ",
    "street": null,
    "office_name": null,
    "office_name_kana": null
  },
  "2171": {
    "postcode": "9792171",
    "prefecture": "福島県",
    "prefecture_kana": "フクシマケン",
    "prefecture_code": 7,
    "city": "南相馬市",
    "city_kana": "ミナミソウマシ",
    "town": "小高区北鳩原",
    "town_kana": "オダカクキタハツパラ",
    "street": null,
    "office_name": null,
    "office_name_kana": null
  },
  "2172": {
    "postcode": "9792172",
    "prefecture": "福島県",
    "prefecture_kana": "フクシマケン",
    "prefecture_code": 7,
    "city": "南相馬市",
    "city_kana": "ミナミソウマシ",
    "town": "小高区南鳩原",
    "town_kana": "オダカクミナミハツパラ",
    "street": null,
    "office_name": null,
    "office_name_kana": null
  },
  "2173": {
    "postcode": "9792173",
    "prefecture": "福島県",
    "prefecture_kana": "フクシマケン",
    "prefecture_code": 7,
    "city": "南相馬市",
    "city_kana": "ミナミソウマシ",
    "town": "小高区小谷",
    "town_kana": "オダカクオヤ",
    "street": null,
    "office_name": null,
    "office_name_kana": null
  },
  "2174": {
    "postcode": "9792174",
    "prefecture": "福島県",
    "prefecture_kana": "フクシマケン",
    "prefecture_code": 7,
    "city": "南相馬市",
    "city_kana": "ミナミソウマシ",
    "town": "小高区大富",
    "town_kana": "オダカクオオトミ",
    "street": null,
    "office_name": null,
    "office_name_kana": null
  },
  "2175": {
    "postcode": "9792175",
    "prefecture": "福島県",
    "prefecture_kana": "フクシマケン",
    "prefecture_code": 7,
    "city": "南相馬市",
    "city_kana": "ミナミソウマシ",
    "town": "小高区羽倉",
    "town_kana": "オダカクハノクラ",
    "street": null,
    "office_name": null,
    "office_name_kana": null
  },
  "2195": {
    "postcode": "9792195",
    "prefecture": "福島県",
    "prefecture_kana": "フクシマケン",
    "prefecture_code": 7,
    "city": "南相馬市",
    "city_kana": "ミナミソウマシ",
    "town": "小高区本町",
    "town_kana": "オダカクモトマチ",
    "street": "２丁目７８",
    "office_name": "南相馬市　小高区役所",
    "office_name_kana": "ミナミソウマシ オダカクヤクシヨ"
  },
  "2301": {
    "postcode": "9792301",
    "prefecture": "福島県",
    "prefecture_kana": "フクシマケン",
    "prefecture_code": 7,
    "city": "南相馬市",
    "city_kana": "ミナミソウマシ",
    "town": "鹿島区永渡",
    "town_kana": "カシマクナガワタリ",
    "street": null,
    "office_name": null,
    "office_name_kana": null
  },
  "2302": {
    "postcode": "9792302",
    "prefecture": "福島県",
    "prefecture_kana": "フクシマケン",
    "prefecture_code": 7,
    "city": "南相馬市",
    "city_kana": "ミナミソウマシ",
    "town": "鹿島区南柚木",
    "town_kana": "カシマクミナミユノキ",
    "street": null,
    "office_name": null,
    "office_name_kana": null
  },
  "2303": {
    "postcode": "9792303",
    "prefecture": "福島県",
    "prefecture_kana": "フクシマケン",
    "prefecture_code": 7,
    "city": "南相馬市",
    "city_kana": "ミナミソウマシ",
    "town": "鹿島区北屋形",
    "town_kana": "カシマクキタヤカタ",
    "street": null,
    "office_name": null,
    "office_name_kana": null
  },
  "2304": {
    "postcode": "9792304",
    "prefecture": "福島県",
    "prefecture_kana": "フクシマケン",
    "prefecture_code": 7,
    "city": "南相馬市",
    "city_kana": "ミナミソウマシ",
    "town": "鹿島区南屋形",
    "town_kana": "カシマクミナミヤカタ",
    "street": null,
    "office_name": null,
    "office_name_kana": null
  },
  "2305": {
    "postcode": "9792305",
    "prefecture": "福島県",
    "prefecture_kana": "フクシマケン",
    "prefecture_code": 7,
    "city": "南相馬市",
    "city_kana": "ミナミソウマシ",
    "town": "鹿島区永田",
    "town_kana": "カシマクナガタ",
    "street": null,
    "office_name": null,
    "office_name_kana": null
  },
  "2311": {
    "postcode": "9792311",
    "prefecture": "福島県",
    "prefecture_kana": "フクシマケン",
    "prefecture_code": 7,
    "city": "南相馬市",
    "city_kana": "ミナミソウマシ",
    "town": "鹿島区北海老",
    "town_kana": "カシマクキタエビ",
    "street": null,
    "office_name": null,
    "office_name_kana": null
  },
  "2312": {
    "postcode": "9792312",
    "prefecture": "福島県",
    "prefecture_kana": "フクシマケン",
    "prefecture_code": 7,
    "city": "南相馬市",
    "city_kana": "ミナミソウマシ",
    "town": "鹿島区南海老",
    "town_kana": "カシマクミナミエビ",
    "street": null,
    "office_name": null,
    "office_name_kana": null
  },
  "2313": {
    "postcode": "9792313",
    "prefecture": "福島県",
    "prefecture_kana": "フクシマケン",
    "prefecture_code": 7,
    "city": "南相馬市",
    "city_kana": "ミナミソウマシ",
    "town": "鹿島区北右田",
    "town_kana": "カシマクキタミギタ",
    "street": null,
    "office_name": null,
    "office_name_kana": null
  },
  "2314": {
    "postcode": "9792314",
    "prefecture": "福島県",
    "prefecture_kana": "フクシマケン",
    "prefecture_code": 7,
    "city": "南相馬市",
    "city_kana": "ミナミソウマシ",
    "town": "鹿島区南右田",
    "town_kana": "カシマクミナミミギタ",
    "street": null,
    "office_name": null,
    "office_name_kana": null
  },
  "2321": {
    "postcode": "9792321",
    "prefecture": "福島県",
    "prefecture_kana": "フクシマケン",
    "prefecture_code": 7,
    "city": "南相馬市",
    "city_kana": "ミナミソウマシ",
    "town": "鹿島区小島田",
    "town_kana": "カシマクオシマダ",
    "street": null,
    "office_name": null,
    "office_name_kana": null
  },
  "2322": {
    "postcode": "9792322",
    "prefecture": "福島県",
    "prefecture_kana": "フクシマケン",
    "prefecture_code": 7,
    "city": "南相馬市",
    "city_kana": "ミナミソウマシ",
    "town": "鹿島区大内",
    "town_kana": "カシマクオオウチ",
    "street": null,
    "office_name": null,
    "office_name_kana": null
  },
  "2323": {
    "postcode": "9792323",
    "prefecture": "福島県",
    "prefecture_kana": "フクシマケン",
    "prefecture_code": 7,
    "city": "南相馬市",
    "city_kana": "ミナミソウマシ",
    "town": "鹿島区烏崎",
    "town_kana": "カシマクカラスザキ",
    "street": null,
    "office_name": null,
    "office_name_kana": null
  },
  "2324": {
    "postcode": "9792324",
    "prefecture": "福島県",
    "prefecture_kana": "フクシマケン",
    "prefecture_code": 7,
    "city": "南相馬市",
    "city_kana": "ミナミソウマシ",
    "town": "鹿島区川子",
    "town_kana": "カシマクカワゴ",
    "street": null,
    "office_name": null,
    "office_name_kana": null
  },
  "2331": {
    "postcode": "9792331",
    "prefecture": "福島県",
    "prefecture_kana": "フクシマケン",
    "prefecture_code": 7,
    "city": "南相馬市",
    "city_kana": "ミナミソウマシ",
    "town": "鹿島区江垂",
    "town_kana": "カシマクエタリ",
    "street": null,
    "office_name": null,
    "office_name_kana": null
  },
  "2332": {
    "postcode": "9792332",
    "prefecture": "福島県",
    "prefecture_kana": "フクシマケン",
    "prefecture_code": 7,
    "city": "南相馬市",
    "city_kana": "ミナミソウマシ",
    "town": "鹿島区塩崎",
    "town_kana": "カシマクシオノサキ",
    "street": null,
    "office_name": null,
    "office_name_kana": null
  },
  "2333": {
    "postcode": "9792333",
    "prefecture": "福島県",
    "prefecture_kana": "フクシマケン",
    "prefecture_code": 7,
    "city": "南相馬市",
    "city_kana": "ミナミソウマシ",
    "town": "鹿島区寺内",
    "town_kana": "カシマクテラウチ",
    "street": null,
    "office_name": null,
    "office_name_kana": null
  },
  "2334": {
    "postcode": "9792334",
    "prefecture": "福島県",
    "prefecture_kana": "フクシマケン",
    "prefecture_code": 7,
    "city": "南相馬市",
    "city_kana": "ミナミソウマシ",
    "town": "鹿島区西町",
    "town_kana": "カシマクニシマチ",
    "street": null,
    "office_name": null,
    "office_name_kana": null
  },
  "2335": {
    "postcode": "9792335",
    "prefecture": "福島県",
    "prefecture_kana": "フクシマケン",
    "prefecture_code": 7,
    "city": "南相馬市",
    "city_kana": "ミナミソウマシ",
    "town": "鹿島区鹿島",
    "town_kana": "カシマクカシマ",
    "street": null,
    "office_name": null,
    "office_name_kana": null
  },
  "2336": {
    "postcode": "9792336",
    "prefecture": "福島県",
    "prefecture_kana": "フクシマケン",
    "prefecture_code": 7,
    "city": "南相馬市",
    "city_kana": "ミナミソウマシ",
    "town": "鹿島区あさひ",
    "town_kana": "カシマクアサヒ",
    "street": null,
    "office_name": null,
    "office_name_kana": null
  },
  "2392": {
    "postcode": "9792392",
    "prefecture": "福島県",
    "prefecture_kana": "フクシマケン",
    "prefecture_code": 7,
    "city": "南相馬市",
    "city_kana": "ミナミソウマシ",
    "town": "鹿島区西町",
    "town_kana": "カシマクニシマチ",
    "street": "１丁目１番地",
    "office_name": "南相馬市　鹿島区役所",
    "office_name_kana": "ミナミソウマシ カシマクヤクシヨ"
  },
  "2393": {
    "postcode": "9792393",
    "prefecture": "福島県",
    "prefecture_kana": "フクシマケン",
    "prefecture_code": 7,
    "city": "南相馬市",
    "city_kana": "ミナミソウマシ",
    "town": "鹿島区鹿島",
    "town_kana": "カシマクカシマ",
    "street": "字町１３０",
    "office_name": "株式会社　菅野漬物食品",
    "office_name_kana": "カブシキガイシヤ カンノツケモノシヨクヒン"
  },
  "2394": {
    "postcode": "9792394",
    "prefecture": "福島県",
    "prefecture_kana": "フクシマケン",
    "prefecture_code": 7,
    "city": "南相馬市",
    "city_kana": "ミナミソウマシ",
    "town": "鹿島区塩崎",
    "town_kana": "カシマクシオノサキ",
    "street": "字蛇沼３１",
    "office_name": "鹿島総業　株式会社　鹿島カントリー倶楽部",
    "office_name_kana": "カシマソウギヨウ カブシキガイシヤ カシマカントリ-クラブ"
  },
  "2441": {
    "postcode": "9792441",
    "prefecture": "福島県",
    "prefecture_kana": "フクシマケン",
    "prefecture_code": 7,
    "city": "南相馬市",
    "city_kana": "ミナミソウマシ",
    "town": "鹿島区角川原",
    "town_kana": "カシマクツノガワラ",
    "street": null,
    "office_name": null,
    "office_name_kana": null
  },
  "2442": {
    "postcode": "9792442",
    "prefecture": "福島県",
    "prefecture_kana": "フクシマケン",
    "prefecture_code": 7,
    "city": "南相馬市",
    "city_kana": "ミナミソウマシ",
    "town": "鹿島区横手",
    "town_kana": "カシマクヨコテ",
    "street": null,
    "office_name": null,
    "office_name_kana": null
  },
  "2443": {
    "postcode": "9792443",
    "prefecture": "福島県",
    "prefecture_kana": "フクシマケン",
    "prefecture_code": 7,
    "city": "南相馬市",
    "city_kana": "ミナミソウマシ",
    "town": "鹿島区牛河内",
    "town_kana": "カシマクウシコウチ",
    "street": null,
    "office_name": null,
    "office_name_kana": null
  },
  "2444": {
    "postcode": "9792444",
    "prefecture": "福島県",
    "prefecture_kana": "フクシマケン",
    "prefecture_code": 7,
    "city": "南相馬市",
    "city_kana": "ミナミソウマシ",
    "town": "鹿島区岡和田",
    "town_kana": "カシマクオカワダ",
    "street": null,
    "office_name": null,
    "office_name_kana": null
  },
  "2451": {
    "postcode": "9792451",
    "prefecture": "福島県",
    "prefecture_kana": "フクシマケン",
    "prefecture_code": 7,
    "city": "南相馬市",
    "city_kana": "ミナミソウマシ",
    "town": "鹿島区浮田",
    "town_kana": "カシマクウキタ",
    "street": null,
    "office_name": null,
    "office_name_kana": null
  },
  "2452": {
    "postcode": "9792452",
    "prefecture": "福島県",
    "prefecture_kana": "フクシマケン",
    "prefecture_code": 7,
    "city": "南相馬市",
    "city_kana": "ミナミソウマシ",
    "town": "鹿島区小山田",
    "town_kana": "カシマクコヤマダ",
    "street": null,
    "office_name": null,
    "office_name_kana": null
  },
  "2453": {
    "postcode": "9792453",
    "prefecture": "福島県",
    "prefecture_kana": "フクシマケン",
    "prefecture_code": 7,
    "city": "南相馬市",
    "city_kana": "ミナミソウマシ",
    "town": "鹿島区小池",
    "town_kana": "カシマクコイケ",
    "street": null,
    "office_name": null,
    "office_name_kana": null
  },
  "2454": {
    "postcode": "9792454",
    "prefecture": "福島県",
    "prefecture_kana": "フクシマケン",
    "prefecture_code": 7,
    "city": "南相馬市",
    "city_kana": "ミナミソウマシ",
    "town": "鹿島区橲原",
    "town_kana": "カシマクジサバラ",
    "street": null,
    "office_name": null,
    "office_name_kana": null
  },
  "2461": {
    "postcode": "9792461",
    "prefecture": "福島県",
    "prefecture_kana": "フクシマケン",
    "prefecture_code": 7,
    "city": "南相馬市",
    "city_kana": "ミナミソウマシ",
    "town": "鹿島区山下",
    "town_kana": "カシマクヤマシタ",
    "street": null,
    "office_name": null,
    "office_name_kana": null
  },
  "2462": {
    "postcode": "9792462",
    "prefecture": "福島県",
    "prefecture_kana": "フクシマケン",
    "prefecture_code": 7,
    "city": "南相馬市",
    "city_kana": "ミナミソウマシ",
    "town": "鹿島区上栃窪",
    "town_kana": "カシマクカミトチクボ",
    "street": null,
    "office_name": null,
    "office_name_kana": null
  },
  "2463": {
    "postcode": "9792463",
    "prefecture": "福島県",
    "prefecture_kana": "フクシマケン",
    "prefecture_code": 7,
    "city": "南相馬市",
    "city_kana": "ミナミソウマシ",
    "town": "鹿島区栃窪",
    "town_kana": "カシマクトチクボ",
    "street": null,
    "office_name": null,
    "office_name_kana": null
  },
  "2464": {
    "postcode": "9792464",
    "prefecture": "福島県",
    "prefecture_kana": "フクシマケン",
    "prefecture_code": 7,
    "city": "南相馬市",
    "city_kana": "ミナミソウマシ",
    "town": "鹿島区御山",
    "town_kana": "カシマクオヤマ",
    "street": null,
    "office_name": null,
    "office_name_kana": null
  },
  "2501": {
    "postcode": "9792501",
    "prefecture": "福島県",
    "prefecture_kana": "フクシマケン",
    "prefecture_code": 7,
    "city": "相馬市",
    "city_kana": "ソウマシ",
    "town": "磯部",
    "town_kana": "イソベ",
    "street": null,
    "office_name": null,
    "office_name_kana": null
  },
  "2511": {
    "postcode": "9792511",
    "prefecture": "福島県",
    "prefecture_kana": "フクシマケン",
    "prefecture_code": 7,
    "city": "相馬市",
    "city_kana": "ソウマシ",
    "town": "蒲庭",
    "town_kana": "カバニワ",
    "street": null,
    "office_name": null,
    "office_name_kana": null
  },
  "2512": {
    "postcode": "9792512",
    "prefecture": "福島県",
    "prefecture_kana": "フクシマケン",
    "prefecture_code": 7,
    "city": "相馬市",
    "city_kana": "ソウマシ",
    "town": "柚木",
    "town_kana": "ユヌキ",
    "street": null,
    "office_name": null,
    "office_name_kana": null
  },
  "2521": {
    "postcode": "9792521",
    "prefecture": "福島県",
    "prefecture_kana": "フクシマケン",
    "prefecture_code": 7,
    "city": "相馬市",
    "city_kana": "ソウマシ",
    "town": "赤木",
    "town_kana": "アカギ",
    "street": null,
    "office_name": null,
    "office_name_kana": null
  },
  "2522": {
    "postcode": "9792522",
    "prefecture": "福島県",
    "prefecture_kana": "フクシマケン",
    "prefecture_code": 7,
    "city": "相馬市",
    "city_kana": "ソウマシ",
    "town": "日下石",
    "town_kana": "ニッケシ",
    "street": null,
    "office_name": null,
    "office_name_kana": null
  },
  "2531": {
    "postcode": "9792531",
    "prefecture": "福島県",
    "prefecture_kana": "フクシマケン",
    "prefecture_code": 7,
    "city": "相馬市",
    "city_kana": "ソウマシ",
    "town": "立谷",
    "town_kana": "タチヤ",
    "street": null,
    "office_name": null,
    "office_name_kana": null
  },
  "2532": {
    "postcode": "9792532",
    "prefecture": "福島県",
    "prefecture_kana": "フクシマケン",
    "prefecture_code": 7,
    "city": "相馬市",
    "city_kana": "ソウマシ",
    "town": "富沢",
    "town_kana": "トミザワ",
    "street": null,
    "office_name": null,
    "office_name_kana": null
  },
  "2533": {
    "postcode": "9792533",
    "prefecture": "福島県",
    "prefecture_kana": "フクシマケン",
    "prefecture_code": 7,
    "city": "相馬市",
    "city_kana": "ソウマシ",
    "town": "坪田",
    "town_kana": "ツボタ",
    "street": null,
    "office_name": null,
    "office_name_kana": null
  },
  "2541": {
    "postcode": "9792541",
    "prefecture": "福島県",
    "prefecture_kana": "フクシマケン",
    "prefecture_code": 7,
    "city": "相馬市",
    "city_kana": "ソウマシ",
    "town": "今田",
    "town_kana": "イマダ",
    "street": null,
    "office_name": null,
    "office_name_kana": null
  },
  "2542": {
    "postcode": "9792542",
    "prefecture": "福島県",
    "prefecture_kana": "フクシマケン",
    "prefecture_code": 7,
    "city": "相馬市",
    "city_kana": "ソウマシ",
    "town": "成田",
    "town_kana": "ナリタ",
    "street": null,
    "office_name": null,
    "office_name_kana": null
  },
  "2611": {
    "postcode": "9792611",
    "prefecture": "福島県",
    "prefecture_kana": "フクシマケン",
    "prefecture_code": 7,
    "city": "相馬郡新地町",
    "city_kana": "ソウマグンシンチマチ",
    "town": "駒ケ嶺",
    "town_kana": "コマガミネ",
    "street": null,
    "office_name": null,
    "office_name_kana": null
  },
  "2700": {
    "postcode": "9792700",
    "prefecture": "福島県",
    "prefecture_kana": "フクシマケン",
    "prefecture_code": 7,
    "city": "相馬郡新地町",
    "city_kana": "ソウマグンシンチマチ",
    "town": "",
    "town_kana": "",
    "street": null,
    "office_name": null,
    "office_name_kana": null
  },
  "2701": {
    "postcode": "9792701",
    "prefecture": "福島県",
    "prefecture_kana": "フクシマケン",
    "prefecture_code": 7,
    "city": "相馬郡新地町",
    "city_kana": "ソウマグンシンチマチ",
    "town": "埓木崎",
    "town_kana": "ラチキザキ",
    "street": null,
    "office_name": null,
    "office_name_kana": null
  },
  "2702": {
    "postcode": "9792702",
    "prefecture": "福島県",
    "prefecture_kana": "フクシマケン",
    "prefecture_code": 7,
    "city": "相馬郡新地町",
    "city_kana": "ソウマグンシンチマチ",
    "town": "谷地小屋",
    "town_kana": "ヤチゴヤ",
    "street": null,
    "office_name": null,
    "office_name_kana": null
  },
  "2703": {
    "postcode": "9792703",
    "prefecture": "福島県",
    "prefecture_kana": "フクシマケン",
    "prefecture_code": 7,
    "city": "相馬郡新地町",
    "city_kana": "ソウマグンシンチマチ",
    "town": "小川",
    "town_kana": "オガワ",
    "street": null,
    "office_name": null,
    "office_name_kana": null
  },
  "2704": {
    "postcode": "9792704",
    "prefecture": "福島県",
    "prefecture_kana": "フクシマケン",
    "prefecture_code": 7,
    "city": "相馬郡新地町",
    "city_kana": "ソウマグンシンチマチ",
    "town": "大戸浜",
    "town_kana": "オオドハマ",
    "street": null,
    "office_name": null,
    "office_name_kana": null
  },
  "2705": {
    "postcode": "9792705",
    "prefecture": "福島県",
    "prefecture_kana": "フクシマケン",
    "prefecture_code": 7,
    "city": "相馬郡新地町",
    "city_kana": "ソウマグンシンチマチ",
    "town": "今泉",
    "town_kana": "イマイズミ",
    "street": null,
    "office_name": null,
    "office_name_kana": null
  },
  "2706": {
    "postcode": "9792706",
    "prefecture": "福島県",
    "prefecture_kana": "フクシマケン",
    "prefecture_code": 7,
    "city": "相馬郡新地町",
    "city_kana": "ソウマグンシンチマチ",
    "town": "杉目",
    "town_kana": "スギノメ",
    "street": null,
    "office_name": null,
    "office_name_kana": null
  },
  "2707": {
    "postcode": "9792707",
    "prefecture": "福島県",
    "prefecture_kana": "フクシマケン",
    "prefecture_code": 7,
    "city": "相馬郡新地町",
    "city_kana": "ソウマグンシンチマチ",
    "town": "真弓",
    "town_kana": "マユミ",
    "street": null,
    "office_name": null,
    "office_name_kana": null
  },
  "2708": {
    "postcode": "9792708",
    "prefecture": "福島県",
    "prefecture_kana": "フクシマケン",
    "prefecture_code": 7,
    "city": "相馬郡新地町",
    "city_kana": "ソウマグンシンチマチ",
    "town": "福田",
    "town_kana": "フクダ",
    "street": null,
    "office_name": null,
    "office_name_kana": null
  },
  "2709": {
    "postcode": "9792709",
    "prefecture": "福島県",
    "prefecture_kana": "フクシマケン",
    "prefecture_code": 7,
    "city": "相馬郡新地町",
    "city_kana": "ソウマグンシンチマチ",
    "town": "駅前",
    "town_kana": "エキマエ",
    "street": null,
    "office_name": null,
    "office_name_kana": null
  },
  "2711": {
    "postcode": "9792711",
    "prefecture": "福島県",
    "prefecture_kana": "フクシマケン",
    "prefecture_code": 7,
    "city": "相馬郡新地町",
    "city_kana": "ソウマグンシンチマチ",
    "town": "中島",
    "town_kana": "ナカシマ",
    "street": null,
    "office_name": null,
    "office_name_kana": null
  },
  "2792": {
    "postcode": "9792792",
    "prefecture": "福島県",
    "prefecture_kana": "フクシマケン",
    "prefecture_code": 7,
    "city": "相馬郡新地町",
    "city_kana": "ソウマグンシンチマチ",
    "town": "谷地小屋",
    "town_kana": "ヤチゴヤ",
    "street": "字樋掛田３０",
    "office_name": "新地町役場",
    "office_name_kana": "シンチマチヤクバ"
  },
  "3111": {
    "postcode": "9793111",
    "prefecture": "福島県",
    "prefecture_kana": "フクシマケン",
    "prefecture_code": 7,
    "city": "いわき市",
    "city_kana": "イワキシ",
    "town": "小川町柴原",
    "town_kana": "オガワマチシバハラ",
    "street": null,
    "office_name": null,
    "office_name_kana": null
  },
  "3112": {
    "postcode": "9793112",
    "prefecture": "福島県",
    "prefecture_kana": "フクシマケン",
    "prefecture_code": 7,
    "city": "いわき市",
    "city_kana": "イワキシ",
    "town": "小川町上平",
    "town_kana": "オガワマチウワダイラ",
    "street": null,
    "office_name": null,
    "office_name_kana": null
  },
  "3113": {
    "postcode": "9793113",
    "prefecture": "福島県",
    "prefecture_kana": "フクシマケン",
    "prefecture_code": 7,
    "city": "いわき市",
    "city_kana": "イワキシ",
    "town": "小川町三島",
    "town_kana": "オガワマチミシマ",
    "street": null,
    "office_name": null,
    "office_name_kana": null
  },
  "3114": {
    "postcode": "9793114",
    "prefecture": "福島県",
    "prefecture_kana": "フクシマケン",
    "prefecture_code": 7,
    "city": "いわき市",
    "city_kana": "イワキシ",
    "town": "小川町関場",
    "town_kana": "オガワマチセキバ",
    "street": null,
    "office_name": null,
    "office_name_kana": null
  },
  "3115": {
    "postcode": "9793115",
    "prefecture": "福島県",
    "prefecture_kana": "フクシマケン",
    "prefecture_code": 7,
    "city": "いわき市",
    "city_kana": "イワキシ",
    "town": "小川町下小川",
    "town_kana": "オガワマチシモオガワ",
    "street": null,
    "office_name": null,
    "office_name_kana": null
  },
  "3121": {
    "postcode": "9793121",
    "prefecture": "福島県",
    "prefecture_kana": "フクシマケン",
    "prefecture_code": 7,
    "city": "いわき市",
    "city_kana": "イワキシ",
    "town": "小川町西小川",
    "town_kana": "オガワマチニシオガワ",
    "street": null,
    "office_name": null,
    "office_name_kana": null
  },
  "3122": {
    "postcode": "9793122",
    "prefecture": "福島県",
    "prefecture_kana": "フクシマケン",
    "prefecture_code": 7,
    "city": "いわき市",
    "city_kana": "イワキシ",
    "town": "小川町高萩",
    "town_kana": "オガワマチタカハギ",
    "street": null,
    "office_name": null,
    "office_name_kana": null
  },
  "3123": {
    "postcode": "9793123",
    "prefecture": "福島県",
    "prefecture_kana": "フクシマケン",
    "prefecture_code": 7,
    "city": "いわき市",
    "city_kana": "イワキシ",
    "town": "小川町塩田",
    "town_kana": "オガワマチシオダ",
    "street": null,
    "office_name": null,
    "office_name_kana": null
  },
  "3124": {
    "postcode": "9793124",
    "prefecture": "福島県",
    "prefecture_kana": "フクシマケン",
    "prefecture_code": 7,
    "city": "いわき市",
    "city_kana": "イワキシ",
    "town": "小川町上小川",
    "town_kana": "オガワマチカミオガワ",
    "street": null,
    "office_name": null,
    "office_name_kana": null
  },
  "3125": {
    "postcode": "9793125",
    "prefecture": "福島県",
    "prefecture_kana": "フクシマケン",
    "prefecture_code": 7,
    "city": "いわき市",
    "city_kana": "イワキシ",
    "town": "小川町福岡",
    "town_kana": "オガワマチフクオカ",
    "street": null,
    "office_name": null,
    "office_name_kana": null
  },
  "3131": {
    "postcode": "9793131",
    "prefecture": "福島県",
    "prefecture_kana": "フクシマケン",
    "prefecture_code": 7,
    "city": "いわき市",
    "city_kana": "イワキシ",
    "town": "平赤井",
    "town_kana": "タイラアカイ",
    "street": null,
    "office_name": null,
    "office_name_kana": null
  },
  "3132": {
    "postcode": "9793132",
    "prefecture": "福島県",
    "prefecture_kana": "フクシマケン",
    "prefecture_code": 7,
    "city": "いわき市",
    "city_kana": "イワキシ",
    "town": "平赤井比良",
    "town_kana": "タイラアカイヒラ",
    "street": null,
    "office_name": null,
    "office_name_kana": null
  },
  "3201": {
    "postcode": "9793201",
    "prefecture": "福島県",
    "prefecture_kana": "フクシマケン",
    "prefecture_code": 7,
    "city": "いわき市",
    "city_kana": "イワキシ",
    "town": "川前町川前",
    "town_kana": "カワマエマチカワマエ",
    "street": null,
    "office_name": null,
    "office_name_kana": null
  },
  "3202": {
    "postcode": "9793202",
    "prefecture": "福島県",
    "prefecture_kana": "フクシマケン",
    "prefecture_code": 7,
    "city": "いわき市",
    "city_kana": "イワキシ",
    "town": "川前町下桶売",
    "town_kana": "カワマエマチシモオケウリ",
    "street": null,
    "office_name": null,
    "office_name_kana": null
  },
  "3203": {
    "postcode": "9793203",
    "prefecture": "福島県",
    "prefecture_kana": "フクシマケン",
    "prefecture_code": 7,
    "city": "いわき市",
    "city_kana": "イワキシ",
    "town": "川前町上桶売",
    "town_kana": "カワマエマチカミオケウリ",
    "street": null,
    "office_name": null,
    "office_name_kana": null
  },
  "3204": {
    "postcode": "9793204",
    "prefecture": "福島県",
    "prefecture_kana": "フクシマケン",
    "prefecture_code": 7,
    "city": "いわき市",
    "city_kana": "イワキシ",
    "town": "川前町小白井",
    "town_kana": "カワマエマチオジロイ",
    "street": null,
    "office_name": null,
    "office_name_kana": null
  }
}