{
  "0000": [
    {
      "postcode": "9850000",
      "prefecture": "宮城県",
      "prefecture_kana": "ミヤギケン",
      "prefecture_code": 4,
      "city": "塩竈市",
      "city_kana": "シオガマシ",
      "town": "",
      "town_kana": "",
      "street": null,
      "office_name": null,
      "office_name_kana": null
    },
    {
      "postcode": "9850000",
      "prefecture": "宮城県",
      "prefecture_kana": "ミヤギケン",
      "prefecture_code": 4,
      "city": "多賀城市",
      "city_kana": "タガジョウシ",
      "town": "",
      "town_kana": "",
      "street": null,
      "office_name": null,
      "office_name_kana": null
    },
    {
      "postcode": "9850000",
      "prefecture": "宮城県",
      "prefecture_kana": "ミヤギケン",
      "prefecture_code": 4,
      "city": "宮城郡七ヶ浜町",
      "city_kana": "ミヤギグンシチガハママチ",
      "town": "",
      "town_kana": "",
      "street": null,
      "office_name": null,
      "office_name_kana": null
    }
  ],
  "0001": {
    "postcode": "9850001",
    "prefecture": "宮城県",
    "prefecture_kana": "ミヤギケン",
    "prefecture_code": 4,
    "city": "塩竈市",
    "city_kana": "シオガマシ",
    "town": "新浜町",
    "town_kana": "シンハマチョウ",
    "street": null,
    "office_name": null,
    "office_name_kana": null
  },
  "0002": {
    "postcode": "9850002",
    "prefecture": "宮城県",
    "prefecture_kana": "ミヤギケン",
    "prefecture_code": 4,
    "city": "塩竈市",
    "city_kana": "シオガマシ",
    "town": "海岸通",
    "town_kana": "カイガンドオリ",
    "street": null,
    "office_name": null,
    "office_name_kana": null
  },
  "0003": {
    "postcode": "9850003",
    "prefecture": "宮城県",
    "prefecture_kana": "ミヤギケン",
    "prefecture_code": 4,
    "city": "塩竈市",
    "city_kana": "シオガマシ",
    "town": "北浜",
    "town_kana": "キタハマ",
    "street": null,
    "office_name": null,
    "office_name_kana": null
  },
  "0004": {
    "postcode": "9850004",
    "prefecture": "宮城県",
    "prefecture_kana": "ミヤギケン",
    "prefecture_code": 4,
    "city": "塩竈市",
    "city_kana": "シオガマシ",
    "town": "藤倉",
    "town_kana": "フジクラ",
    "street": null,
    "office_name": null,
    "office_name_kana": null
  },
  "0005": {
    "postcode": "9850005",
    "prefecture": "宮城県",
    "prefecture_kana": "ミヤギケン",
    "prefecture_code": 4,
    "city": "塩竈市",
    "city_kana": "シオガマシ",
    "town": "杉の入",
    "town_kana": "スギノイリ",
    "street": null,
    "office_name": null,
    "office_name_kana": null
  },
  "0006": {
    "postcode": "9850006",
    "prefecture": "宮城県",
    "prefecture_kana": "ミヤギケン",
    "prefecture_code": 4,
    "city": "塩竈市",
    "city_kana": "シオガマシ",
    "town": "杉の入裏",
    "town_kana": "スギノイリウラ",
    "street": null,
    "office_name": null,
    "office_name_kana": null
  },
  "0011": {
    "postcode": "9850011",
    "prefecture": "宮城県",
    "prefecture_kana": "ミヤギケン",
    "prefecture_code": 4,
    "city": "塩竈市",
    "city_kana": "シオガマシ",
    "town": "貞山通",
    "town_kana": "テイザンドオリ",
    "street": null,
    "office_name": null,
    "office_name_kana": null
  },
  "0012": {
    "postcode": "9850012",
    "prefecture": "宮城県",
    "prefecture_kana": "ミヤギケン",
    "prefecture_code": 4,
    "city": "塩竈市",
    "city_kana": "シオガマシ",
    "town": "芦畔町",
    "town_kana": "アシグロチョウ",
    "street": null,
    "office_name": null,
    "office_name_kana": null
  },
  "0013": {
    "postcode": "9850013",
    "prefecture": "宮城県",
    "prefecture_kana": "ミヤギケン",
    "prefecture_code": 4,
    "city": "塩竈市",
    "city_kana": "シオガマシ",
    "town": "牛生町",
    "town_kana": "ギュウチョウ",
    "street": null,
    "office_name": null,
    "office_name_kana": null
  },
  "0014": {
    "postcode": "9850014",
    "prefecture": "宮城県",
    "prefecture_kana": "ミヤギケン",
    "prefecture_code": 4,
    "city": "塩竈市",
    "city_kana": "シオガマシ",
    "town": "舟入",
    "town_kana": "フナイリ",
    "street": null,
    "office_name": null,
    "office_name_kana": null
  },
  "0015": {
    "postcode": "9850015",
    "prefecture": "宮城県",
    "prefecture_kana": "ミヤギケン",
    "prefecture_code": 4,
    "city": "塩竈市",
    "city_kana": "シオガマシ",
    "town": "中の島",
    "town_kana": "ナカノシマ",
    "street": null,
    "office_name": null,
    "office_name_kana": null
  },
  "0016": {
    "postcode": "9850016",
    "prefecture": "宮城県",
    "prefecture_kana": "ミヤギケン",
    "prefecture_code": 4,
    "city": "塩竈市",
    "city_kana": "シオガマシ",
    "town": "港町",
    "town_kana": "ミナトマチ",
    "street": null,
    "office_name": null,
    "office_name_kana": null
  },
  "0021": {
    "postcode": "9850021",
    "prefecture": "宮城県",
    "prefecture_kana": "ミヤギケン",
    "prefecture_code": 4,
    "city": "塩竈市",
    "city_kana": "シオガマシ",
    "town": "尾島町",
    "town_kana": "オジマチョウ",
    "street": null,
    "office_name": null,
    "office_name_kana": null
  },
  "0022": {
    "postcode": "9850022",
    "prefecture": "宮城県",
    "prefecture_kana": "ミヤギケン",
    "prefecture_code": 4,
    "city": "塩竈市",
    "city_kana": "シオガマシ",
    "town": "新富町",
    "town_kana": "シントミチョウ",
    "street": null,
    "office_name": null,
    "office_name_kana": null
  },
  "0023": {
    "postcode": "9850023",
    "prefecture": "宮城県",
    "prefecture_kana": "ミヤギケン",
    "prefecture_code": 4,
    "city": "塩竈市",
    "city_kana": "シオガマシ",
    "town": "花立町",
    "town_kana": "ハナダテチョウ",
    "street": null,
    "office_name": null,
    "office_name_kana": null
  },
  "0024": {
    "postcode": "9850024",
    "prefecture": "宮城県",
    "prefecture_kana": "ミヤギケン",
    "prefecture_code": 4,
    "city": "塩竈市",
    "city_kana": "シオガマシ",
    "town": "錦町",
    "town_kana": "ニシキチョウ",
    "street": null,
    "office_name": null,
    "office_name_kana": null
  },
  "0025": {
    "postcode": "9850025",
    "prefecture": "宮城県",
    "prefecture_kana": "ミヤギケン",
    "prefecture_code": 4,
    "city": "塩竈市",
    "city_kana": "シオガマシ",
    "town": "佐浦町",
    "town_kana": "サウラチョウ",
    "street": null,
    "office_name": null,
    "office_name_kana": null
  },
  "0026": {
    "postcode": "9850026",
    "prefecture": "宮城県",
    "prefecture_kana": "ミヤギケン",
    "prefecture_code": 4,
    "city": "塩竈市",
    "city_kana": "シオガマシ",
    "town": "旭町",
    "town_kana": "アサヒチョウ",
    "street": null,
    "office_name": null,
    "office_name_kana": null
  },
  "0031": {
    "postcode": "9850031",
    "prefecture": "宮城県",
    "prefecture_kana": "ミヤギケン",
    "prefecture_code": 4,
    "city": "塩竈市",
    "city_kana": "シオガマシ",
    "town": "石堂",
    "town_kana": "イシドウ",
    "street": null,
    "office_name": null,
    "office_name_kana": null
  },
  "0032": {
    "postcode": "9850032",
    "prefecture": "宮城県",
    "prefecture_kana": "ミヤギケン",
    "prefecture_code": 4,
    "city": "塩竈市",
    "city_kana": "シオガマシ",
    "town": "白萩町",
    "town_kana": "シラハギチョウ",
    "street": null,
    "office_name": null,
    "office_name_kana": null
  },
  "0033": {
    "postcode": "9850033",
    "prefecture": "宮城県",
    "prefecture_kana": "ミヤギケン",
    "prefecture_code": 4,
    "city": "塩竈市",
    "city_kana": "シオガマシ",
    "town": "桜ケ丘",
    "town_kana": "サクラガオカ",
    "street": null,
    "office_name": null,
    "office_name_kana": null
  },
  "0034": {
    "postcode": "9850034",
    "prefecture": "宮城県",
    "prefecture_kana": "ミヤギケン",
    "prefecture_code": 4,
    "city": "塩竈市",
    "city_kana": "シオガマシ",
    "town": "南錦町",
    "town_kana": "ミナミニシキチョウ",
    "street": null,
    "office_name": null,
    "office_name_kana": null
  },
  "0035": {
    "postcode": "9850035",
    "prefecture": "宮城県",
    "prefecture_kana": "ミヤギケン",
    "prefecture_code": 4,
    "city": "塩竈市",
    "city_kana": "シオガマシ",
    "town": "野田",
    "town_kana": "ノダ",
    "street": null,
    "office_name": null,
    "office_name_kana": null
  },
  "0036": {
    "postcode": "9850036",
    "prefecture": "宮城県",
    "prefecture_kana": "ミヤギケン",
    "prefecture_code": 4,
    "city": "塩竈市",
    "city_kana": "シオガマシ",
    "town": "東玉川町",
    "town_kana": "ヒガシタマガワチョウ",
    "street": null,
    "office_name": null,
    "office_name_kana": null
  },
  "0041": {
    "postcode": "9850041",
    "prefecture": "宮城県",
    "prefecture_kana": "ミヤギケン",
    "prefecture_code": 4,
    "city": "塩竈市",
    "city_kana": "シオガマシ",
    "town": "白菊町",
    "town_kana": "シラギクチョウ",
    "street": null,
    "office_name": null,
    "office_name_kana": null
  },
  "0042": {
    "postcode": "9850042",
    "prefecture": "宮城県",
    "prefecture_kana": "ミヤギケン",
    "prefecture_code": 4,
    "city": "塩竈市",
    "city_kana": "シオガマシ",
    "town": "玉川",
    "town_kana": "タマガワ",
    "street": null,
    "office_name": null,
    "office_name_kana": null
  },
  "0043": {
    "postcode": "9850043",
    "prefecture": "宮城県",
    "prefecture_kana": "ミヤギケン",
    "prefecture_code": 4,
    "city": "塩竈市",
    "city_kana": "シオガマシ",
    "town": "袖野田町",
    "town_kana": "ソデノダチョウ",
    "street": null,
    "office_name": null,
    "office_name_kana": null
  },
  "0044": {
    "postcode": "9850044",
    "prefecture": "宮城県",
    "prefecture_kana": "ミヤギケン",
    "prefecture_code": 4,
    "city": "塩竈市",
    "city_kana": "シオガマシ",
    "town": "母子沢町",
    "town_kana": "ハハコザワチョウ",
    "street": null,
    "office_name": null,
    "office_name_kana": null
  },
  "0045": {
    "postcode": "9850045",
    "prefecture": "宮城県",
    "prefecture_kana": "ミヤギケン",
    "prefecture_code": 4,
    "city": "塩竈市",
    "city_kana": "シオガマシ",
    "town": "西玉川町",
    "town_kana": "ニシタマガワチョウ",
    "street": null,
    "office_name": null,
    "office_name_kana": null
  },
  "0046": {
    "postcode": "9850046",
    "prefecture": "宮城県",
    "prefecture_kana": "ミヤギケン",
    "prefecture_code": 4,
    "city": "塩竈市",
    "city_kana": "シオガマシ",
    "town": "大日向町",
    "town_kana": "オオヒナタチョウ",
    "street": null,
    "office_name": null,
    "office_name_kana": null
  },
  "0051": {
    "postcode": "9850051",
    "prefecture": "宮城県",
    "prefecture_kana": "ミヤギケン",
    "prefecture_code": 4,
    "city": "塩竈市",
    "city_kana": "シオガマシ",
    "town": "宮町",
    "town_kana": "ミヤマチ",
    "street": null,
    "office_name": null,
    "office_name_kana": null
  },
  "0052": {
    "postcode": "9850052",
    "prefecture": "宮城県",
    "prefecture_kana": "ミヤギケン",
    "prefecture_code": 4,
    "city": "塩竈市",
    "city_kana": "シオガマシ",
    "town": "本町",
    "town_kana": "モトマチ",
    "street": null,
    "office_name": null,
    "office_name_kana": null
  },
  "0053": {
    "postcode": "9850053",
    "prefecture": "宮城県",
    "prefecture_kana": "ミヤギケン",
    "prefecture_code": 4,
    "city": "塩竈市",
    "city_kana": "シオガマシ",
    "town": "南町",
    "town_kana": "ミナミマチ",
    "street": null,
    "office_name": null,
    "office_name_kana": null
  },
  "0054": {
    "postcode": "9850054",
    "prefecture": "宮城県",
    "prefecture_kana": "ミヤギケン",
    "prefecture_code": 4,
    "city": "塩竈市",
    "city_kana": "シオガマシ",
    "town": "香津町",
    "town_kana": "コウヅマチ",
    "street": null,
    "office_name": null,
    "office_name_kana": null
  },
  "0055": {
    "postcode": "9850055",
    "prefecture": "宮城県",
    "prefecture_kana": "ミヤギケン",
    "prefecture_code": 4,
    "city": "塩竈市",
    "city_kana": "シオガマシ",
    "town": "赤坂",
    "town_kana": "アカサカ",
    "street": null,
    "office_name": null,
    "office_name_kana": null
  },
  "0056": {
    "postcode": "9850056",
    "prefecture": "宮城県",
    "prefecture_kana": "ミヤギケン",
    "prefecture_code": 4,
    "city": "塩竈市",
    "city_kana": "シオガマシ",
    "town": "泉ケ岡",
    "town_kana": "イズミガオカ",
    "street": null,
    "office_name": null,
    "office_name_kana": null
  },
  "0057": {
    "postcode": "9850057",
    "prefecture": "宮城県",
    "prefecture_kana": "ミヤギケン",
    "prefecture_code": 4,
    "city": "塩竈市",
    "city_kana": "シオガマシ",
    "town": "西町",
    "town_kana": "ニシマチ",
    "street": null,
    "office_name": null,
    "office_name_kana": null
  },
  "0061": {
    "postcode": "9850061",
    "prefecture": "宮城県",
    "prefecture_kana": "ミヤギケン",
    "prefecture_code": 4,
    "city": "塩竈市",
    "city_kana": "シオガマシ",
    "town": "清水沢",
    "town_kana": "シミズサワ",
    "street": null,
    "office_name": null,
    "office_name_kana": null
  },
  "0062": {
    "postcode": "9850062",
    "prefecture": "宮城県",
    "prefecture_kana": "ミヤギケン",
    "prefecture_code": 4,
    "city": "塩竈市",
    "city_kana": "シオガマシ",
    "town": "泉沢町",
    "town_kana": "イズミサワチョウ",
    "street": null,
    "office_name": null,
    "office_name_kana": null
  },
  "0063": {
    "postcode": "9850063",
    "prefecture": "宮城県",
    "prefecture_kana": "ミヤギケン",
    "prefecture_code": 4,
    "city": "塩竈市",
    "city_kana": "シオガマシ",
    "town": "栄町",
    "town_kana": "サカエチョウ",
    "street": null,
    "office_name": null,
    "office_name_kana": null
  },
  "0064": {
    "postcode": "9850064",
    "prefecture": "宮城県",
    "prefecture_kana": "ミヤギケン",
    "prefecture_code": 4,
    "city": "塩竈市",
    "city_kana": "シオガマシ",
    "town": "権現堂",
    "town_kana": "ゴンゲンドウ",
    "street": null,
    "office_name": null,
    "office_name_kana": null
  },
  "0065": {
    "postcode": "9850065",
    "prefecture": "宮城県",
    "prefecture_kana": "ミヤギケン",
    "prefecture_code": 4,
    "city": "塩竈市",
    "city_kana": "シオガマシ",
    "town": "向ケ丘",
    "town_kana": "ムカイガオカ",
    "street": null,
    "office_name": null,
    "office_name_kana": null
  },
  "0066": {
    "postcode": "9850066",
    "prefecture": "宮城県",
    "prefecture_kana": "ミヤギケン",
    "prefecture_code": 4,
    "city": "塩竈市",
    "city_kana": "シオガマシ",
    "town": "月見ケ丘",
    "town_kana": "ツキミガオカ",
    "street": null,
    "office_name": null,
    "office_name_kana": null
  },
  "0067": {
    "postcode": "9850067",
    "prefecture": "宮城県",
    "prefecture_kana": "ミヤギケン",
    "prefecture_code": 4,
    "city": "塩竈市",
    "city_kana": "シオガマシ",
    "town": "後楽町",
    "town_kana": "コウラクチョウ",
    "street": null,
    "office_name": null,
    "office_name_kana": null
  },
  "0071": {
    "postcode": "9850071",
    "prefecture": "宮城県",
    "prefecture_kana": "ミヤギケン",
    "prefecture_code": 4,
    "city": "塩竈市",
    "city_kana": "シオガマシ",
    "town": "松陽台",
    "town_kana": "ショウヨウダイ",
    "street": null,
    "office_name": null,
    "office_name_kana": null
  },
  "0072": {
    "postcode": "9850072",
    "prefecture": "宮城県",
    "prefecture_kana": "ミヤギケン",
    "prefecture_code": 4,
    "city": "塩竈市",
    "city_kana": "シオガマシ",
    "town": "小松崎",
    "town_kana": "コマツザキ",
    "street": null,
    "office_name": null,
    "office_name_kana": null
  },
  "0073": {
    "postcode": "9850073",
    "prefecture": "宮城県",
    "prefecture_kana": "ミヤギケン",
    "prefecture_code": 4,
    "city": "塩竈市",
    "city_kana": "シオガマシ",
    "town": "みのが丘",
    "town_kana": "ミノガオカ",
    "street": null,
    "office_name": null,
    "office_name_kana": null
  },
  "0074": {
    "postcode": "9850074",
    "prefecture": "宮城県",
    "prefecture_kana": "ミヤギケン",
    "prefecture_code": 4,
    "city": "塩竈市",
    "city_kana": "シオガマシ",
    "town": "一森山",
    "town_kana": "イチモリヤマ",
    "street": null,
    "office_name": null,
    "office_name_kana": null
  },
  "0075": {
    "postcode": "9850075",
    "prefecture": "宮城県",
    "prefecture_kana": "ミヤギケン",
    "prefecture_code": 4,
    "city": "塩竈市",
    "city_kana": "シオガマシ",
    "town": "今宮町",
    "town_kana": "イマミヤチョウ",
    "street": null,
    "office_name": null,
    "office_name_kana": null
  },
  "0076": {
    "postcode": "9850076",
    "prefecture": "宮城県",
    "prefecture_kana": "ミヤギケン",
    "prefecture_code": 4,
    "city": "塩竈市",
    "city_kana": "シオガマシ",
    "town": "長沢町",
    "town_kana": "ナガサワチョウ",
    "street": null,
    "office_name": null,
    "office_name_kana": null
  },
  "0077": {
    "postcode": "9850077",
    "prefecture": "宮城県",
    "prefecture_kana": "ミヤギケン",
    "prefecture_code": 4,
    "city": "塩竈市",
    "city_kana": "シオガマシ",
    "town": "梅の宮",
    "town_kana": "ウメノミヤ",
    "street": null,
    "office_name": null,
    "office_name_kana": null
  },
  "0081": {
    "postcode": "9850081",
    "prefecture": "宮城県",
    "prefecture_kana": "ミヤギケン",
    "prefecture_code": 4,
    "city": "塩竈市",
    "city_kana": "シオガマシ",
    "town": "石田",
    "town_kana": "イシダ",
    "street": null,
    "office_name": null,
    "office_name_kana": null
  },
  "0082": {
    "postcode": "9850082",
    "prefecture": "宮城県",
    "prefecture_kana": "ミヤギケン",
    "prefecture_code": 4,
    "city": "塩竈市",
    "city_kana": "シオガマシ",
    "town": "青葉ケ丘",
    "town_kana": "アオバガオカ",
    "street": null,
    "office_name": null,
    "office_name_kana": null
  },
  "0083": {
    "postcode": "9850083",
    "prefecture": "宮城県",
    "prefecture_kana": "ミヤギケン",
    "prefecture_code": 4,
    "city": "塩竈市",
    "city_kana": "シオガマシ",
    "town": "越ノ浦",
    "town_kana": "コシノウラ",
    "street": null,
    "office_name": null,
    "office_name_kana": null
  },
  "0084": {
    "postcode": "9850084",
    "prefecture": "宮城県",
    "prefecture_kana": "ミヤギケン",
    "prefecture_code": 4,
    "city": "塩竈市",
    "city_kana": "シオガマシ",
    "town": "楓町",
    "town_kana": "カエデチョウ",
    "street": null,
    "office_name": null,
    "office_name_kana": null
  },
  "0085": {
    "postcode": "9850085",
    "prefecture": "宮城県",
    "prefecture_kana": "ミヤギケン",
    "prefecture_code": 4,
    "city": "塩竈市",
    "city_kana": "シオガマシ",
    "town": "庚塚",
    "town_kana": "カノエヅカ",
    "street": null,
    "office_name": null,
    "office_name_kana": null
  },
  "0086": {
    "postcode": "9850086",
    "prefecture": "宮城県",
    "prefecture_kana": "ミヤギケン",
    "prefecture_code": 4,
    "city": "塩竈市",
    "city_kana": "シオガマシ",
    "town": "千賀の台",
    "town_kana": "チガノダイ",
    "street": null,
    "office_name": null,
    "office_name_kana": null
  },
  "0087": {
    "postcode": "9850087",
    "prefecture": "宮城県",
    "prefecture_kana": "ミヤギケン",
    "prefecture_code": 4,
    "city": "塩竈市",
    "city_kana": "シオガマシ",
    "town": "伊保石",
    "town_kana": "イボイシ",
    "street": null,
    "office_name": null,
    "office_name_kana": null
  },
  "0088": {
    "postcode": "9850088",
    "prefecture": "宮城県",
    "prefecture_kana": "ミヤギケン",
    "prefecture_code": 4,
    "city": "塩竈市",
    "city_kana": "シオガマシ",
    "town": "長沢",
    "town_kana": "ナガサワ",
    "street": null,
    "office_name": null,
    "office_name_kana": null
  },
  "0191": {
    "postcode": "9850191",
    "prefecture": "宮城県",
    "prefecture_kana": "ミヤギケン",
    "prefecture_code": 4,
    "city": "塩竈市",
    "city_kana": "シオガマシ",
    "town": "浦戸石浜",
    "town_kana": "ウラトイシハマ",
    "street": null,
    "office_name": null,
    "office_name_kana": null
  },
  "0192": {
    "postcode": "9850192",
    "prefecture": "宮城県",
    "prefecture_kana": "ミヤギケン",
    "prefecture_code": 4,
    "city": "塩竈市",
    "city_kana": "シオガマシ",
    "town": "浦戸桂島",
    "town_kana": "ウラトカツラシマ",
    "street": null,
    "office_name": null,
    "office_name_kana": null
  },
  "0193": {
    "postcode": "9850193",
    "prefecture": "宮城県",
    "prefecture_kana": "ミヤギケン",
    "prefecture_code": 4,
    "city": "塩竈市",
    "city_kana": "シオガマシ",
    "town": "浦戸野々島",
    "town_kana": "ウラトノノシマ",
    "street": null,
    "office_name": null,
    "office_name_kana": null
  },
  "0194": {
    "postcode": "9850194",
    "prefecture": "宮城県",
    "prefecture_kana": "ミヤギケン",
    "prefecture_code": 4,
    "city": "塩竈市",
    "city_kana": "シオガマシ",
    "town": "浦戸寒風沢",
    "town_kana": "ウラトサブサワ",
    "street": null,
    "office_name": null,
    "office_name_kana": null
  },
  "0195": {
    "postcode": "9850195",
    "prefecture": "宮城県",
    "prefecture_kana": "ミヤギケン",
    "prefecture_code": 4,
    "city": "塩竈市",
    "city_kana": "シオガマシ",
    "town": "浦戸朴島",
    "town_kana": "ウラトホウジマ",
    "street": null,
    "office_name": null,
    "office_name_kana": null
  },
  "0801": {
    "postcode": "9850801",
    "prefecture": "宮城県",
    "prefecture_kana": "ミヤギケン",
    "prefecture_code": 4,
    "city": "宮城郡七ヶ浜町",
    "city_kana": "ミヤギグンシチガハママチ",
    "town": "代ヶ崎浜",
    "town_kana": "ヨガサキハマ",
    "street": null,
    "office_name": null,
    "office_name_kana": null
  },
  "0802": {
    "postcode": "9850802",
    "prefecture": "宮城県",
    "prefecture_kana": "ミヤギケン",
    "prefecture_code": 4,
    "city": "宮城郡七ヶ浜町",
    "city_kana": "ミヤギグンシチガハママチ",
    "town": "吉田浜",
    "town_kana": "ヨシダハマ",
    "street": null,
    "office_name": null,
    "office_name_kana": null
  },
  "0803": {
    "postcode": "9850803",
    "prefecture": "宮城県",
    "prefecture_kana": "ミヤギケン",
    "prefecture_code": 4,
    "city": "宮城郡七ヶ浜町",
    "city_kana": "ミヤギグンシチガハママチ",
    "town": "花渕浜",
    "town_kana": "ハナブチハマ",
    "street": null,
    "office_name": null,
    "office_name_kana": null
  },
  "0804": {
    "postcode": "9850804",
    "prefecture": "宮城県",
    "prefecture_kana": "ミヤギケン",
    "prefecture_code": 4,
    "city": "宮城郡七ヶ浜町",
    "city_kana": "ミヤギグンシチガハママチ",
    "town": "東宮浜",
    "town_kana": "トウグウハマ",
    "street": null,
    "office_name": null,
    "office_name_kana": null
  },
  "0805": {
    "postcode": "9850805",
    "prefecture": "宮城県",
    "prefecture_kana": "ミヤギケン",
    "prefecture_code": 4,
    "city": "宮城郡七ヶ浜町",
    "city_kana": "ミヤギグンシチガハママチ",
    "town": "笹山",
    "town_kana": "ササヤマ",
    "street": null,
    "office_name": null,
    "office_name_kana": null
  },
  "0811": {
    "postcode": "9850811",
    "prefecture": "宮城県",
    "prefecture_kana": "ミヤギケン",
    "prefecture_code": 4,
    "city": "宮城郡七ヶ浜町",
    "city_kana": "ミヤギグンシチガハママチ",
    "town": "菖蒲田浜",
    "town_kana": "ショウブタハマ",
    "street": null,
    "office_name": null,
    "office_name_kana": null
  },
  "0812": {
    "postcode": "9850812",
    "prefecture": "宮城県",
    "prefecture_kana": "ミヤギケン",
    "prefecture_code": 4,
    "city": "宮城郡七ヶ浜町",
    "city_kana": "ミヤギグンシチガハママチ",
    "town": "松ヶ浜",
    "town_kana": "マツガハマ",
    "street": null,
    "office_name": null,
    "office_name_kana": null
  },
  "0813": {
    "postcode": "9850813",
    "prefecture": "宮城県",
    "prefecture_kana": "ミヤギケン",
    "prefecture_code": 4,
    "city": "宮城郡七ヶ浜町",
    "city_kana": "ミヤギグンシチガハママチ",
    "town": "湊浜",
    "town_kana": "ミナトハマ",
    "street": null,
    "office_name": null,
    "office_name_kana": null
  },
  "0821": {
    "postcode": "9850821",
    "prefecture": "宮城県",
    "prefecture_kana": "ミヤギケン",
    "prefecture_code": 4,
    "city": "宮城郡七ヶ浜町",
    "city_kana": "ミヤギグンシチガハママチ",
    "town": "汐見台",
    "town_kana": "シオミダイ",
    "street": null,
    "office_name": null,
    "office_name_kana": null
  },
  "0822": {
    "postcode": "9850822",
    "prefecture": "宮城県",
    "prefecture_kana": "ミヤギケン",
    "prefecture_code": 4,
    "city": "宮城郡七ヶ浜町",
    "city_kana": "ミヤギグンシチガハママチ",
    "town": "汐見台南",
    "town_kana": "シオミダイミナミ",
    "street": null,
    "office_name": null,
    "office_name_kana": null
  },
  "0823": {
    "postcode": "9850823",
    "prefecture": "宮城県",
    "prefecture_kana": "ミヤギケン",
    "prefecture_code": 4,
    "city": "宮城郡七ヶ浜町",
    "city_kana": "ミヤギグンシチガハママチ",
    "town": "遠山",
    "town_kana": "トオヤマ",
    "street": null,
    "office_name": null,
    "office_name_kana": null
  },
  "0824": {
    "postcode": "9850824",
    "prefecture": "宮城県",
    "prefecture_kana": "ミヤギケン",
    "prefecture_code": 4,
    "city": "宮城郡七ヶ浜町",
    "city_kana": "ミヤギグンシチガハママチ",
    "town": "境山",
    "town_kana": "サカイヤマ",
    "street": null,
    "office_name": null,
    "office_name_kana": null
  },
  "0831": {
    "postcode": "9850831",
    "prefecture": "宮城県",
    "prefecture_kana": "ミヤギケン",
    "prefecture_code": 4,
    "city": "多賀城市",
    "city_kana": "タガジョウシ",
    "town": "笠神",
    "town_kana": "カサガミ",
    "street": null,
    "office_name": null,
    "office_name_kana": null
  },
  "0832": {
    "postcode": "9850832",
    "prefecture": "宮城県",
    "prefecture_kana": "ミヤギケン",
    "prefecture_code": 4,
    "city": "多賀城市",
    "city_kana": "タガジョウシ",
    "town": "大代",
    "town_kana": "オオシロ",
    "street": null,
    "office_name": null,
    "office_name_kana": null
  },
  "0833": {
    "postcode": "9850833",
    "prefecture": "宮城県",
    "prefecture_kana": "ミヤギケン",
    "prefecture_code": 4,
    "city": "多賀城市",
    "city_kana": "タガジョウシ",
    "town": "栄",
    "town_kana": "サカエ",
    "street": null,
    "office_name": null,
    "office_name_kana": null
  },
  "0834": {
    "postcode": "9850834",
    "prefecture": "宮城県",
    "prefecture_kana": "ミヤギケン",
    "prefecture_code": 4,
    "city": "多賀城市",
    "city_kana": "タガジョウシ",
    "town": "丸山",
    "town_kana": "マルヤマ",
    "street": null,
    "office_name": null,
    "office_name_kana": null
  },
  "0835": {
    "postcode": "9850835",
    "prefecture": "宮城県",
    "prefecture_kana": "ミヤギケン",
    "prefecture_code": 4,
    "city": "多賀城市",
    "city_kana": "タガジョウシ",
    "town": "下馬",
    "town_kana": "ゲバ",
    "street": null,
    "office_name": null,
    "office_name_kana": null
  },
  "0841": {
    "postcode": "9850841",
    "prefecture": "宮城県",
    "prefecture_kana": "ミヤギケン",
    "prefecture_code": 4,
    "city": "多賀城市",
    "city_kana": "タガジョウシ",
    "town": "鶴ケ谷",
    "town_kana": "ツルガヤ",
    "street": null,
    "office_name": null,
    "office_name_kana": null
  },
  "0842": {
    "postcode": "9850842",
    "prefecture": "宮城県",
    "prefecture_kana": "ミヤギケン",
    "prefecture_code": 4,
    "city": "多賀城市",
    "city_kana": "タガジョウシ",
    "town": "桜木",
    "town_kana": "サクラギ",
    "street": null,
    "office_name": null,
    "office_name_kana": null
  },
  "0843": {
    "postcode": "9850843",
    "prefecture": "宮城県",
    "prefecture_kana": "ミヤギケン",
    "prefecture_code": 4,
    "city": "多賀城市",
    "city_kana": "タガジョウシ",
    "town": "明月",
    "town_kana": "メイゲツ",
    "street": null,
    "office_name": null,
    "office_name_kana": null
  },
  "0844": {
    "postcode": "9850844",
    "prefecture": "宮城県",
    "prefecture_kana": "ミヤギケン",
    "prefecture_code": 4,
    "city": "多賀城市",
    "city_kana": "タガジョウシ",
    "town": "宮内",
    "town_kana": "ミヤウチ",
    "street": null,
    "office_name": null,
    "office_name_kana": null
  },
  "0845": {
    "postcode": "9850845",
    "prefecture": "宮城県",
    "prefecture_kana": "ミヤギケン",
    "prefecture_code": 4,
    "city": "多賀城市",
    "city_kana": "タガジョウシ",
    "town": "町前",
    "town_kana": "マチマエ",
    "street": null,
    "office_name": null,
    "office_name_kana": null
  },
  "0846": {
    "postcode": "9850846",
    "prefecture": "宮城県",
    "prefecture_kana": "ミヤギケン",
    "prefecture_code": 4,
    "city": "多賀城市",
    "city_kana": "タガジョウシ",
    "town": "中野",
    "town_kana": "ナカノ",
    "street": null,
    "office_name": null,
    "office_name_kana": null
  },
  "0851": {
    "postcode": "9850851",
    "prefecture": "宮城県",
    "prefecture_kana": "ミヤギケン",
    "prefecture_code": 4,
    "city": "多賀城市",
    "city_kana": "タガジョウシ",
    "town": "南宮",
    "town_kana": "ナングウ",
    "street": null,
    "office_name": null,
    "office_name_kana": null
  },
  "0852": {
    "postcode": "9850852",
    "prefecture": "宮城県",
    "prefecture_kana": "ミヤギケン",
    "prefecture_code": 4,
    "city": "多賀城市",
    "city_kana": "タガジョウシ",
    "town": "山王",
    "town_kana": "サンノウ",
    "street": null,
    "office_name": null,
    "office_name_kana": null
  },
  "0853": {
    "postcode": "9850853",
    "prefecture": "宮城県",
    "prefecture_kana": "ミヤギケン",
    "prefecture_code": 4,
    "city": "多賀城市",
    "city_kana": "タガジョウシ",
    "town": "高橋",
    "town_kana": "タカハシ",
    "street": null,
    "office_name": null,
    "office_name_kana": null
  },
  "0854": {
    "postcode": "9850854",
    "prefecture": "宮城県",
    "prefecture_kana": "ミヤギケン",
    "prefecture_code": 4,
    "city": "多賀城市",
    "city_kana": "タガジョウシ",
    "town": "新田",
    "town_kana": "ニイダ",
    "street": null,
    "office_name": null,
    "office_name_kana": null
  },
  "0861": {
    "postcode": "9850861",
    "prefecture": "宮城県",
    "prefecture_kana": "ミヤギケン",
    "prefecture_code": 4,
    "city": "多賀城市",
    "city_kana": "タガジョウシ",
    "town": "浮島",
    "town_kana": "ウキシマ",
    "street": null,
    "office_name": null,
    "office_name_kana": null
  },
  "0862": {
    "postcode": "9850862",
    "prefecture": "宮城県",
    "prefecture_kana": "ミヤギケン",
    "prefecture_code": 4,
    "city": "多賀城市",
    "city_kana": "タガジョウシ",
    "town": "高崎",
    "town_kana": "タカサキ",
    "street": null,
    "office_name": null,
    "office_name_kana": null
  },
  "0863": {
    "postcode": "9850863",
    "prefecture": "宮城県",
    "prefecture_kana": "ミヤギケン",
    "prefecture_code": 4,
    "city": "多賀城市",
    "city_kana": "タガジョウシ",
    "town": "東田中",
    "town_kana": "ヒガシタナカ",
    "street": null,
    "office_name": null,
    "office_name_kana": null
  },
  "0864": {
    "postcode": "9850864",
    "prefecture": "宮城県",
    "prefecture_kana": "ミヤギケン",
    "prefecture_code": 4,
    "city": "多賀城市",
    "city_kana": "タガジョウシ",
    "town": "市川",
    "town_kana": "イチカワ",
    "street": null,
    "office_name": null,
    "office_name_kana": null
  },
  "0865": {
    "postcode": "9850865",
    "prefecture": "宮城県",
    "prefecture_kana": "ミヤギケン",
    "prefecture_code": 4,
    "city": "多賀城市",
    "city_kana": "タガジョウシ",
    "town": "城南",
    "town_kana": "ジョウナン",
    "street": null,
    "office_name": null,
    "office_name_kana": null
  },
  "0871": {
    "postcode": "9850871",
    "prefecture": "宮城県",
    "prefecture_kana": "ミヤギケン",
    "prefecture_code": 4,
    "city": "多賀城市",
    "city_kana": "タガジョウシ",
    "town": "留ケ谷",
    "town_kana": "トメガヤ",
    "street": null,
    "office_name": null,
    "office_name_kana": null
  },
  "0872": {
    "postcode": "9850872",
    "prefecture": "宮城県",
    "prefecture_kana": "ミヤギケン",
    "prefecture_code": 4,
    "city": "多賀城市",
    "city_kana": "タガジョウシ",
    "town": "伝上山",
    "town_kana": "デンジョウヤマ",
    "street": null,
    "office_name": null,
    "office_name_kana": null
  },
  "0873": {
    "postcode": "9850873",
    "prefecture": "宮城県",
    "prefecture_kana": "ミヤギケン",
    "prefecture_code": 4,
    "city": "多賀城市",
    "city_kana": "タガジョウシ",
    "town": "中央",
    "town_kana": "チュウオウ",
    "street": null,
    "office_name": null,
    "office_name_kana": null
  },
  "0874": {
    "postcode": "9850874",
    "prefecture": "宮城県",
    "prefecture_kana": "ミヤギケン",
    "prefecture_code": 4,
    "city": "多賀城市",
    "city_kana": "タガジョウシ",
    "town": "八幡",
    "town_kana": "ヤワタ",
    "street": null,
    "office_name": null,
    "office_name_kana": null
  },
  "0901": {
    "postcode": "9850901",
    "prefecture": "宮城県",
    "prefecture_kana": "ミヤギケン",
    "prefecture_code": 4,
    "city": "仙台市宮城野区",
    "city_kana": "センダイシミヤギノク",
    "town": "港",
    "town_kana": "ミナト",
    "street": null,
    "office_name": null,
    "office_name_kana": null
  },
  "8501": {
    "postcode": "9858501",
    "prefecture": "宮城県",
    "prefecture_kana": "ミヤギケン",
    "prefecture_code": 4,
    "city": "塩竈市",
    "city_kana": "シオガマシ",
    "town": "旭町",
    "town_kana": "アサヒチョウ",
    "street": "１−１",
    "office_name": "塩竈市役所",
    "office_name_kana": "シオガマシヤクシヨ"
  },
  "8502": {
    "postcode": "9858502",
    "prefecture": "宮城県",
    "prefecture_kana": "ミヤギケン",
    "prefecture_code": 4,
    "city": "塩竈市",
    "city_kana": "シオガマシ",
    "town": "新浜町",
    "town_kana": "シンハマチョウ",
    "street": "３丁目１３−３",
    "office_name": "ヤマトモ水産食品　株式会社",
    "office_name_kana": "ヤマトモスイサンシヨクヒン カブシキガイシヤ"
  },
  "8504": {
    "postcode": "9858504",
    "prefecture": "宮城県",
    "prefecture_kana": "ミヤギケン",
    "prefecture_code": 4,
    "city": "塩竈市",
    "city_kana": "シオガマシ",
    "town": "港町",
    "town_kana": "ミナトマチ",
    "street": "１丁目６番２０号",
    "office_name": "塩釜商工会議所",
    "office_name_kana": "シオガマシヨウコウカイギシヨ"
  },
  "8506": {
    "postcode": "9858506",
    "prefecture": "宮城県",
    "prefecture_kana": "ミヤギケン",
    "prefecture_code": 4,
    "city": "塩竈市",
    "city_kana": "シオガマシ",
    "town": "錦町",
    "town_kana": "ニシキチョウ",
    "street": "１６−５",
    "office_name": "宮城厚生協会　坂総合病院",
    "office_name_kana": "ミヤギコウセイキヨウカイ サカソウゴウビヨウイン"
  },
  "8507": {
    "postcode": "9858507",
    "prefecture": "宮城県",
    "prefecture_kana": "ミヤギケン",
    "prefecture_code": 4,
    "city": "塩竈市",
    "city_kana": "シオガマシ",
    "town": "貞山通",
    "town_kana": "テイザンドオリ",
    "street": "３丁目４−１",
    "office_name": "第二管区海上保安本部",
    "office_name_kana": "ダイニカンクカイジヨウホアンホンブ"
  },
  "8510": {
    "postcode": "9858510",
    "prefecture": "宮城県",
    "prefecture_kana": "ミヤギケン",
    "prefecture_code": 4,
    "city": "塩竈市",
    "city_kana": "シオガマシ",
    "town": "一森山",
    "town_kana": "イチモリヤマ",
    "street": "１−１",
    "office_name": "志波彦神社・鹽竈神社",
    "office_name_kana": "シワヒコジンジヤ・シオガマジンジヤ"
  },
  "8511": {
    "postcode": "9858511",
    "prefecture": "宮城県",
    "prefecture_kana": "ミヤギケン",
    "prefecture_code": 4,
    "city": "塩竈市",
    "city_kana": "シオガマシ",
    "town": "新浜町",
    "town_kana": "シンハマチョウ",
    "street": "３丁目１６−１５",
    "office_name": "マルブン食品　株式会社",
    "office_name_kana": "マルブンシヨクヒン カブシキガイシヤ"
  },
  "8521": {
    "postcode": "9858521",
    "prefecture": "宮城県",
    "prefecture_kana": "ミヤギケン",
    "prefecture_code": 4,
    "city": "塩竈市",
    "city_kana": "シオガマシ",
    "town": "港町",
    "town_kana": "ミナトマチ",
    "street": "一丁目５番１７号",
    "office_name": "塩釜ガス　株式会社",
    "office_name_kana": "シオガマガス カブシキガイシヤ"
  },
  "8522": {
    "postcode": "9858522",
    "prefecture": "宮城県",
    "prefecture_kana": "ミヤギケン",
    "prefecture_code": 4,
    "city": "塩竈市",
    "city_kana": "シオガマシ",
    "town": "貞山通",
    "town_kana": "テイザンドオリ",
    "street": "１丁目６−３８",
    "office_name": "塩竈港運送　株式会社",
    "office_name_kana": "シオガマコウウンソウ カブシキガイシヤ"
  },
  "8531": {
    "postcode": "9858531",
    "prefecture": "宮城県",
    "prefecture_kana": "ミヤギケン",
    "prefecture_code": 4,
    "city": "多賀城市",
    "city_kana": "タガジョウシ",
    "town": "中央",
    "town_kana": "チュウオウ",
    "street": "２丁目１−１",
    "office_name": "多賀城市役所",
    "office_name_kana": "タガジヨウシヤクシヨ"
  },
  "8533": {
    "postcode": "9858533",
    "prefecture": "宮城県",
    "prefecture_kana": "ミヤギケン",
    "prefecture_code": 4,
    "city": "多賀城市",
    "city_kana": "タガジョウシ",
    "town": "宮内",
    "town_kana": "ミヤウチ",
    "street": "２丁目４−１",
    "office_name": "東洋刃物　株式会社　多賀城工場",
    "office_name_kana": "トウヨウハモノ カブシキガイシヤ タガジヨウコウジヨウ"
  },
  "8535": {
    "postcode": "9858535",
    "prefecture": "宮城県",
    "prefecture_kana": "ミヤギケン",
    "prefecture_code": 4,
    "city": "多賀城市",
    "city_kana": "タガジョウシ",
    "town": "宮内",
    "town_kana": "ミヤウチ",
    "street": "２丁目２−１",
    "office_name": "東北電機製造　株式会社",
    "office_name_kana": "トウホクデンキセイゾウ カブシキガイシヤ"
  },
  "8537": {
    "postcode": "9858537",
    "prefecture": "宮城県",
    "prefecture_kana": "ミヤギケン",
    "prefecture_code": 4,
    "city": "多賀城市",
    "city_kana": "タガジョウシ",
    "town": "中央",
    "town_kana": "チュウオウ",
    "street": "１丁目１３−１",
    "office_name": "東北学院大学　多賀城キャンパス",
    "office_name_kana": "トウホクガクインダイガク タガジヨウキヤンパス"
  },
  "8538": {
    "postcode": "9858538",
    "prefecture": "宮城県",
    "prefecture_kana": "ミヤギケン",
    "prefecture_code": 4,
    "city": "多賀城市",
    "city_kana": "タガジョウシ",
    "town": "宮内",
    "town_kana": "ミヤウチ",
    "street": "１丁目５−１",
    "office_name": "王子コンテナー　株式会社",
    "office_name_kana": "オウジコンテナ- カブシキガイシヤ"
  },
  "8550": {
    "postcode": "9858550",
    "prefecture": "宮城県",
    "prefecture_kana": "ミヤギケン",
    "prefecture_code": 4,
    "city": "多賀城市",
    "city_kana": "タガジョウシ",
    "town": "明月",
    "town_kana": "メイゲツ",
    "street": "二丁目２番１号",
    "office_name": "宮城職業能力開発促進センター",
    "office_name_kana": "ミヤギシヨクギヨウノウリヨクカイハツソクシンセンタ-"
  },
  "8551": {
    "postcode": "9858551",
    "prefecture": "宮城県",
    "prefecture_kana": "ミヤギケン",
    "prefecture_code": 4,
    "city": "多賀城市",
    "city_kana": "タガジョウシ",
    "town": "明月",
    "town_kana": "メイゲツ",
    "street": "２丁目３−１",
    "office_name": "日立建機　株式会社　東北支社",
    "office_name_kana": "ヒタチケンキ カブシキガイシヤ トウホクシシヤ"
  },
  "8555": {
    "postcode": "9858555",
    "prefecture": "宮城県",
    "prefecture_kana": "ミヤギケン",
    "prefecture_code": 4,
    "city": "多賀城市",
    "city_kana": "タガジョウシ",
    "town": "桜木",
    "town_kana": "サクラギ",
    "street": "３−４−１",
    "office_name": "ソニー　（株）　仙台テクノロジーセンター",
    "office_name_kana": "ソニ- (カブ) センダイテクノロジ-センタ-"
  },
  "8577": {
    "postcode": "9858577",
    "prefecture": "宮城県",
    "prefecture_kana": "ミヤギケン",
    "prefecture_code": 4,
    "city": "宮城郡七ヶ浜町",
    "city_kana": "ミヤギグンシチガハママチ",
    "town": "東宮浜",
    "town_kana": "トウグウハマ",
    "street": "字丑谷辺５−１",
    "office_name": "七ヶ浜町役場",
    "office_name_kana": "シチガハママチヤクバ"
  },
  "8601": {
    "postcode": "9858601",
    "prefecture": "宮城県",
    "prefecture_kana": "ミヤギケン",
    "prefecture_code": 4,
    "city": "塩竈市",
    "city_kana": "シオガマシ",
    "town": "旭町",
    "town_kana": "アサヒチョウ",
    "street": "１７−１５",
    "office_name": "塩釜税務署",
    "office_name_kana": "シオガマゼイムシヨ"
  },
  "8607": {
    "postcode": "9858607",
    "prefecture": "宮城県",
    "prefecture_kana": "ミヤギケン",
    "prefecture_code": 4,
    "city": "塩竈市",
    "city_kana": "シオガマシ",
    "town": "北浜",
    "town_kana": "キタハマ",
    "street": "４丁目１４−１",
    "office_name": "東北ドック鉄工　株式会社",
    "office_name_kana": "トウホクドツクテツコウ カブシキガイシヤ"
  },
  "8655": {
    "postcode": "9858655",
    "prefecture": "宮城県",
    "prefecture_kana": "ミヤギケン",
    "prefecture_code": 4,
    "city": "多賀城市",
    "city_kana": "タガジョウシ",
    "town": "丸山",
    "town_kana": "マルヤマ",
    "street": "２丁目１−１",
    "office_name": "陸上自衛隊　多賀城駐屯地　業務隊",
    "office_name_kana": "リクジヨウジエイタイ タガジヨウチユウトンチ ギヨウムタイ"
  }
}