{
  "0000": {
    "postcode": "9860000",
    "prefecture": "宮城県",
    "prefecture_kana": "ミヤギケン",
    "prefecture_code": 4,
    "city": "石巻市",
    "city_kana": "イシノマキシ",
    "town": "",
    "town_kana": "",
    "street": null,
    "office_name": null,
    "office_name_kana": null
  },
  "0001": {
    "postcode": "9860001",
    "prefecture": "宮城県",
    "prefecture_kana": "ミヤギケン",
    "prefecture_code": 4,
    "city": "石巻市",
    "city_kana": "イシノマキシ",
    "town": "水沼",
    "town_kana": "ミズヌマ",
    "street": null,
    "office_name": null,
    "office_name_kana": null
  },
  "0002": {
    "postcode": "9860002",
    "prefecture": "宮城県",
    "prefecture_kana": "ミヤギケン",
    "prefecture_code": 4,
    "city": "石巻市",
    "city_kana": "イシノマキシ",
    "town": "真野",
    "town_kana": "マノ",
    "street": null,
    "office_name": null,
    "office_name_kana": null
  },
  "0003": {
    "postcode": "9860003",
    "prefecture": "宮城県",
    "prefecture_kana": "ミヤギケン",
    "prefecture_code": 4,
    "city": "石巻市",
    "city_kana": "イシノマキシ",
    "town": "井内",
    "town_kana": "イナイ",
    "street": null,
    "office_name": null,
    "office_name_kana": null
  },
  "0004": {
    "postcode": "9860004",
    "prefecture": "宮城県",
    "prefecture_kana": "ミヤギケン",
    "prefecture_code": 4,
    "city": "石巻市",
    "city_kana": "イシノマキシ",
    "town": "新栄",
    "town_kana": "シンエイ",
    "street": null,
    "office_name": null,
    "office_name_kana": null
  },
  "0005": {
    "postcode": "9860005",
    "prefecture": "宮城県",
    "prefecture_kana": "ミヤギケン",
    "prefecture_code": 4,
    "city": "石巻市",
    "city_kana": "イシノマキシ",
    "town": "大瓜",
    "town_kana": "オウリ",
    "street": null,
    "office_name": null,
    "office_name_kana": null
  },
  "0006": {
    "postcode": "9860006",
    "prefecture": "宮城県",
    "prefecture_kana": "ミヤギケン",
    "prefecture_code": 4,
    "city": "石巻市",
    "city_kana": "イシノマキシ",
    "town": "高木",
    "town_kana": "タカキ",
    "street": null,
    "office_name": null,
    "office_name_kana": null
  },
  "0011": {
    "postcode": "9860011",
    "prefecture": "宮城県",
    "prefecture_kana": "ミヤギケン",
    "prefecture_code": 4,
    "city": "石巻市",
    "city_kana": "イシノマキシ",
    "town": "湊",
    "town_kana": "ミナト",
    "street": null,
    "office_name": null,
    "office_name_kana": null
  },
  "0013": {
    "postcode": "9860013",
    "prefecture": "宮城県",
    "prefecture_kana": "ミヤギケン",
    "prefecture_code": 4,
    "city": "石巻市",
    "city_kana": "イシノマキシ",
    "town": "鹿妻本町",
    "town_kana": "カヅマホンチョウ",
    "street": null,
    "office_name": null,
    "office_name_kana": null
  },
  "0015": {
    "postcode": "9860015",
    "prefecture": "宮城県",
    "prefecture_kana": "ミヤギケン",
    "prefecture_code": 4,
    "city": "石巻市",
    "city_kana": "イシノマキシ",
    "town": "吉野町",
    "town_kana": "ヨシノチョウ",
    "street": null,
    "office_name": null,
    "office_name_kana": null
  },
  "0016": {
    "postcode": "9860016",
    "prefecture": "宮城県",
    "prefecture_kana": "ミヤギケン",
    "prefecture_code": 4,
    "city": "石巻市",
    "city_kana": "イシノマキシ",
    "town": "八幡町",
    "town_kana": "ハチマンチョウ",
    "street": null,
    "office_name": null,
    "office_name_kana": null
  },
  "0017": {
    "postcode": "9860017",
    "prefecture": "宮城県",
    "prefecture_kana": "ミヤギケン",
    "prefecture_code": 4,
    "city": "石巻市",
    "city_kana": "イシノマキシ",
    "town": "不動町",
    "town_kana": "フドウチョウ",
    "street": null,
    "office_name": null,
    "office_name_kana": null
  },
  "0020": {
    "postcode": "9860020",
    "prefecture": "宮城県",
    "prefecture_kana": "ミヤギケン",
    "prefecture_code": 4,
    "city": "石巻市",
    "city_kana": "イシノマキシ",
    "town": "湊東",
    "town_kana": "ミナトヒガシ",
    "street": null,
    "office_name": null,
    "office_name_kana": null
  },
  "0021": {
    "postcode": "9860021",
    "prefecture": "宮城県",
    "prefecture_kana": "ミヤギケン",
    "prefecture_code": 4,
    "city": "石巻市",
    "city_kana": "イシノマキシ",
    "town": "緑町",
    "town_kana": "ミドリチョウ",
    "street": null,
    "office_name": null,
    "office_name_kana": null
  },
  "0022": {
    "postcode": "9860022",
    "prefecture": "宮城県",
    "prefecture_kana": "ミヤギケン",
    "prefecture_code": 4,
    "city": "石巻市",
    "city_kana": "イシノマキシ",
    "town": "魚町",
    "town_kana": "サカナマチ",
    "street": null,
    "office_name": null,
    "office_name_kana": null
  },
  "0023": {
    "postcode": "9860023",
    "prefecture": "宮城県",
    "prefecture_kana": "ミヤギケン",
    "prefecture_code": 4,
    "city": "石巻市",
    "city_kana": "イシノマキシ",
    "town": "田代浜",
    "town_kana": "タシロハマ",
    "street": null,
    "office_name": null,
    "office_name_kana": null
  },
  "0024": {
    "postcode": "9860024",
    "prefecture": "宮城県",
    "prefecture_kana": "ミヤギケン",
    "prefecture_code": 4,
    "city": "石巻市",
    "city_kana": "イシノマキシ",
    "town": "川口町",
    "town_kana": "カワグチチョウ",
    "street": null,
    "office_name": null,
    "office_name_kana": null
  },
  "0025": {
    "postcode": "9860025",
    "prefecture": "宮城県",
    "prefecture_kana": "ミヤギケン",
    "prefecture_code": 4,
    "city": "石巻市",
    "city_kana": "イシノマキシ",
    "town": "湊町",
    "town_kana": "ミナトチョウ",
    "street": null,
    "office_name": null,
    "office_name_kana": null
  },
  "0026": {
    "postcode": "9860026",
    "prefecture": "宮城県",
    "prefecture_kana": "ミヤギケン",
    "prefecture_code": 4,
    "city": "石巻市",
    "city_kana": "イシノマキシ",
    "town": "大門町",
    "town_kana": "ダイモンチョウ",
    "street": null,
    "office_name": null,
    "office_name_kana": null
  },
  "0027": {
    "postcode": "9860027",
    "prefecture": "宮城県",
    "prefecture_kana": "ミヤギケン",
    "prefecture_code": 4,
    "city": "石巻市",
    "city_kana": "イシノマキシ",
    "town": "明神町",
    "town_kana": "ミョウジンチョウ",
    "street": null,
    "office_name": null,
    "office_name_kana": null
  },
  "0028": {
    "postcode": "9860028",
    "prefecture": "宮城県",
    "prefecture_kana": "ミヤギケン",
    "prefecture_code": 4,
    "city": "石巻市",
    "city_kana": "イシノマキシ",
    "town": "松並",
    "town_kana": "マツナミ",
    "street": null,
    "office_name": null,
    "office_name_kana": null
  },
  "0029": {
    "postcode": "9860029",
    "prefecture": "宮城県",
    "prefecture_kana": "ミヤギケン",
    "prefecture_code": 4,
    "city": "石巻市",
    "city_kana": "イシノマキシ",
    "town": "湊西",
    "town_kana": "ミナトニシ",
    "street": null,
    "office_name": null,
    "office_name_kana": null
  },
  "0031": {
    "postcode": "9860031",
    "prefecture": "宮城県",
    "prefecture_kana": "ミヤギケン",
    "prefecture_code": 4,
    "city": "石巻市",
    "city_kana": "イシノマキシ",
    "town": "南境",
    "town_kana": "ミナミザカイ",
    "street": null,
    "office_name": null,
    "office_name_kana": null
  },
  "0032": {
    "postcode": "9860032",
    "prefecture": "宮城県",
    "prefecture_kana": "ミヤギケン",
    "prefecture_code": 4,
    "city": "石巻市",
    "city_kana": "イシノマキシ",
    "town": "開成",
    "town_kana": "カイセイ",
    "street": null,
    "office_name": null,
    "office_name_kana": null
  },
  "0033": {
    "postcode": "9860033",
    "prefecture": "宮城県",
    "prefecture_kana": "ミヤギケン",
    "prefecture_code": 4,
    "city": "石巻市",
    "city_kana": "イシノマキシ",
    "town": "美園",
    "town_kana": "ミソノ",
    "street": null,
    "office_name": null,
    "office_name_kana": null
  },
  "0041": {
    "postcode": "9860041",
    "prefecture": "宮城県",
    "prefecture_kana": "ミヤギケン",
    "prefecture_code": 4,
    "city": "石巻市",
    "city_kana": "イシノマキシ",
    "town": "伊原津",
    "town_kana": "イバラツ",
    "street": null,
    "office_name": null,
    "office_name_kana": null
  },
  "0042": {
    "postcode": "9860042",
    "prefecture": "宮城県",
    "prefecture_kana": "ミヤギケン",
    "prefecture_code": 4,
    "city": "石巻市",
    "city_kana": "イシノマキシ",
    "town": "鹿妻南",
    "town_kana": "カヅマミナミ",
    "street": null,
    "office_name": null,
    "office_name_kana": null
  },
  "0043": {
    "postcode": "9860043",
    "prefecture": "宮城県",
    "prefecture_kana": "ミヤギケン",
    "prefecture_code": 4,
    "city": "石巻市",
    "city_kana": "イシノマキシ",
    "town": "鹿妻北",
    "town_kana": "カヅマキタ",
    "street": null,
    "office_name": null,
    "office_name_kana": null
  },
  "0101": {
    "postcode": "9860101",
    "prefecture": "宮城県",
    "prefecture_kana": "ミヤギケン",
    "prefecture_code": 4,
    "city": "石巻市",
    "city_kana": "イシノマキシ",
    "town": "相野谷",
    "town_kana": "アイノヤ",
    "street": null,
    "office_name": null,
    "office_name_kana": null
  },
  "0102": {
    "postcode": "9860102",
    "prefecture": "宮城県",
    "prefecture_kana": "ミヤギケン",
    "prefecture_code": 4,
    "city": "石巻市",
    "city_kana": "イシノマキシ",
    "town": "成田",
    "town_kana": "ナリタ",
    "street": null,
    "office_name": null,
    "office_name_kana": null
  },
  "0103": {
    "postcode": "9860103",
    "prefecture": "宮城県",
    "prefecture_kana": "ミヤギケン",
    "prefecture_code": 4,
    "city": "石巻市",
    "city_kana": "イシノマキシ",
    "town": "中島",
    "town_kana": "ナカジマ",
    "street": null,
    "office_name": null,
    "office_name_kana": null
  },
  "0104": {
    "postcode": "9860104",
    "prefecture": "宮城県",
    "prefecture_kana": "ミヤギケン",
    "prefecture_code": 4,
    "city": "石巻市",
    "city_kana": "イシノマキシ",
    "town": "皿貝",
    "town_kana": "サラガイ",
    "street": null,
    "office_name": null,
    "office_name_kana": null
  },
  "0105": {
    "postcode": "9860105",
    "prefecture": "宮城県",
    "prefecture_kana": "ミヤギケン",
    "prefecture_code": 4,
    "city": "石巻市",
    "city_kana": "イシノマキシ",
    "town": "中野",
    "town_kana": "ナカノ",
    "street": null,
    "office_name": null,
    "office_name_kana": null
  },
  "0106": {
    "postcode": "9860106",
    "prefecture": "宮城県",
    "prefecture_kana": "ミヤギケン",
    "prefecture_code": 4,
    "city": "石巻市",
    "city_kana": "イシノマキシ",
    "town": "馬鞍",
    "town_kana": "マグラ",
    "street": null,
    "office_name": null,
    "office_name_kana": null
  },
  "0111": {
    "postcode": "9860111",
    "prefecture": "宮城県",
    "prefecture_kana": "ミヤギケン",
    "prefecture_code": 4,
    "city": "石巻市",
    "city_kana": "イシノマキシ",
    "town": "釜谷",
    "town_kana": "カマヤ",
    "street": null,
    "office_name": null,
    "office_name_kana": null
  },
  "0112": {
    "postcode": "9860112",
    "prefecture": "宮城県",
    "prefecture_kana": "ミヤギケン",
    "prefecture_code": 4,
    "city": "石巻市",
    "city_kana": "イシノマキシ",
    "town": "長面",
    "town_kana": "ナガツラ",
    "street": null,
    "office_name": null,
    "office_name_kana": null
  },
  "0113": {
    "postcode": "9860113",
    "prefecture": "宮城県",
    "prefecture_kana": "ミヤギケン",
    "prefecture_code": 4,
    "city": "石巻市",
    "city_kana": "イシノマキシ",
    "town": "尾ノ崎",
    "town_kana": "オノサキ",
    "street": null,
    "office_name": null,
    "office_name_kana": null
  },
  "0114": {
    "postcode": "9860114",
    "prefecture": "宮城県",
    "prefecture_kana": "ミヤギケン",
    "prefecture_code": 4,
    "city": "石巻市",
    "city_kana": "イシノマキシ",
    "town": "針岡",
    "town_kana": "ハリオカ",
    "street": null,
    "office_name": null,
    "office_name_kana": null
  },
  "0115": {
    "postcode": "9860115",
    "prefecture": "宮城県",
    "prefecture_kana": "ミヤギケン",
    "prefecture_code": 4,
    "city": "石巻市",
    "city_kana": "イシノマキシ",
    "town": "福地",
    "town_kana": "フクジ",
    "street": null,
    "office_name": null,
    "office_name_kana": null
  },
  "0121": {
    "postcode": "9860121",
    "prefecture": "宮城県",
    "prefecture_kana": "ミヤギケン",
    "prefecture_code": 4,
    "city": "石巻市",
    "city_kana": "イシノマキシ",
    "town": "大森",
    "town_kana": "オオモリ",
    "street": null,
    "office_name": null,
    "office_name_kana": null
  },
  "0122": {
    "postcode": "9860122",
    "prefecture": "宮城県",
    "prefecture_kana": "ミヤギケン",
    "prefecture_code": 4,
    "city": "石巻市",
    "city_kana": "イシノマキシ",
    "town": "東福田",
    "town_kana": "ヒガシフクダ",
    "street": null,
    "office_name": null,
    "office_name_kana": null
  },
  "0123": {
    "postcode": "9860123",
    "prefecture": "宮城県",
    "prefecture_kana": "ミヤギケン",
    "prefecture_code": 4,
    "city": "石巻市",
    "city_kana": "イシノマキシ",
    "town": "北境",
    "town_kana": "キタザカイ",
    "street": null,
    "office_name": null,
    "office_name_kana": null
  },
  "0124": {
    "postcode": "9860124",
    "prefecture": "宮城県",
    "prefecture_kana": "ミヤギケン",
    "prefecture_code": 4,
    "city": "石巻市",
    "city_kana": "イシノマキシ",
    "town": "三輪田",
    "town_kana": "ミノワダ",
    "street": null,
    "office_name": null,
    "office_name_kana": null
  },
  "0131": {
    "postcode": "9860131",
    "prefecture": "宮城県",
    "prefecture_kana": "ミヤギケン",
    "prefecture_code": 4,
    "city": "石巻市",
    "city_kana": "イシノマキシ",
    "town": "飯野",
    "town_kana": "イイノ",
    "street": null,
    "office_name": null,
    "office_name_kana": null
  },
  "0132": {
    "postcode": "9860132",
    "prefecture": "宮城県",
    "prefecture_kana": "ミヤギケン",
    "prefecture_code": 4,
    "city": "石巻市",
    "city_kana": "イシノマキシ",
    "town": "小船越",
    "town_kana": "コフナコシ",
    "street": null,
    "office_name": null,
    "office_name_kana": null
  },
  "0133": {
    "postcode": "9860133",
    "prefecture": "宮城県",
    "prefecture_kana": "ミヤギケン",
    "prefecture_code": 4,
    "city": "石巻市",
    "city_kana": "イシノマキシ",
    "town": "二子",
    "town_kana": "フタゴ",
    "street": null,
    "office_name": null,
    "office_name_kana": null
  },
  "0195": {
    "postcode": "9860195",
    "prefecture": "宮城県",
    "prefecture_kana": "ミヤギケン",
    "prefecture_code": 4,
    "city": "石巻市",
    "city_kana": "イシノマキシ",
    "town": "相野谷",
    "town_kana": "アイノヤ",
    "street": "字旧会所前１２−１",
    "office_name": "宮城県　石巻市　河北総合支所",
    "office_name_kana": "ミヤギケン イシノマキシ カホクソウゴウシシヨ"
  },
  "0201": {
    "postcode": "9860201",
    "prefecture": "宮城県",
    "prefecture_kana": "ミヤギケン",
    "prefecture_code": 4,
    "city": "石巻市",
    "city_kana": "イシノマキシ",
    "town": "北上町十三浜",
    "town_kana": "キタカミチョウジュウサンハマ",
    "street": null,
    "office_name": null,
    "office_name_kana": null
  },
  "0202": {
    "postcode": "9860202",
    "prefecture": "宮城県",
    "prefecture_kana": "ミヤギケン",
    "prefecture_code": 4,
    "city": "石巻市",
    "city_kana": "イシノマキシ",
    "town": "北上町橋浦",
    "town_kana": "キタカミチョウハシウラ",
    "street": null,
    "office_name": null,
    "office_name_kana": null
  },
  "0203": {
    "postcode": "9860203",
    "prefecture": "宮城県",
    "prefecture_kana": "ミヤギケン",
    "prefecture_code": 4,
    "city": "石巻市",
    "city_kana": "イシノマキシ",
    "town": "北上町長尾",
    "town_kana": "キタカミチョウナガオ",
    "street": null,
    "office_name": null,
    "office_name_kana": null
  },
  "0204": {
    "postcode": "9860204",
    "prefecture": "宮城県",
    "prefecture_kana": "ミヤギケン",
    "prefecture_code": 4,
    "city": "石巻市",
    "city_kana": "イシノマキシ",
    "town": "北上町女川",
    "town_kana": "キタカミチョウオナガワ",
    "street": null,
    "office_name": null,
    "office_name_kana": null
  },
  "0301": {
    "postcode": "9860301",
    "prefecture": "宮城県",
    "prefecture_kana": "ミヤギケン",
    "prefecture_code": 4,
    "city": "石巻市",
    "city_kana": "イシノマキシ",
    "town": "桃生町脇谷",
    "town_kana": "モノウチョウワキヤ",
    "street": null,
    "office_name": null,
    "office_name_kana": null
  },
  "0302": {
    "postcode": "9860302",
    "prefecture": "宮城県",
    "prefecture_kana": "ミヤギケン",
    "prefecture_code": 4,
    "city": "石巻市",
    "city_kana": "イシノマキシ",
    "town": "桃生町倉埣",
    "town_kana": "モノウチョウクラゾネ",
    "street": null,
    "office_name": null,
    "office_name_kana": null
  },
  "0303": {
    "postcode": "9860303",
    "prefecture": "宮城県",
    "prefecture_kana": "ミヤギケン",
    "prefecture_code": 4,
    "city": "石巻市",
    "city_kana": "イシノマキシ",
    "town": "桃生町永井",
    "town_kana": "モノウチョウナガイ",
    "street": null,
    "office_name": null,
    "office_name_kana": null
  },
  "0304": {
    "postcode": "9860304",
    "prefecture": "宮城県",
    "prefecture_kana": "ミヤギケン",
    "prefecture_code": 4,
    "city": "石巻市",
    "city_kana": "イシノマキシ",
    "town": "桃生町樫崎",
    "town_kana": "モノウチョウカシザキ",
    "street": null,
    "office_name": null,
    "office_name_kana": null
  },
  "0305": {
    "postcode": "9860305",
    "prefecture": "宮城県",
    "prefecture_kana": "ミヤギケン",
    "prefecture_code": 4,
    "city": "石巻市",
    "city_kana": "イシノマキシ",
    "town": "桃生町牛田",
    "town_kana": "モノウチョウウシタ",
    "street": null,
    "office_name": null,
    "office_name_kana": null
  },
  "0311": {
    "postcode": "9860311",
    "prefecture": "宮城県",
    "prefecture_kana": "ミヤギケン",
    "prefecture_code": 4,
    "city": "石巻市",
    "city_kana": "イシノマキシ",
    "town": "桃生町太田",
    "town_kana": "モノウチョウオオタ",
    "street": null,
    "office_name": null,
    "office_name_kana": null
  },
  "0312": {
    "postcode": "9860312",
    "prefecture": "宮城県",
    "prefecture_kana": "ミヤギケン",
    "prefecture_code": 4,
    "city": "石巻市",
    "city_kana": "イシノマキシ",
    "town": "桃生町城内",
    "town_kana": "モノウチョウジョウナイ",
    "street": null,
    "office_name": null,
    "office_name_kana": null
  },
  "0313": {
    "postcode": "9860313",
    "prefecture": "宮城県",
    "prefecture_kana": "ミヤギケン",
    "prefecture_code": 4,
    "city": "石巻市",
    "city_kana": "イシノマキシ",
    "town": "桃生町中津山",
    "town_kana": "モノウチョウナカツヤマ",
    "street": null,
    "office_name": null,
    "office_name_kana": null
  },
  "0314": {
    "postcode": "9860314",
    "prefecture": "宮城県",
    "prefecture_kana": "ミヤギケン",
    "prefecture_code": 4,
    "city": "石巻市",
    "city_kana": "イシノマキシ",
    "town": "桃生町寺崎",
    "town_kana": "モノウチョウテラサキ",
    "street": null,
    "office_name": null,
    "office_name_kana": null
  },
  "0321": {
    "postcode": "9860321",
    "prefecture": "宮城県",
    "prefecture_kana": "ミヤギケン",
    "prefecture_code": 4,
    "city": "石巻市",
    "city_kana": "イシノマキシ",
    "town": "桃生町新田",
    "town_kana": "モノウチョウシンデン",
    "street": null,
    "office_name": null,
    "office_name_kana": null
  },
  "0322": {
    "postcode": "9860322",
    "prefecture": "宮城県",
    "prefecture_kana": "ミヤギケン",
    "prefecture_code": 4,
    "city": "石巻市",
    "city_kana": "イシノマキシ",
    "town": "桃生町給人町",
    "town_kana": "モノウチョウキュウニンマチ",
    "street": null,
    "office_name": null,
    "office_name_kana": null
  },
  "0323": {
    "postcode": "9860323",
    "prefecture": "宮城県",
    "prefecture_kana": "ミヤギケン",
    "prefecture_code": 4,
    "city": "石巻市",
    "city_kana": "イシノマキシ",
    "town": "桃生町神取",
    "town_kana": "モノウチョウカンドリ",
    "street": null,
    "office_name": null,
    "office_name_kana": null
  },
  "0324": {
    "postcode": "9860324",
    "prefecture": "宮城県",
    "prefecture_kana": "ミヤギケン",
    "prefecture_code": 4,
    "city": "石巻市",
    "city_kana": "イシノマキシ",
    "town": "桃生町高須賀",
    "town_kana": "モノウチョウタカスカ",
    "street": null,
    "office_name": null,
    "office_name_kana": null
  },
  "0401": {
    "postcode": "9860401",
    "prefecture": "宮城県",
    "prefecture_kana": "ミヤギケン",
    "prefecture_code": 4,
    "city": "登米市",
    "city_kana": "トメシ",
    "town": "津山町柳津",
    "town_kana": "ツヤマチョウヤナイヅ",
    "street": null,
    "office_name": null,
    "office_name_kana": null
  },
  "0402": {
    "postcode": "9860402",
    "prefecture": "宮城県",
    "prefecture_kana": "ミヤギケン",
    "prefecture_code": 4,
    "city": "登米市",
    "city_kana": "トメシ",
    "town": "津山町横山",
    "town_kana": "ツヤマチョウヨコヤマ",
    "street": null,
    "office_name": null,
    "office_name_kana": null
  },
  "0700": {
    "postcode": "9860700",
    "prefecture": "宮城県",
    "prefecture_kana": "ミヤギケン",
    "prefecture_code": 4,
    "city": "本吉郡南三陸町",
    "city_kana": "モトヨシグンミナミサンリクチョウ",
    "town": "",
    "town_kana": "",
    "street": null,
    "office_name": null,
    "office_name_kana": null
  },
  "0701": {
    "postcode": "9860701",
    "prefecture": "宮城県",
    "prefecture_kana": "ミヤギケン",
    "prefecture_code": 4,
    "city": "本吉郡南三陸町",
    "city_kana": "モトヨシグンミナミサンリクチョウ",
    "town": "志津川西田",
    "town_kana": "シヅガワニシダ",
    "street": null,
    "office_name": null,
    "office_name_kana": null
  },
  "0702": {
    "postcode": "9860702",
    "prefecture": "宮城県",
    "prefecture_kana": "ミヤギケン",
    "prefecture_code": 4,
    "city": "本吉郡南三陸町",
    "city_kana": "モトヨシグンミナミサンリクチョウ",
    "town": "志津川細浦",
    "town_kana": "シヅガワホソウラ",
    "street": null,
    "office_name": null,
    "office_name_kana": null
  },
  "0703": {
    "postcode": "9860703",
    "prefecture": "宮城県",
    "prefecture_kana": "ミヤギケン",
    "prefecture_code": 4,
    "city": "本吉郡南三陸町",
    "city_kana": "モトヨシグンミナミサンリクチョウ",
    "town": "志津川蛇王",
    "town_kana": "シヅガワジャオウ",
    "street": null,
    "office_name": null,
    "office_name_kana": null
  },
  "0704": {
    "postcode": "9860704",
    "prefecture": "宮城県",
    "prefecture_kana": "ミヤギケン",
    "prefecture_code": 4,
    "city": "本吉郡南三陸町",
    "city_kana": "モトヨシグンミナミサンリクチョウ",
    "town": "志津川森山",
    "town_kana": "シヅガワモリヤマ",
    "street": null,
    "office_name": null,
    "office_name_kana": null
  },
  "0705": {
    "postcode": "9860705",
    "prefecture": "宮城県",
    "prefecture_kana": "ミヤギケン",
    "prefecture_code": 4,
    "city": "本吉郡南三陸町",
    "city_kana": "モトヨシグンミナミサンリクチョウ",
    "town": "志津川阿曽",
    "town_kana": "シヅガワアソ",
    "street": null,
    "office_name": null,
    "office_name_kana": null
  },
  "0706": {
    "postcode": "9860706",
    "prefecture": "宮城県",
    "prefecture_kana": "ミヤギケン",
    "prefecture_code": 4,
    "city": "本吉郡南三陸町",
    "city_kana": "モトヨシグンミナミサンリクチョウ",
    "town": "志津川清水浜",
    "town_kana": "シヅガワシズハマ",
    "street": null,
    "office_name": null,
    "office_name_kana": null
  },
  "0707": {
    "postcode": "9860707",
    "prefecture": "宮城県",
    "prefecture_kana": "ミヤギケン",
    "prefecture_code": 4,
    "city": "本吉郡南三陸町",
    "city_kana": "モトヨシグンミナミサンリクチョウ",
    "town": "志津川荒坂",
    "town_kana": "シヅガワアラサカ",
    "street": null,
    "office_name": null,
    "office_name_kana": null
  },
  "0708": {
    "postcode": "9860708",
    "prefecture": "宮城県",
    "prefecture_kana": "ミヤギケン",
    "prefecture_code": 4,
    "city": "本吉郡南三陸町",
    "city_kana": "モトヨシグンミナミサンリクチョウ",
    "town": "志津川松井田",
    "town_kana": "シヅガワマツイダ",
    "street": null,
    "office_name": null,
    "office_name_kana": null
  },
  "0709": {
    "postcode": "9860709",
    "prefecture": "宮城県",
    "prefecture_kana": "ミヤギケン",
    "prefecture_code": 4,
    "city": "本吉郡南三陸町",
    "city_kana": "モトヨシグンミナミサンリクチョウ",
    "town": "志津川内井田",
    "town_kana": "シヅガワウチイダ",
    "street": null,
    "office_name": null,
    "office_name_kana": null
  },
  "0711": {
    "postcode": "9860711",
    "prefecture": "宮城県",
    "prefecture_kana": "ミヤギケン",
    "prefecture_code": 4,
    "city": "本吉郡南三陸町",
    "city_kana": "モトヨシグンミナミサンリクチョウ",
    "town": "志津川権現",
    "town_kana": "シヅガワゴンゲン",
    "street": null,
    "office_name": null,
    "office_name_kana": null
  },
  "0712": {
    "postcode": "9860712",
    "prefecture": "宮城県",
    "prefecture_kana": "ミヤギケン",
    "prefecture_code": 4,
    "city": "本吉郡南三陸町",
    "city_kana": "モトヨシグンミナミサンリクチョウ",
    "town": "志津川北の又",
    "town_kana": "シヅガワキタノマタ",
    "street": null,
    "office_name": null,
    "office_name_kana": null
  },
  "0713": {
    "postcode": "9860713",
    "prefecture": "宮城県",
    "prefecture_kana": "ミヤギケン",
    "prefecture_code": 4,
    "city": "本吉郡南三陸町",
    "city_kana": "モトヨシグンミナミサンリクチョウ",
    "town": "志津川平貝",
    "town_kana": "シヅガワヒラガイ",
    "street": null,
    "office_name": null,
    "office_name_kana": null
  },
  "0714": {
    "postcode": "9860714",
    "prefecture": "宮城県",
    "prefecture_kana": "ミヤギケン",
    "prefecture_code": 4,
    "city": "本吉郡南三陸町",
    "city_kana": "モトヨシグンミナミサンリクチョウ",
    "town": "志津川蒲の沢",
    "town_kana": "シヅガワカバノサワ",
    "street": null,
    "office_name": null,
    "office_name_kana": null
  },
  "0715": {
    "postcode": "9860715",
    "prefecture": "宮城県",
    "prefecture_kana": "ミヤギケン",
    "prefecture_code": 4,
    "city": "本吉郡南三陸町",
    "city_kana": "モトヨシグンミナミサンリクチョウ",
    "town": "志津川深田",
    "town_kana": "シヅガワフカダ",
    "street": null,
    "office_name": null,
    "office_name_kana": null
  },
  "0716": {
    "postcode": "9860716",
    "prefecture": "宮城県",
    "prefecture_kana": "ミヤギケン",
    "prefecture_code": 4,
    "city": "本吉郡南三陸町",
    "city_kana": "モトヨシグンミナミサンリクチョウ",
    "town": "志津川平磯",
    "town_kana": "シヅガワヒライソ",
    "street": null,
    "office_name": null,
    "office_name_kana": null
  },
  "0717": {
    "postcode": "9860717",
    "prefecture": "宮城県",
    "prefecture_kana": "ミヤギケン",
    "prefecture_code": 4,
    "city": "本吉郡南三陸町",
    "city_kana": "モトヨシグンミナミサンリクチョウ",
    "town": "志津川袖浜",
    "town_kana": "シヅガワソデハマ",
    "street": null,
    "office_name": null,
    "office_name_kana": null
  },
  "0718": {
    "postcode": "9860718",
    "prefecture": "宮城県",
    "prefecture_kana": "ミヤギケン",
    "prefecture_code": 4,
    "city": "本吉郡南三陸町",
    "city_kana": "モトヨシグンミナミサンリクチョウ",
    "town": "志津川大畑",
    "town_kana": "シヅガワオオバタケ",
    "street": null,
    "office_name": null,
    "office_name_kana": null
  },
  "0721": {
    "postcode": "9860721",
    "prefecture": "宮城県",
    "prefecture_kana": "ミヤギケン",
    "prefecture_code": 4,
    "city": "本吉郡南三陸町",
    "city_kana": "モトヨシグンミナミサンリクチョウ",
    "town": "志津川米広",
    "town_kana": "シヅガワコメヒロ",
    "street": null,
    "office_name": null,
    "office_name_kana": null
  },
  "0722": {
    "postcode": "9860722",
    "prefecture": "宮城県",
    "prefecture_kana": "ミヤギケン",
    "prefecture_code": 4,
    "city": "本吉郡南三陸町",
    "city_kana": "モトヨシグンミナミサンリクチョウ",
    "town": "志津川大上坊",
    "town_kana": "シヅガワダイジョウボウ",
    "street": null,
    "office_name": null,
    "office_name_kana": null
  },
  "0723": {
    "postcode": "9860723",
    "prefecture": "宮城県",
    "prefecture_kana": "ミヤギケン",
    "prefecture_code": 4,
    "city": "本吉郡南三陸町",
    "city_kana": "モトヨシグンミナミサンリクチョウ",
    "town": "志津川立沢",
    "town_kana": "シヅガワタツサワ",
    "street": null,
    "office_name": null,
    "office_name_kana": null
  },
  "0724": {
    "postcode": "9860724",
    "prefecture": "宮城県",
    "prefecture_kana": "ミヤギケン",
    "prefecture_code": 4,
    "city": "本吉郡南三陸町",
    "city_kana": "モトヨシグンミナミサンリクチョウ",
    "town": "志津川平井田",
    "town_kana": "シヅガワヒライダ",
    "street": null,
    "office_name": null,
    "office_name_kana": null
  },
  "0725": {
    "postcode": "9860725",
    "prefecture": "宮城県",
    "prefecture_kana": "ミヤギケン",
    "prefecture_code": 4,
    "city": "本吉郡南三陸町",
    "city_kana": "モトヨシグンミナミサンリクチョウ",
    "town": "志津川沼田",
    "town_kana": "シヅガワヌマダ",
    "street": null,
    "office_name": null,
    "office_name_kana": null
  },
  "0726": {
    "postcode": "9860726",
    "prefecture": "宮城県",
    "prefecture_kana": "ミヤギケン",
    "prefecture_code": 4,
    "city": "本吉郡南三陸町",
    "city_kana": "モトヨシグンミナミサンリクチョウ",
    "town": "志津川磯の沢",
    "town_kana": "シヅガワイソノサワ",
    "street": null,
    "office_name": null,
    "office_name_kana": null
  },
  "0727": {
    "postcode": "9860727",
    "prefecture": "宮城県",
    "prefecture_kana": "ミヤギケン",
    "prefecture_code": 4,
    "city": "本吉郡南三陸町",
    "city_kana": "モトヨシグンミナミサンリクチョウ",
    "town": "志津川新井田",
    "town_kana": "シヅガワニイダ",
    "street": null,
    "office_name": null,
    "office_name_kana": null
  },
  "0728": {
    "postcode": "9860728",
    "prefecture": "宮城県",
    "prefecture_kana": "ミヤギケン",
    "prefecture_code": 4,
    "city": "本吉郡南三陸町",
    "city_kana": "モトヨシグンミナミサンリクチョウ",
    "town": "志津川天王山",
    "town_kana": "シヅガワテンノウサン",
    "street": null,
    "office_name": null,
    "office_name_kana": null
  },
  "0729": {
    "postcode": "9860729",
    "prefecture": "宮城県",
    "prefecture_kana": "ミヤギケン",
    "prefecture_code": 4,
    "city": "本吉郡南三陸町",
    "city_kana": "モトヨシグンミナミサンリクチョウ",
    "town": "志津川天王前",
    "town_kana": "シヅガワテンノウマエ",
    "street": null,
    "office_name": null,
    "office_name_kana": null
  },
  "0731": {
    "postcode": "9860731",
    "prefecture": "宮城県",
    "prefecture_kana": "ミヤギケン",
    "prefecture_code": 4,
    "city": "本吉郡南三陸町",
    "city_kana": "モトヨシグンミナミサンリクチョウ",
    "town": "志津川大森",
    "town_kana": "シヅガワオオモリ",
    "street": null,
    "office_name": null,
    "office_name_kana": null
  },
  "0732": {
    "postcode": "9860732",
    "prefecture": "宮城県",
    "prefecture_kana": "ミヤギケン",
    "prefecture_code": 4,
    "city": "本吉郡南三陸町",
    "city_kana": "モトヨシグンミナミサンリクチョウ",
    "town": "志津川大森町",
    "town_kana": "シヅガワオオモリチョウ",
    "street": null,
    "office_name": null,
    "office_name_kana": null
  },
  "0733": {
    "postcode": "9860733",
    "prefecture": "宮城県",
    "prefecture_kana": "ミヤギケン",
    "prefecture_code": 4,
    "city": "本吉郡南三陸町",
    "city_kana": "モトヨシグンミナミサンリクチョウ",
    "town": "志津川旭ケ浦",
    "town_kana": "シヅガワアサヒガウラ",
    "street": null,
    "office_name": null,
    "office_name_kana": null
  },
  "0741": {
    "postcode": "9860741",
    "prefecture": "宮城県",
    "prefecture_kana": "ミヤギケン",
    "prefecture_code": 4,
    "city": "本吉郡南三陸町",
    "city_kana": "モトヨシグンミナミサンリクチョウ",
    "town": "志津川十日町",
    "town_kana": "シヅガワトオカマチ",
    "street": null,
    "office_name": null,
    "office_name_kana": null
  },
  "0742": {
    "postcode": "9860742",
    "prefecture": "宮城県",
    "prefecture_kana": "ミヤギケン",
    "prefecture_code": 4,
    "city": "本吉郡南三陸町",
    "city_kana": "モトヨシグンミナミサンリクチョウ",
    "town": "志津川本浜町",
    "town_kana": "シヅガワモトハマチョウ",
    "street": null,
    "office_name": null,
    "office_name_kana": null
  },
  "0743": {
    "postcode": "9860743",
    "prefecture": "宮城県",
    "prefecture_kana": "ミヤギケン",
    "prefecture_code": 4,
    "city": "本吉郡南三陸町",
    "city_kana": "モトヨシグンミナミサンリクチョウ",
    "town": "志津川南町",
    "town_kana": "シヅガワミナミマチ",
    "street": null,
    "office_name": null,
    "office_name_kana": null
  },
  "0751": {
    "postcode": "9860751",
    "prefecture": "宮城県",
    "prefecture_kana": "ミヤギケン",
    "prefecture_code": 4,
    "city": "本吉郡南三陸町",
    "city_kana": "モトヨシグンミナミサンリクチョウ",
    "town": "志津川上の山",
    "town_kana": "シヅガワカミノヤマ",
    "street": null,
    "office_name": null,
    "office_name_kana": null
  },
  "0752": {
    "postcode": "9860752",
    "prefecture": "宮城県",
    "prefecture_kana": "ミヤギケン",
    "prefecture_code": 4,
    "city": "本吉郡南三陸町",
    "city_kana": "モトヨシグンミナミサンリクチョウ",
    "town": "志津川五日町",
    "town_kana": "シヅガワイツカマチ",
    "street": null,
    "office_name": null,
    "office_name_kana": null
  },
  "0753": {
    "postcode": "9860753",
    "prefecture": "宮城県",
    "prefecture_kana": "ミヤギケン",
    "prefecture_code": 4,
    "city": "本吉郡南三陸町",
    "city_kana": "モトヨシグンミナミサンリクチョウ",
    "town": "志津川城場",
    "town_kana": "シヅガワジョウバ",
    "street": null,
    "office_name": null,
    "office_name_kana": null
  },
  "0754": {
    "postcode": "9860754",
    "prefecture": "宮城県",
    "prefecture_kana": "ミヤギケン",
    "prefecture_code": 4,
    "city": "本吉郡南三陸町",
    "city_kana": "モトヨシグンミナミサンリクチョウ",
    "town": "志津川助作",
    "town_kana": "シヅガワスケヅクリ",
    "street": null,
    "office_name": null,
    "office_name_kana": null
  },
  "0761": {
    "postcode": "9860761",
    "prefecture": "宮城県",
    "prefecture_kana": "ミヤギケン",
    "prefecture_code": 4,
    "city": "本吉郡南三陸町",
    "city_kana": "モトヨシグンミナミサンリクチョウ",
    "town": "志津川廻館前",
    "town_kana": "シヅガワマワリタテマエ",
    "street": null,
    "office_name": null,
    "office_name_kana": null
  },
  "0762": {
    "postcode": "9860762",
    "prefecture": "宮城県",
    "prefecture_kana": "ミヤギケン",
    "prefecture_code": 4,
    "city": "本吉郡南三陸町",
    "city_kana": "モトヨシグンミナミサンリクチョウ",
    "town": "志津川塩入",
    "town_kana": "シヅガワシオイリ",
    "street": null,
    "office_name": null,
    "office_name_kana": null
  },
  "0763": {
    "postcode": "9860763",
    "prefecture": "宮城県",
    "prefecture_kana": "ミヤギケン",
    "prefecture_code": 4,
    "city": "本吉郡南三陸町",
    "city_kana": "モトヨシグンミナミサンリクチョウ",
    "town": "志津川汐見町",
    "town_kana": "シヅガワシオミチョウ",
    "street": null,
    "office_name": null,
    "office_name_kana": null
  },
  "0764": {
    "postcode": "9860764",
    "prefecture": "宮城県",
    "prefecture_kana": "ミヤギケン",
    "prefecture_code": 4,
    "city": "本吉郡南三陸町",
    "city_kana": "モトヨシグンミナミサンリクチョウ",
    "town": "志津川大久保",
    "town_kana": "シヅガワオオクボ",
    "street": null,
    "office_name": null,
    "office_name_kana": null
  },
  "0765": {
    "postcode": "9860765",
    "prefecture": "宮城県",
    "prefecture_kana": "ミヤギケン",
    "prefecture_code": 4,
    "city": "本吉郡南三陸町",
    "city_kana": "モトヨシグンミナミサンリクチョウ",
    "town": "志津川林",
    "town_kana": "シヅガワハヤシ",
    "street": null,
    "office_name": null,
    "office_name_kana": null
  },
  "0766": {
    "postcode": "9860766",
    "prefecture": "宮城県",
    "prefecture_kana": "ミヤギケン",
    "prefecture_code": 4,
    "city": "本吉郡南三陸町",
    "city_kana": "モトヨシグンミナミサンリクチョウ",
    "town": "志津川黒崎",
    "town_kana": "シヅガワクロサキ",
    "street": null,
    "office_name": null,
    "office_name_kana": null
  },
  "0767": {
    "postcode": "9860767",
    "prefecture": "宮城県",
    "prefecture_kana": "ミヤギケン",
    "prefecture_code": 4,
    "city": "本吉郡南三陸町",
    "city_kana": "モトヨシグンミナミサンリクチョウ",
    "town": "志津川中瀬町",
    "town_kana": "シヅガワナカセマチ",
    "street": null,
    "office_name": null,
    "office_name_kana": null
  },
  "0768": {
    "postcode": "9860768",
    "prefecture": "宮城県",
    "prefecture_kana": "ミヤギケン",
    "prefecture_code": 4,
    "city": "本吉郡南三陸町",
    "city_kana": "モトヨシグンミナミサンリクチョウ",
    "town": "志津川御前下",
    "town_kana": "シヅガワゴゼンシタ",
    "street": null,
    "office_name": null,
    "office_name_kana": null
  },
  "0771": {
    "postcode": "9860771",
    "prefecture": "宮城県",
    "prefecture_kana": "ミヤギケン",
    "prefecture_code": 4,
    "city": "本吉郡南三陸町",
    "city_kana": "モトヨシグンミナミサンリクチョウ",
    "town": "志津川大沢",
    "town_kana": "シヅガワオオサワ",
    "street": null,
    "office_name": null,
    "office_name_kana": null
  },
  "0772": {
    "postcode": "9860772",
    "prefecture": "宮城県",
    "prefecture_kana": "ミヤギケン",
    "prefecture_code": 4,
    "city": "本吉郡南三陸町",
    "city_kana": "モトヨシグンミナミサンリクチョウ",
    "town": "志津川秋目川",
    "town_kana": "シヅガワアキメガワ",
    "street": null,
    "office_name": null,
    "office_name_kana": null
  },
  "0773": {
    "postcode": "9860773",
    "prefecture": "宮城県",
    "prefecture_kana": "ミヤギケン",
    "prefecture_code": 4,
    "city": "本吉郡南三陸町",
    "city_kana": "モトヨシグンミナミサンリクチョウ",
    "town": "志津川熊田",
    "town_kana": "シヅガワクマダ",
    "street": null,
    "office_name": null,
    "office_name_kana": null
  },
  "0774": {
    "postcode": "9860774",
    "prefecture": "宮城県",
    "prefecture_kana": "ミヤギケン",
    "prefecture_code": 4,
    "city": "本吉郡南三陸町",
    "city_kana": "モトヨシグンミナミサンリクチョウ",
    "town": "志津川小森",
    "town_kana": "シヅガワコモリ",
    "street": null,
    "office_name": null,
    "office_name_kana": null
  },
  "0775": {
    "postcode": "9860775",
    "prefecture": "宮城県",
    "prefecture_kana": "ミヤギケン",
    "prefecture_code": 4,
    "city": "本吉郡南三陸町",
    "city_kana": "モトヨシグンミナミサンリクチョウ",
    "town": "志津川廻館",
    "town_kana": "シヅガワマワリタテ",
    "street": null,
    "office_name": null,
    "office_name_kana": null
  },
  "0776": {
    "postcode": "9860776",
    "prefecture": "宮城県",
    "prefecture_kana": "ミヤギケン",
    "prefecture_code": 4,
    "city": "本吉郡南三陸町",
    "city_kana": "モトヨシグンミナミサンリクチョウ",
    "town": "志津川竹川原",
    "town_kana": "シヅガワタケガワラ",
    "street": null,
    "office_name": null,
    "office_name_kana": null
  },
  "0777": {
    "postcode": "9860777",
    "prefecture": "宮城県",
    "prefecture_kana": "ミヤギケン",
    "prefecture_code": 4,
    "city": "本吉郡南三陸町",
    "city_kana": "モトヨシグンミナミサンリクチョウ",
    "town": "志津川上保呂毛",
    "town_kana": "シヅガワカミホロケ",
    "street": null,
    "office_name": null,
    "office_name_kana": null
  },
  "0778": {
    "postcode": "9860778",
    "prefecture": "宮城県",
    "prefecture_kana": "ミヤギケン",
    "prefecture_code": 4,
    "city": "本吉郡南三陸町",
    "city_kana": "モトヨシグンミナミサンリクチョウ",
    "town": "志津川下保呂毛",
    "town_kana": "シヅガワシモホロケ",
    "street": null,
    "office_name": null,
    "office_name_kana": null
  },
  "0779": {
    "postcode": "9860779",
    "prefecture": "宮城県",
    "prefecture_kana": "ミヤギケン",
    "prefecture_code": 4,
    "city": "本吉郡南三陸町",
    "city_kana": "モトヨシグンミナミサンリクチョウ",
    "town": "志津川田尻畑",
    "town_kana": "シヅガワタジリバタケ",
    "street": null,
    "office_name": null,
    "office_name_kana": null
  },
  "0781": {
    "postcode": "9860781",
    "prefecture": "宮城県",
    "prefecture_kana": "ミヤギケン",
    "prefecture_code": 4,
    "city": "本吉郡南三陸町",
    "city_kana": "モトヨシグンミナミサンリクチョウ",
    "town": "戸倉",
    "town_kana": "トクラ",
    "street": null,
    "office_name": null,
    "office_name_kana": null
  },
  "0782": {
    "postcode": "9860782",
    "prefecture": "宮城県",
    "prefecture_kana": "ミヤギケン",
    "prefecture_code": 4,
    "city": "本吉郡南三陸町",
    "city_kana": "モトヨシグンミナミサンリクチョウ",
    "town": "入谷",
    "town_kana": "イリヤ",
    "street": null,
    "office_name": null,
    "office_name_kana": null
  },
  "0792": {
    "postcode": "9860792",
    "prefecture": "宮城県",
    "prefecture_kana": "ミヤギケン",
    "prefecture_code": 4,
    "city": "本吉郡南三陸町",
    "city_kana": "モトヨシグンミナミサンリクチョウ",
    "town": "志津川",
    "town_kana": null,
    "street": "字塩入７７番地（志津川郵便局私書箱第３号）",
    "office_name": "南三陸町役場",
    "office_name_kana": "ミナミサンリクチヨウヤクバ"
  },
  "0801": {
    "postcode": "9860801",
    "prefecture": "宮城県",
    "prefecture_kana": "ミヤギケン",
    "prefecture_code": 4,
    "city": "石巻市",
    "city_kana": "イシノマキシ",
    "town": "水明北",
    "town_kana": "スイメイキタ",
    "street": null,
    "office_name": null,
    "office_name_kana": null
  },
  "0802": {
    "postcode": "9860802",
    "prefecture": "宮城県",
    "prefecture_kana": "ミヤギケン",
    "prefecture_code": 4,
    "city": "石巻市",
    "city_kana": "イシノマキシ",
    "town": "水明南",
    "town_kana": "スイメイミナミ",
    "street": null,
    "office_name": null,
    "office_name_kana": null
  },
  "0803": {
    "postcode": "9860803",
    "prefecture": "宮城県",
    "prefecture_kana": "ミヤギケン",
    "prefecture_code": 4,
    "city": "石巻市",
    "city_kana": "イシノマキシ",
    "town": "水押",
    "town_kana": "ミズオシ",
    "street": null,
    "office_name": null,
    "office_name_kana": null
  },
  "0805": {
    "postcode": "9860805",
    "prefecture": "宮城県",
    "prefecture_kana": "ミヤギケン",
    "prefecture_code": 4,
    "city": "石巻市",
    "city_kana": "イシノマキシ",
    "town": "大橋",
    "town_kana": "オオハシ",
    "street": null,
    "office_name": null,
    "office_name_kana": null
  },
  "0806": {
    "postcode": "9860806",
    "prefecture": "宮城県",
    "prefecture_kana": "ミヤギケン",
    "prefecture_code": 4,
    "city": "石巻市",
    "city_kana": "イシノマキシ",
    "town": "開北",
    "town_kana": "カイホク",
    "street": null,
    "office_name": null,
    "office_name_kana": null
  },
  "0811": {
    "postcode": "9860811",
    "prefecture": "宮城県",
    "prefecture_kana": "ミヤギケン",
    "prefecture_code": 4,
    "city": "石巻市",
    "city_kana": "イシノマキシ",
    "town": "元倉",
    "town_kana": "モトクラ",
    "street": null,
    "office_name": null,
    "office_name_kana": null
  },
  "0812": {
    "postcode": "9860812",
    "prefecture": "宮城県",
    "prefecture_kana": "ミヤギケン",
    "prefecture_code": 4,
    "city": "石巻市",
    "city_kana": "イシノマキシ",
    "town": "東中里",
    "town_kana": "ヒガシナカサト",
    "street": null,
    "office_name": null,
    "office_name_kana": null
  },
  "0813": {
    "postcode": "9860813",
    "prefecture": "宮城県",
    "prefecture_kana": "ミヤギケン",
    "prefecture_code": 4,
    "city": "石巻市",
    "city_kana": "イシノマキシ",
    "town": "駅前北通り",
    "town_kana": "エキマエキタドオリ",
    "street": null,
    "office_name": null,
    "office_name_kana": null
  },
  "0814": {
    "postcode": "9860814",
    "prefecture": "宮城県",
    "prefecture_kana": "ミヤギケン",
    "prefecture_code": 4,
    "city": "石巻市",
    "city_kana": "イシノマキシ",
    "town": "南中里",
    "town_kana": "ミナミナカサト",
    "street": null,
    "office_name": null,
    "office_name_kana": null
  },
  "0815": {
    "postcode": "9860815",
    "prefecture": "宮城県",
    "prefecture_kana": "ミヤギケン",
    "prefecture_code": 4,
    "city": "石巻市",
    "city_kana": "イシノマキシ",
    "town": "中里",
    "town_kana": "ナカサト",
    "street": null,
    "office_name": null,
    "office_name_kana": null
  },
  "0821": {
    "postcode": "9860821",
    "prefecture": "宮城県",
    "prefecture_kana": "ミヤギケン",
    "prefecture_code": 4,
    "city": "石巻市",
    "city_kana": "イシノマキシ",
    "town": "住吉町",
    "town_kana": "スミヨシチョウ",
    "street": null,
    "office_name": null,
    "office_name_kana": null
  },
  "0822": {
    "postcode": "9860822",
    "prefecture": "宮城県",
    "prefecture_kana": "ミヤギケン",
    "prefecture_code": 4,
    "city": "石巻市",
    "city_kana": "イシノマキシ",
    "town": "中央",
    "town_kana": "チュウオウ",
    "street": null,
    "office_name": null,
    "office_name_kana": null
  },
  "0823": {
    "postcode": "9860823",
    "prefecture": "宮城県",
    "prefecture_kana": "ミヤギケン",
    "prefecture_code": 4,
    "city": "石巻市",
    "city_kana": "イシノマキシ",
    "town": "中瀬",
    "town_kana": "ナカゼ",
    "street": null,
    "office_name": null,
    "office_name_kana": null
  },
  "0824": {
    "postcode": "9860824",
    "prefecture": "宮城県",
    "prefecture_kana": "ミヤギケン",
    "prefecture_code": 4,
    "city": "石巻市",
    "city_kana": "イシノマキシ",
    "town": "立町",
    "town_kana": "タチマチ",
    "street": null,
    "office_name": null,
    "office_name_kana": null
  },
  "0825": {
    "postcode": "9860825",
    "prefecture": "宮城県",
    "prefecture_kana": "ミヤギケン",
    "prefecture_code": 4,
    "city": "石巻市",
    "city_kana": "イシノマキシ",
    "town": "穀町",
    "town_kana": "コクチョウ",
    "street": null,
    "office_name": null,
    "office_name_kana": null
  },
  "0826": {
    "postcode": "9860826",
    "prefecture": "宮城県",
    "prefecture_kana": "ミヤギケン",
    "prefecture_code": 4,
    "city": "石巻市",
    "city_kana": "イシノマキシ",
    "town": "鋳銭場",
    "town_kana": "イセンバ",
    "street": null,
    "office_name": null,
    "office_name_kana": null
  },
  "0827": {
    "postcode": "9860827",
    "prefecture": "宮城県",
    "prefecture_kana": "ミヤギケン",
    "prefecture_code": 4,
    "city": "石巻市",
    "city_kana": "イシノマキシ",
    "town": "千石町",
    "town_kana": "センゴクチョウ",
    "street": null,
    "office_name": null,
    "office_name_kana": null
  },
  "0828": {
    "postcode": "9860828",
    "prefecture": "宮城県",
    "prefecture_kana": "ミヤギケン",
    "prefecture_code": 4,
    "city": "石巻市",
    "city_kana": "イシノマキシ",
    "town": "旭町",
    "town_kana": "アサヒチョウ",
    "street": null,
    "office_name": null,
    "office_name_kana": null
  },
  "0831": {
    "postcode": "9860831",
    "prefecture": "宮城県",
    "prefecture_kana": "ミヤギケン",
    "prefecture_code": 4,
    "city": "石巻市",
    "city_kana": "イシノマキシ",
    "town": "羽黒町",
    "town_kana": "ハグロチョウ",
    "street": null,
    "office_name": null,
    "office_name_kana": null
  },
  "0832": {
    "postcode": "9860832",
    "prefecture": "宮城県",
    "prefecture_kana": "ミヤギケン",
    "prefecture_code": 4,
    "city": "石巻市",
    "city_kana": "イシノマキシ",
    "town": "泉町",
    "town_kana": "イズミチョウ",
    "street": null,
    "office_name": null,
    "office_name_kana": null
  },
  "0833": {
    "postcode": "9860833",
    "prefecture": "宮城県",
    "prefecture_kana": "ミヤギケン",
    "prefecture_code": 4,
    "city": "石巻市",
    "city_kana": "イシノマキシ",
    "town": "日和が丘",
    "town_kana": "ヒヨリガオカ",
    "street": null,
    "office_name": null,
    "office_name_kana": null
  },
  "0834": {
    "postcode": "9860834",
    "prefecture": "宮城県",
    "prefecture_kana": "ミヤギケン",
    "prefecture_code": 4,
    "city": "石巻市",
    "city_kana": "イシノマキシ",
    "town": "門脇町",
    "town_kana": "カドノワキチョウ",
    "street": null,
    "office_name": null,
    "office_name_kana": null
  },
  "0835": {
    "postcode": "9860835",
    "prefecture": "宮城県",
    "prefecture_kana": "ミヤギケン",
    "prefecture_code": 4,
    "city": "石巻市",
    "city_kana": "イシノマキシ",
    "town": "南浜町",
    "town_kana": "ミナミハマチョウ",
    "street": null,
    "office_name": null,
    "office_name_kana": null
  },
  "0836": {
    "postcode": "9860836",
    "prefecture": "宮城県",
    "prefecture_kana": "ミヤギケン",
    "prefecture_code": 4,
    "city": "石巻市",
    "city_kana": "イシノマキシ",
    "town": "南光町",
    "town_kana": "ナンコウチョウ",
    "street": null,
    "office_name": null,
    "office_name_kana": null
  },
  "0837": {
    "postcode": "9860837",
    "prefecture": "宮城県",
    "prefecture_kana": "ミヤギケン",
    "prefecture_code": 4,
    "city": "石巻市",
    "city_kana": "イシノマキシ",
    "town": "宜山町",
    "town_kana": "ヨシヤマチョウ",
    "street": null,
    "office_name": null,
    "office_name_kana": null
  },
  "0838": {
    "postcode": "9860838",
    "prefecture": "宮城県",
    "prefecture_kana": "ミヤギケン",
    "prefecture_code": 4,
    "city": "石巻市",
    "city_kana": "イシノマキシ",
    "town": "大手町",
    "town_kana": "オオテマチ",
    "street": null,
    "office_name": null,
    "office_name_kana": null
  },
  "0841": {
    "postcode": "9860841",
    "prefecture": "宮城県",
    "prefecture_kana": "ミヤギケン",
    "prefecture_code": 4,
    "city": "石巻市",
    "city_kana": "イシノマキシ",
    "town": "雲雀野町",
    "town_kana": "ヒバリノチョウ",
    "street": null,
    "office_name": null,
    "office_name_kana": null
  },
  "0842": {
    "postcode": "9860842",
    "prefecture": "宮城県",
    "prefecture_kana": "ミヤギケン",
    "prefecture_code": 4,
    "city": "石巻市",
    "city_kana": "イシノマキシ",
    "town": "潮見町",
    "town_kana": "シオミチョウ",
    "street": null,
    "office_name": null,
    "office_name_kana": null
  },
  "0843": {
    "postcode": "9860843",
    "prefecture": "宮城県",
    "prefecture_kana": "ミヤギケン",
    "prefecture_code": 4,
    "city": "石巻市",
    "city_kana": "イシノマキシ",
    "town": "西浜町",
    "town_kana": "ニシハマチョウ",
    "street": null,
    "office_name": null,
    "office_name_kana": null
  },
  "0844": {
    "postcode": "9860844",
    "prefecture": "宮城県",
    "prefecture_kana": "ミヤギケン",
    "prefecture_code": 4,
    "city": "石巻市",
    "city_kana": "イシノマキシ",
    "town": "重吉町",
    "town_kana": "シゲヨシチョウ",
    "street": null,
    "office_name": null,
    "office_name_kana": null
  },
  "0845": {
    "postcode": "9860845",
    "prefecture": "宮城県",
    "prefecture_kana": "ミヤギケン",
    "prefecture_code": 4,
    "city": "石巻市",
    "city_kana": "イシノマキシ",
    "town": "中島町",
    "town_kana": "ナカジマチョウ",
    "street": null,
    "office_name": null,
    "office_name_kana": null
  },
  "0846": {
    "postcode": "9860846",
    "prefecture": "宮城県",
    "prefecture_kana": "ミヤギケン",
    "prefecture_code": 4,
    "city": "石巻市",
    "city_kana": "イシノマキシ",
    "town": "三河町",
    "town_kana": "ミカワチョウ",
    "street": null,
    "office_name": null,
    "office_name_kana": null
  },
  "0847": {
    "postcode": "9860847",
    "prefecture": "宮城県",
    "prefecture_kana": "ミヤギケン",
    "prefecture_code": 4,
    "city": "石巻市",
    "city_kana": "イシノマキシ",
    "town": "中浦",
    "town_kana": "ナカウラ",
    "street": null,
    "office_name": null,
    "office_name_kana": null
  },
  "0848": {
    "postcode": "9860848",
    "prefecture": "宮城県",
    "prefecture_kana": "ミヤギケン",
    "prefecture_code": 4,
    "city": "石巻市",
    "city_kana": "イシノマキシ",
    "town": "新館",
    "town_kana": "シンタテ",
    "street": null,
    "office_name": null,
    "office_name_kana": null
  },
  "0849": {
    "postcode": "9860849",
    "prefecture": "宮城県",
    "prefecture_kana": "ミヤギケン",
    "prefecture_code": 4,
    "city": "石巻市",
    "city_kana": "イシノマキシ",
    "town": "中屋敷",
    "town_kana": "ナカヤシキ",
    "street": null,
    "office_name": null,
    "office_name_kana": null
  },
  "0850": {
    "postcode": "9860850",
    "prefecture": "宮城県",
    "prefecture_kana": "ミヤギケン",
    "prefecture_code": 4,
    "city": "石巻市",
    "city_kana": "イシノマキシ",
    "town": "あゆみ野",
    "town_kana": "アユミノ",
    "street": null,
    "office_name": null,
    "office_name_kana": null
  },
  "0851": {
    "postcode": "9860851",
    "prefecture": "宮城県",
    "prefecture_kana": "ミヤギケン",
    "prefecture_code": 4,
    "city": "石巻市",
    "city_kana": "イシノマキシ",
    "town": "貞山",
    "town_kana": "テイザン",
    "street": null,
    "office_name": null,
    "office_name_kana": null
  },
  "0852": {
    "postcode": "9860852",
    "prefecture": "宮城県",
    "prefecture_kana": "ミヤギケン",
    "prefecture_code": 4,
    "city": "石巻市",
    "city_kana": "イシノマキシ",
    "town": "南谷地",
    "town_kana": "ミナミヤチ",
    "street": null,
    "office_name": null,
    "office_name_kana": null
  },
  "0853": {
    "postcode": "9860853",
    "prefecture": "宮城県",
    "prefecture_kana": "ミヤギケン",
    "prefecture_code": 4,
    "city": "石巻市",
    "city_kana": "イシノマキシ",
    "town": "門脇",
    "town_kana": "カドノワキ",
    "street": null,
    "office_name": null,
    "office_name_kana": null
  },
  "0854": {
    "postcode": "9860854",
    "prefecture": "宮城県",
    "prefecture_kana": "ミヤギケン",
    "prefecture_code": 4,
    "city": "石巻市",
    "city_kana": "イシノマキシ",
    "town": "大街道北",
    "town_kana": "オオカイドウキタ",
    "street": null,
    "office_name": null,
    "office_name_kana": null
  },
  "0855": {
    "postcode": "9860855",
    "prefecture": "宮城県",
    "prefecture_kana": "ミヤギケン",
    "prefecture_code": 4,
    "city": "石巻市",
    "city_kana": "イシノマキシ",
    "town": "大街道東",
    "town_kana": "オオカイドウヒガシ",
    "street": null,
    "office_name": null,
    "office_name_kana": null
  },
  "0856": {
    "postcode": "9860856",
    "prefecture": "宮城県",
    "prefecture_kana": "ミヤギケン",
    "prefecture_code": 4,
    "city": "石巻市",
    "city_kana": "イシノマキシ",
    "town": "大街道南",
    "town_kana": "オオカイドウミナミ",
    "street": null,
    "office_name": null,
    "office_name_kana": null
  },
  "0857": {
    "postcode": "9860857",
    "prefecture": "宮城県",
    "prefecture_kana": "ミヤギケン",
    "prefecture_code": 4,
    "city": "石巻市",
    "city_kana": "イシノマキシ",
    "town": "築山",
    "town_kana": "ツキヤマ",
    "street": null,
    "office_name": null,
    "office_name_kana": null
  },
  "0858": {
    "postcode": "9860858",
    "prefecture": "宮城県",
    "prefecture_kana": "ミヤギケン",
    "prefecture_code": 4,
    "city": "石巻市",
    "city_kana": "イシノマキシ",
    "town": "三ツ股",
    "town_kana": "ミツマタ",
    "street": null,
    "office_name": null,
    "office_name_kana": null
  },
  "0859": {
    "postcode": "9860859",
    "prefecture": "宮城県",
    "prefecture_kana": "ミヤギケン",
    "prefecture_code": 4,
    "city": "石巻市",
    "city_kana": "イシノマキシ",
    "town": "大街道西",
    "town_kana": "オオカイドウニシ",
    "street": null,
    "office_name": null,
    "office_name_kana": null
  },
  "0860": {
    "postcode": "9860860",
    "prefecture": "宮城県",
    "prefecture_kana": "ミヤギケン",
    "prefecture_code": 4,
    "city": "石巻市",
    "city_kana": "イシノマキシ",
    "town": "のぞみ野",
    "town_kana": "ノゾミノ",
    "street": null,
    "office_name": null,
    "office_name_kana": null
  },
  "0861": {
    "postcode": "9860861",
    "prefecture": "宮城県",
    "prefecture_kana": "ミヤギケン",
    "prefecture_code": 4,
    "city": "石巻市",
    "city_kana": "イシノマキシ",
    "town": "蛇田",
    "town_kana": "ヘビタ",
    "street": null,
    "office_name": null,
    "office_name_kana": null
  },
  "0862": {
    "postcode": "9860862",
    "prefecture": "宮城県",
    "prefecture_kana": "ミヤギケン",
    "prefecture_code": 4,
    "city": "石巻市",
    "city_kana": "イシノマキシ",
    "town": "あけぼの",
    "town_kana": "アケボノ",
    "street": null,
    "office_name": null,
    "office_name_kana": null
  },
  "0863": {
    "postcode": "9860863",
    "prefecture": "宮城県",
    "prefecture_kana": "ミヤギケン",
    "prefecture_code": 4,
    "city": "石巻市",
    "city_kana": "イシノマキシ",
    "town": "向陽町",
    "town_kana": "コウヨウチョウ",
    "street": null,
    "office_name": null,
    "office_name_kana": null
  },
  "0864": {
    "postcode": "9860864",
    "prefecture": "宮城県",
    "prefecture_kana": "ミヤギケン",
    "prefecture_code": 4,
    "city": "石巻市",
    "city_kana": "イシノマキシ",
    "town": "新境町",
    "town_kana": "シンサカイチョウ",
    "street": null,
    "office_name": null,
    "office_name_kana": null
  },
  "0865": {
    "postcode": "9860865",
    "prefecture": "宮城県",
    "prefecture_kana": "ミヤギケン",
    "prefecture_code": 4,
    "city": "石巻市",
    "city_kana": "イシノマキシ",
    "town": "丸井戸",
    "town_kana": "マルイド",
    "street": null,
    "office_name": null,
    "office_name_kana": null
  },
  "0866": {
    "postcode": "9860866",
    "prefecture": "宮城県",
    "prefecture_kana": "ミヤギケン",
    "prefecture_code": 4,
    "city": "石巻市",
    "city_kana": "イシノマキシ",
    "town": "茜平",
    "town_kana": "アカネダイラ",
    "street": null,
    "office_name": null,
    "office_name_kana": null
  },
  "0867": {
    "postcode": "9860867",
    "prefecture": "宮城県",
    "prefecture_kana": "ミヤギケン",
    "prefecture_code": 4,
    "city": "石巻市",
    "city_kana": "イシノマキシ",
    "town": "わかば",
    "town_kana": "ワカバ",
    "street": null,
    "office_name": null,
    "office_name_kana": null
  },
  "0868": {
    "postcode": "9860868",
    "prefecture": "宮城県",
    "prefecture_kana": "ミヤギケン",
    "prefecture_code": 4,
    "city": "石巻市",
    "city_kana": "イシノマキシ",
    "town": "恵み野",
    "town_kana": "メグミノ",
    "street": null,
    "office_name": null,
    "office_name_kana": null
  },
  "0869": {
    "postcode": "9860869",
    "prefecture": "宮城県",
    "prefecture_kana": "ミヤギケン",
    "prefecture_code": 4,
    "city": "石巻市",
    "city_kana": "イシノマキシ",
    "town": "あけぼの北",
    "town_kana": "アケボノキタ",
    "street": null,
    "office_name": null,
    "office_name_kana": null
  },
  "0871": {
    "postcode": "9860871",
    "prefecture": "宮城県",
    "prefecture_kana": "ミヤギケン",
    "prefecture_code": 4,
    "city": "石巻市",
    "city_kana": "イシノマキシ",
    "town": "清水町",
    "town_kana": "シミズチョウ",
    "street": null,
    "office_name": null,
    "office_name_kana": null
  },
  "0872": {
    "postcode": "9860872",
    "prefecture": "宮城県",
    "prefecture_kana": "ミヤギケン",
    "prefecture_code": 4,
    "city": "石巻市",
    "city_kana": "イシノマキシ",
    "town": "田道町",
    "town_kana": "タミチチョウ",
    "street": null,
    "office_name": null,
    "office_name_kana": null
  },
  "0873": {
    "postcode": "9860873",
    "prefecture": "宮城県",
    "prefecture_kana": "ミヤギケン",
    "prefecture_code": 4,
    "city": "石巻市",
    "city_kana": "イシノマキシ",
    "town": "山下町",
    "town_kana": "ヤマシタチョウ",
    "street": null,
    "office_name": null,
    "office_name_kana": null
  },
  "0874": {
    "postcode": "9860874",
    "prefecture": "宮城県",
    "prefecture_kana": "ミヤギケン",
    "prefecture_code": 4,
    "city": "石巻市",
    "city_kana": "イシノマキシ",
    "town": "双葉町",
    "town_kana": "フタバチョウ",
    "street": null,
    "office_name": null,
    "office_name_kana": null
  },
  "0875": {
    "postcode": "9860875",
    "prefecture": "宮城県",
    "prefecture_kana": "ミヤギケン",
    "prefecture_code": 4,
    "city": "石巻市",
    "city_kana": "イシノマキシ",
    "town": "末広町",
    "town_kana": "スエヒロチョウ",
    "street": null,
    "office_name": null,
    "office_name_kana": null
  },
  "0876": {
    "postcode": "9860876",
    "prefecture": "宮城県",
    "prefecture_kana": "ミヤギケン",
    "prefecture_code": 4,
    "city": "石巻市",
    "city_kana": "イシノマキシ",
    "town": "西山町",
    "town_kana": "ニシヤマチョウ",
    "street": null,
    "office_name": null,
    "office_name_kana": null
  },
  "0877": {
    "postcode": "9860877",
    "prefecture": "宮城県",
    "prefecture_kana": "ミヤギケン",
    "prefecture_code": 4,
    "city": "石巻市",
    "city_kana": "イシノマキシ",
    "town": "錦町",
    "town_kana": "ニシキチョウ",
    "street": null,
    "office_name": null,
    "office_name_kana": null
  },
  "0878": {
    "postcode": "9860878",
    "prefecture": "宮城県",
    "prefecture_kana": "ミヤギケン",
    "prefecture_code": 4,
    "city": "石巻市",
    "city_kana": "イシノマキシ",
    "town": "新橋",
    "town_kana": "シンバシ",
    "street": null,
    "office_name": null,
    "office_name_kana": null
  },
  "0881": {
    "postcode": "9860881",
    "prefecture": "宮城県",
    "prefecture_kana": "ミヤギケン",
    "prefecture_code": 4,
    "city": "石巻市",
    "city_kana": "イシノマキシ",
    "town": "明神南",
    "town_kana": "ミョウジンミナミ",
    "street": null,
    "office_name": null,
    "office_name_kana": null
  },
  "0882": {
    "postcode": "9860882",
    "prefecture": "宮城県",
    "prefecture_kana": "ミヤギケン",
    "prefecture_code": 4,
    "city": "石巻市",
    "city_kana": "イシノマキシ",
    "town": "浦屋敷南",
    "town_kana": "ウラヤシキミナミ",
    "street": null,
    "office_name": null,
    "office_name_kana": null
  },
  "0883": {
    "postcode": "9860883",
    "prefecture": "宮城県",
    "prefecture_kana": "ミヤギケン",
    "prefecture_code": 4,
    "city": "石巻市",
    "city_kana": "イシノマキシ",
    "town": "新館南",
    "town_kana": "シンタテミナミ",
    "street": null,
    "office_name": null,
    "office_name_kana": null
  },
  "1111": {
    "postcode": "9861111",
    "prefecture": "宮城県",
    "prefecture_kana": "ミヤギケン",
    "prefecture_code": 4,
    "city": "石巻市",
    "city_kana": "イシノマキシ",
    "town": "鹿又",
    "town_kana": "カノマタ",
    "street": null,
    "office_name": null,
    "office_name_kana": null
  },
  "1301": {
    "postcode": "9861301",
    "prefecture": "宮城県",
    "prefecture_kana": "ミヤギケン",
    "prefecture_code": 4,
    "city": "石巻市",
    "city_kana": "イシノマキシ",
    "town": "雄勝町船越",
    "town_kana": "オガツチョウフナコシ",
    "street": null,
    "office_name": null,
    "office_name_kana": null
  },
  "1302": {
    "postcode": "9861302",
    "prefecture": "宮城県",
    "prefecture_kana": "ミヤギケン",
    "prefecture_code": 4,
    "city": "石巻市",
    "city_kana": "イシノマキシ",
    "town": "雄勝町大浜",
    "town_kana": "オガツチョウオオハマ",
    "street": null,
    "office_name": null,
    "office_name_kana": null
  },
  "1303": {
    "postcode": "9861303",
    "prefecture": "宮城県",
    "prefecture_kana": "ミヤギケン",
    "prefecture_code": 4,
    "city": "石巻市",
    "city_kana": "イシノマキシ",
    "town": "雄勝町立浜",
    "town_kana": "オガツチョウタチハマ",
    "street": null,
    "office_name": null,
    "office_name_kana": null
  },
  "1304": {
    "postcode": "9861304",
    "prefecture": "宮城県",
    "prefecture_kana": "ミヤギケン",
    "prefecture_code": 4,
    "city": "石巻市",
    "city_kana": "イシノマキシ",
    "town": "雄勝町名振",
    "town_kana": "オガツチョウナブリ",
    "street": null,
    "office_name": null,
    "office_name_kana": null
  },
  "1311": {
    "postcode": "9861311",
    "prefecture": "宮城県",
    "prefecture_kana": "ミヤギケン",
    "prefecture_code": 4,
    "city": "石巻市",
    "city_kana": "イシノマキシ",
    "town": "雄勝町大須",
    "town_kana": "オガツチョウオオス",
    "street": null,
    "office_name": null,
    "office_name_kana": null
  },
  "1312": {
    "postcode": "9861312",
    "prefecture": "宮城県",
    "prefecture_kana": "ミヤギケン",
    "prefecture_code": 4,
    "city": "石巻市",
    "city_kana": "イシノマキシ",
    "town": "雄勝町熊沢",
    "town_kana": "オガツチョウクマザワ",
    "street": null,
    "office_name": null,
    "office_name_kana": null
  },
  "1313": {
    "postcode": "9861313",
    "prefecture": "宮城県",
    "prefecture_kana": "ミヤギケン",
    "prefecture_code": 4,
    "city": "石巻市",
    "city_kana": "イシノマキシ",
    "town": "雄勝町桑浜",
    "town_kana": "オガツチョウクワハマ",
    "street": null,
    "office_name": null,
    "office_name_kana": null
  },
  "1321": {
    "postcode": "9861321",
    "prefecture": "宮城県",
    "prefecture_kana": "ミヤギケン",
    "prefecture_code": 4,
    "city": "石巻市",
    "city_kana": "イシノマキシ",
    "town": "雄勝町水浜",
    "town_kana": "オガツチョウミズハマ",
    "street": null,
    "office_name": null,
    "office_name_kana": null
  },
  "1322": {
    "postcode": "9861322",
    "prefecture": "宮城県",
    "prefecture_kana": "ミヤギケン",
    "prefecture_code": 4,
    "city": "石巻市",
    "city_kana": "イシノマキシ",
    "town": "雄勝町分浜",
    "town_kana": "オガツチョウワケハマ",
    "street": null,
    "office_name": null,
    "office_name_kana": null
  },
  "1331": {
    "postcode": "9861331",
    "prefecture": "宮城県",
    "prefecture_kana": "ミヤギケン",
    "prefecture_code": 4,
    "city": "石巻市",
    "city_kana": "イシノマキシ",
    "town": "雄勝町明神",
    "town_kana": "オガツチョウミョウジン",
    "street": null,
    "office_name": null,
    "office_name_kana": null
  },
  "1332": {
    "postcode": "9861332",
    "prefecture": "宮城県",
    "prefecture_kana": "ミヤギケン",
    "prefecture_code": 4,
    "city": "石巻市",
    "city_kana": "イシノマキシ",
    "town": "雄勝町小島",
    "town_kana": "オガツチョウオジマ",
    "street": null,
    "office_name": null,
    "office_name_kana": null
  },
  "1333": {
    "postcode": "9861333",
    "prefecture": "宮城県",
    "prefecture_kana": "ミヤギケン",
    "prefecture_code": 4,
    "city": "石巻市",
    "city_kana": "イシノマキシ",
    "town": "雄勝町雄勝",
    "town_kana": "オガツチョウオガツ",
    "street": null,
    "office_name": null,
    "office_name_kana": null
  },
  "1334": {
    "postcode": "9861334",
    "prefecture": "宮城県",
    "prefecture_kana": "ミヤギケン",
    "prefecture_code": 4,
    "city": "石巻市",
    "city_kana": "イシノマキシ",
    "town": "雄勝町伊勢畑",
    "town_kana": "オガツチョウイセハタ",
    "street": null,
    "office_name": null,
    "office_name_kana": null
  },
  "1335": {
    "postcode": "9861335",
    "prefecture": "宮城県",
    "prefecture_kana": "ミヤギケン",
    "prefecture_code": 4,
    "city": "石巻市",
    "city_kana": "イシノマキシ",
    "town": "雄勝町下雄勝",
    "town_kana": "オガツチョウシモオガツ",
    "street": null,
    "office_name": null,
    "office_name_kana": null
  },
  "1336": {
    "postcode": "9861336",
    "prefecture": "宮城県",
    "prefecture_kana": "ミヤギケン",
    "prefecture_code": 4,
    "city": "石巻市",
    "city_kana": "イシノマキシ",
    "town": "雄勝町上雄勝",
    "town_kana": "オガツチョウカミオガツ",
    "street": null,
    "office_name": null,
    "office_name_kana": null
  },
  "2101": {
    "postcode": "9862101",
    "prefecture": "宮城県",
    "prefecture_kana": "ミヤギケン",
    "prefecture_code": 4,
    "city": "石巻市",
    "city_kana": "イシノマキシ",
    "town": "沼津",
    "town_kana": "ヌマヅ",
    "street": null,
    "office_name": null,
    "office_name_kana": null
  },
  "2102": {
    "postcode": "9862102",
    "prefecture": "宮城県",
    "prefecture_kana": "ミヤギケン",
    "prefecture_code": 4,
    "city": "石巻市",
    "city_kana": "イシノマキシ",
    "town": "沢田",
    "town_kana": "サワダ",
    "street": null,
    "office_name": null,
    "office_name_kana": null
  },
  "2103": {
    "postcode": "9862103",
    "prefecture": "宮城県",
    "prefecture_kana": "ミヤギケン",
    "prefecture_code": 4,
    "city": "石巻市",
    "city_kana": "イシノマキシ",
    "town": "流留",
    "town_kana": "ナガル",
    "street": null,
    "office_name": null,
    "office_name_kana": null
  },
  "2104": {
    "postcode": "9862104",
    "prefecture": "宮城県",
    "prefecture_kana": "ミヤギケン",
    "prefecture_code": 4,
    "city": "石巻市",
    "city_kana": "イシノマキシ",
    "town": "垂水町",
    "town_kana": "タレミズチョウ",
    "street": null,
    "office_name": null,
    "office_name_kana": null
  },
  "2105": {
    "postcode": "9862105",
    "prefecture": "宮城県",
    "prefecture_kana": "ミヤギケン",
    "prefecture_code": 4,
    "city": "石巻市",
    "city_kana": "イシノマキシ",
    "town": "新成",
    "town_kana": "シンセイ",
    "street": null,
    "office_name": null,
    "office_name_kana": null
  },
  "2111": {
    "postcode": "9862111",
    "prefecture": "宮城県",
    "prefecture_kana": "ミヤギケン",
    "prefecture_code": 4,
    "city": "石巻市",
    "city_kana": "イシノマキシ",
    "town": "三和町",
    "town_kana": "ミツワチョウ",
    "street": null,
    "office_name": null,
    "office_name_kana": null
  },
  "2112": {
    "postcode": "9862112",
    "prefecture": "宮城県",
    "prefecture_kana": "ミヤギケン",
    "prefecture_code": 4,
    "city": "石巻市",
    "city_kana": "イシノマキシ",
    "town": "後生橋",
    "town_kana": "ゴショウバシ",
    "street": null,
    "office_name": null,
    "office_name_kana": null
  },
  "2113": {
    "postcode": "9862113",
    "prefecture": "宮城県",
    "prefecture_kana": "ミヤギケン",
    "prefecture_code": 4,
    "city": "石巻市",
    "city_kana": "イシノマキシ",
    "town": "宇田川町",
    "town_kana": "ウダガワチョウ",
    "street": null,
    "office_name": null,
    "office_name_kana": null
  },
  "2114": {
    "postcode": "9862114",
    "prefecture": "宮城県",
    "prefecture_kana": "ミヤギケン",
    "prefecture_code": 4,
    "city": "石巻市",
    "city_kana": "イシノマキシ",
    "town": "塩富町",
    "town_kana": "シオトミチョウ",
    "street": null,
    "office_name": null,
    "office_name_kana": null
  },
  "2115": {
    "postcode": "9862115",
    "prefecture": "宮城県",
    "prefecture_kana": "ミヤギケン",
    "prefecture_code": 4,
    "city": "石巻市",
    "city_kana": "イシノマキシ",
    "town": "万石町",
    "town_kana": "マンゴクチョウ",
    "street": null,
    "office_name": null,
    "office_name_kana": null
  },
  "2116": {
    "postcode": "9862116",
    "prefecture": "宮城県",
    "prefecture_kana": "ミヤギケン",
    "prefecture_code": 4,
    "city": "石巻市",
    "city_kana": "イシノマキシ",
    "town": "小竹浜",
    "town_kana": "コダケハマ",
    "street": null,
    "office_name": null,
    "office_name_kana": null
  },
  "2121": {
    "postcode": "9862121",
    "prefecture": "宮城県",
    "prefecture_kana": "ミヤギケン",
    "prefecture_code": 4,
    "city": "石巻市",
    "city_kana": "イシノマキシ",
    "town": "渡波町",
    "town_kana": "ワタノハチョウ",
    "street": null,
    "office_name": null,
    "office_name_kana": null
  },
  "2122": {
    "postcode": "9862122",
    "prefecture": "宮城県",
    "prefecture_kana": "ミヤギケン",
    "prefecture_code": 4,
    "city": "石巻市",
    "city_kana": "イシノマキシ",
    "town": "幸町",
    "town_kana": "サイワイチョウ",
    "street": null,
    "office_name": null,
    "office_name_kana": null
  },
  "2123": {
    "postcode": "9862123",
    "prefecture": "宮城県",
    "prefecture_kana": "ミヤギケン",
    "prefecture_code": 4,
    "city": "石巻市",
    "city_kana": "イシノマキシ",
    "town": "伊勢町",
    "town_kana": "イセチョウ",
    "street": null,
    "office_name": null,
    "office_name_kana": null
  },
  "2131": {
    "postcode": "9862131",
    "prefecture": "宮城県",
    "prefecture_kana": "ミヤギケン",
    "prefecture_code": 4,
    "city": "石巻市",
    "city_kana": "イシノマキシ",
    "town": "浜松町",
    "town_kana": "ハママツチョウ",
    "street": null,
    "office_name": null,
    "office_name_kana": null
  },
  "2132": {
    "postcode": "9862132",
    "prefecture": "宮城県",
    "prefecture_kana": "ミヤギケン",
    "prefecture_code": 4,
    "city": "石巻市",
    "city_kana": "イシノマキシ",
    "town": "大宮町",
    "town_kana": "オオミヤチョウ",
    "street": null,
    "office_name": null,
    "office_name_kana": null
  },
  "2133": {
    "postcode": "9862133",
    "prefecture": "宮城県",
    "prefecture_kana": "ミヤギケン",
    "prefecture_code": 4,
    "city": "石巻市",
    "city_kana": "イシノマキシ",
    "town": "長浜町",
    "town_kana": "ナガハマチョウ",
    "street": null,
    "office_name": null,
    "office_name_kana": null
  },
  "2134": {
    "postcode": "9862134",
    "prefecture": "宮城県",
    "prefecture_kana": "ミヤギケン",
    "prefecture_code": 4,
    "city": "石巻市",
    "city_kana": "イシノマキシ",
    "town": "松原町",
    "town_kana": "マツバラチョウ",
    "street": null,
    "office_name": null,
    "office_name_kana": null
  },
  "2135": {
    "postcode": "9862135",
    "prefecture": "宮城県",
    "prefecture_kana": "ミヤギケン",
    "prefecture_code": 4,
    "city": "石巻市",
    "city_kana": "イシノマキシ",
    "town": "渡波",
    "town_kana": "ワタノハ",
    "street": null,
    "office_name": null,
    "office_name_kana": null
  },
  "2136": {
    "postcode": "9862136",
    "prefecture": "宮城県",
    "prefecture_kana": "ミヤギケン",
    "prefecture_code": 4,
    "city": "石巻市",
    "city_kana": "イシノマキシ",
    "town": "根岸",
    "town_kana": "ネギシ",
    "street": null,
    "office_name": null,
    "office_name_kana": null
  },
  "2137": {
    "postcode": "9862137",
    "prefecture": "宮城県",
    "prefecture_kana": "ミヤギケン",
    "prefecture_code": 4,
    "city": "石巻市",
    "city_kana": "イシノマキシ",
    "town": "さくら町",
    "town_kana": "サクラマチ",
    "street": null,
    "office_name": null,
    "office_name_kana": null
  },
  "2200": {
    "postcode": "9862200",
    "prefecture": "宮城県",
    "prefecture_kana": "ミヤギケン",
    "prefecture_code": 4,
    "city": "牡鹿郡女川町",
    "city_kana": "オシカグンオナガワチョウ",
    "town": "",
    "town_kana": "",
    "street": null,
    "office_name": null,
    "office_name_kana": null
  },
  "2201": {
    "postcode": "9862201",
    "prefecture": "宮城県",
    "prefecture_kana": "ミヤギケン",
    "prefecture_code": 4,
    "city": "牡鹿郡女川町",
    "city_kana": "オシカグンオナガワチョウ",
    "town": "指ケ浜",
    "town_kana": "サシノハマ",
    "street": null,
    "office_name": null,
    "office_name_kana": null
  },
  "2202": {
    "postcode": "9862202",
    "prefecture": "宮城県",
    "prefecture_kana": "ミヤギケン",
    "prefecture_code": 4,
    "city": "牡鹿郡女川町",
    "city_kana": "オシカグンオナガワチョウ",
    "town": "尾浦",
    "town_kana": "オウラ",
    "street": null,
    "office_name": null,
    "office_name_kana": null
  },
  "2203": {
    "postcode": "9862203",
    "prefecture": "宮城県",
    "prefecture_kana": "ミヤギケン",
    "prefecture_code": 4,
    "city": "牡鹿郡女川町",
    "city_kana": "オシカグンオナガワチョウ",
    "town": "竹浦",
    "town_kana": "タケノウラ",
    "street": null,
    "office_name": null,
    "office_name_kana": null
  },
  "2204": {
    "postcode": "9862204",
    "prefecture": "宮城県",
    "prefecture_kana": "ミヤギケン",
    "prefecture_code": 4,
    "city": "牡鹿郡女川町",
    "city_kana": "オシカグンオナガワチョウ",
    "town": "桐ケ崎",
    "town_kana": "キリガサキ",
    "street": null,
    "office_name": null,
    "office_name_kana": null
  },
  "2205": {
    "postcode": "9862205",
    "prefecture": "宮城県",
    "prefecture_kana": "ミヤギケン",
    "prefecture_code": 4,
    "city": "牡鹿郡女川町",
    "city_kana": "オシカグンオナガワチョウ",
    "town": "御前浜",
    "town_kana": "オンマエハマ",
    "street": null,
    "office_name": null,
    "office_name_kana": null
  },
  "2211": {
    "postcode": "9862211",
    "prefecture": "宮城県",
    "prefecture_kana": "ミヤギケン",
    "prefecture_code": 4,
    "city": "牡鹿郡女川町",
    "city_kana": "オシカグンオナガワチョウ",
    "town": "出島",
    "town_kana": "イズシマ",
    "street": null,
    "office_name": null,
    "office_name_kana": null
  },
  "2212": {
    "postcode": "9862212",
    "prefecture": "宮城県",
    "prefecture_kana": "ミヤギケン",
    "prefecture_code": 4,
    "city": "牡鹿郡女川町",
    "city_kana": "オシカグンオナガワチョウ",
    "town": "江島",
    "town_kana": "エノシマ",
    "street": null,
    "office_name": null,
    "office_name_kana": null
  },
  "2221": {
    "postcode": "9862221",
    "prefecture": "宮城県",
    "prefecture_kana": "ミヤギケン",
    "prefecture_code": 4,
    "city": "牡鹿郡女川町",
    "city_kana": "オシカグンオナガワチョウ",
    "town": "塚浜",
    "town_kana": "ツカハマ",
    "street": null,
    "office_name": null,
    "office_name_kana": null
  },
  "2222": {
    "postcode": "9862222",
    "prefecture": "宮城県",
    "prefecture_kana": "ミヤギケン",
    "prefecture_code": 4,
    "city": "牡鹿郡女川町",
    "city_kana": "オシカグンオナガワチョウ",
    "town": "飯子浜",
    "town_kana": "イイゴハマ",
    "street": null,
    "office_name": null,
    "office_name_kana": null
  },
  "2223": {
    "postcode": "9862223",
    "prefecture": "宮城県",
    "prefecture_kana": "ミヤギケン",
    "prefecture_code": 4,
    "city": "牡鹿郡女川町",
    "city_kana": "オシカグンオナガワチョウ",
    "town": "野々浜",
    "town_kana": "ノノハマ",
    "street": null,
    "office_name": null,
    "office_name_kana": null
  },
  "2224": {
    "postcode": "9862224",
    "prefecture": "宮城県",
    "prefecture_kana": "ミヤギケン",
    "prefecture_code": 4,
    "city": "牡鹿郡女川町",
    "city_kana": "オシカグンオナガワチョウ",
    "town": "大石原浜",
    "town_kana": "オオイシハラハマ",
    "street": null,
    "office_name": null,
    "office_name_kana": null
  },
  "2225": {
    "postcode": "9862225",
    "prefecture": "宮城県",
    "prefecture_kana": "ミヤギケン",
    "prefecture_code": 4,
    "city": "牡鹿郡女川町",
    "city_kana": "オシカグンオナガワチョウ",
    "town": "横浦",
    "town_kana": "ヨコウラ",
    "street": null,
    "office_name": null,
    "office_name_kana": null
  },
  "2226": {
    "postcode": "9862226",
    "prefecture": "宮城県",
    "prefecture_kana": "ミヤギケン",
    "prefecture_code": 4,
    "city": "牡鹿郡女川町",
    "city_kana": "オシカグンオナガワチョウ",
    "town": "高白浜",
    "town_kana": "タカシロハマ",
    "street": null,
    "office_name": null,
    "office_name_kana": null
  },
  "2231": {
    "postcode": "9862231",
    "prefecture": "宮城県",
    "prefecture_kana": "ミヤギケン",
    "prefecture_code": 4,
    "city": "牡鹿郡女川町",
    "city_kana": "オシカグンオナガワチョウ",
    "town": "浦宿浜",
    "town_kana": "ウラシュクハマ",
    "street": null,
    "office_name": null,
    "office_name_kana": null
  },
  "2232": {
    "postcode": "9862232",
    "prefecture": "宮城県",
    "prefecture_kana": "ミヤギケン",
    "prefecture_code": 4,
    "city": "牡鹿郡女川町",
    "city_kana": "オシカグンオナガワチョウ",
    "town": "針浜",
    "town_kana": "ハリノハマ",
    "street": null,
    "office_name": null,
    "office_name_kana": null
  },
  "2240": {
    "postcode": "9862240",
    "prefecture": "宮城県",
    "prefecture_kana": "ミヤギケン",
    "prefecture_code": 4,
    "city": "牡鹿郡女川町",
    "city_kana": "オシカグンオナガワチョウ",
    "town": "大道",
    "town_kana": "オオミチ",
    "street": null,
    "office_name": null,
    "office_name_kana": null
  },
  "2242": {
    "postcode": "9862242",
    "prefecture": "宮城県",
    "prefecture_kana": "ミヤギケン",
    "prefecture_code": 4,
    "city": "牡鹿郡女川町",
    "city_kana": "オシカグンオナガワチョウ",
    "town": "小乗浜",
    "town_kana": "コノリハマ",
    "street": null,
    "office_name": null,
    "office_name_kana": null
  },
  "2243": {
    "postcode": "9862243",
    "prefecture": "宮城県",
    "prefecture_kana": "ミヤギケン",
    "prefecture_code": 4,
    "city": "牡鹿郡女川町",
    "city_kana": "オシカグンオナガワチョウ",
    "town": "鷲神浜",
    "town_kana": "ワシノカミハマ",
    "street": null,
    "office_name": null,
    "office_name_kana": null
  },
  "2244": {
    "postcode": "9862244",
    "prefecture": "宮城県",
    "prefecture_kana": "ミヤギケン",
    "prefecture_code": 4,
    "city": "牡鹿郡女川町",
    "city_kana": "オシカグンオナガワチョウ",
    "town": "桜ケ丘",
    "town_kana": "サクラガオカ",
    "street": null,
    "office_name": null,
    "office_name_kana": null
  },
  "2246": {
    "postcode": "9862246",
    "prefecture": "宮城県",
    "prefecture_kana": "ミヤギケン",
    "prefecture_code": 4,
    "city": "牡鹿郡女川町",
    "city_kana": "オシカグンオナガワチョウ",
    "town": "黄金",
    "town_kana": "コガネ",
    "street": null,
    "office_name": null,
    "office_name_kana": null
  },
  "2247": {
    "postcode": "9862247",
    "prefecture": "宮城県",
    "prefecture_kana": "ミヤギケン",
    "prefecture_code": 4,
    "city": "牡鹿郡女川町",
    "city_kana": "オシカグンオナガワチョウ",
    "town": "鷲神",
    "town_kana": "ワシノカミ",
    "street": null,
    "office_name": null,
    "office_name_kana": null
  },
  "2248": {
    "postcode": "9862248",
    "prefecture": "宮城県",
    "prefecture_kana": "ミヤギケン",
    "prefecture_code": 4,
    "city": "牡鹿郡女川町",
    "city_kana": "オシカグンオナガワチョウ",
    "town": "小乗",
    "town_kana": "コノリ",
    "street": null,
    "office_name": null,
    "office_name_kana": null
  },
  "2249": {
    "postcode": "9862249",
    "prefecture": "宮城県",
    "prefecture_kana": "ミヤギケン",
    "prefecture_code": 4,
    "city": "牡鹿郡女川町",
    "city_kana": "オシカグンオナガワチョウ",
    "town": "内山",
    "town_kana": "ウチヤマ",
    "street": null,
    "office_name": null,
    "office_name_kana": null
  },
  "2251": {
    "postcode": "9862251",
    "prefecture": "宮城県",
    "prefecture_kana": "ミヤギケン",
    "prefecture_code": 4,
    "city": "牡鹿郡女川町",
    "city_kana": "オシカグンオナガワチョウ",
    "town": "旭が丘",
    "town_kana": "アサヒガオカ",
    "street": null,
    "office_name": null,
    "office_name_kana": null
  },
  "2261": {
    "postcode": "9862261",
    "prefecture": "宮城県",
    "prefecture_kana": "ミヤギケン",
    "prefecture_code": 4,
    "city": "牡鹿郡女川町",
    "city_kana": "オシカグンオナガワチョウ",
    "town": "女川浜",
    "town_kana": "オナガワハマ",
    "street": null,
    "office_name": null,
    "office_name_kana": null
  },
  "2262": {
    "postcode": "9862262",
    "prefecture": "宮城県",
    "prefecture_kana": "ミヤギケン",
    "prefecture_code": 4,
    "city": "牡鹿郡女川町",
    "city_kana": "オシカグンオナガワチョウ",
    "town": "清水",
    "town_kana": "シミズ",
    "street": null,
    "office_name": null,
    "office_name_kana": null
  },
  "2263": {
    "postcode": "9862263",
    "prefecture": "宮城県",
    "prefecture_kana": "ミヤギケン",
    "prefecture_code": 4,
    "city": "牡鹿郡女川町",
    "city_kana": "オシカグンオナガワチョウ",
    "town": "伊勢",
    "town_kana": "イセ",
    "street": null,
    "office_name": null,
    "office_name_kana": null
  },
  "2264": {
    "postcode": "9862264",
    "prefecture": "宮城県",
    "prefecture_kana": "ミヤギケン",
    "prefecture_code": 4,
    "city": "牡鹿郡女川町",
    "city_kana": "オシカグンオナガワチョウ",
    "town": "海岸通り",
    "town_kana": "カイガンドオリ",
    "street": null,
    "office_name": null,
    "office_name_kana": null
  },
  "2265": {
    "postcode": "9862265",
    "prefecture": "宮城県",
    "prefecture_kana": "ミヤギケン",
    "prefecture_code": 4,
    "city": "牡鹿郡女川町",
    "city_kana": "オシカグンオナガワチョウ",
    "town": "女川",
    "town_kana": "オナガワ",
    "street": null,
    "office_name": null,
    "office_name_kana": null
  },
  "2266": {
    "postcode": "9862266",
    "prefecture": "宮城県",
    "prefecture_kana": "ミヤギケン",
    "prefecture_code": 4,
    "city": "牡鹿郡女川町",
    "city_kana": "オシカグンオナガワチョウ",
    "town": "大原",
    "town_kana": "オオハラ",
    "street": null,
    "office_name": null,
    "office_name_kana": null
  },
  "2281": {
    "postcode": "9862281",
    "prefecture": "宮城県",
    "prefecture_kana": "ミヤギケン",
    "prefecture_code": 4,
    "city": "牡鹿郡女川町",
    "city_kana": "オシカグンオナガワチョウ",
    "town": "石浜",
    "town_kana": "イシハマ",
    "street": null,
    "office_name": null,
    "office_name_kana": null
  },
  "2282": {
    "postcode": "9862282",
    "prefecture": "宮城県",
    "prefecture_kana": "ミヤギケン",
    "prefecture_code": 4,
    "city": "牡鹿郡女川町",
    "city_kana": "オシカグンオナガワチョウ",
    "town": "宮ケ崎",
    "town_kana": "ミヤガサキ",
    "street": null,
    "office_name": null,
    "office_name_kana": null
  },
  "2283": {
    "postcode": "9862283",
    "prefecture": "宮城県",
    "prefecture_kana": "ミヤギケン",
    "prefecture_code": 4,
    "city": "牡鹿郡女川町",
    "city_kana": "オシカグンオナガワチョウ",
    "town": "市場通り",
    "town_kana": "イチバドオリ",
    "street": null,
    "office_name": null,
    "office_name_kana": null
  },
  "2292": {
    "postcode": "9862292",
    "prefecture": "宮城県",
    "prefecture_kana": "ミヤギケン",
    "prefecture_code": 4,
    "city": "牡鹿郡女川町",
    "city_kana": "オシカグンオナガワチョウ",
    "town": "女川浜",
    "town_kana": "オナガワハマ",
    "street": "字女川１３６（女川郵便局私書箱第１号）",
    "office_name": "女川町役場",
    "office_name_kana": "オナガワチヨウヤクバ"
  },
  "2293": {
    "postcode": "9862293",
    "prefecture": "宮城県",
    "prefecture_kana": "ミヤギケン",
    "prefecture_code": 4,
    "city": "牡鹿郡女川町",
    "city_kana": "オシカグンオナガワチョウ",
    "town": "塚浜",
    "town_kana": "ツカハマ",
    "street": "字前田１（女川郵便局私書箱第２号）",
    "office_name": "東北電力　株式会社　女川原子力発電所",
    "office_name_kana": "トウホクデンリヨク カブシキガイシヤ オナガワゲンシリヨクハツデンシヨ"
  },
  "2341": {
    "postcode": "9862341",
    "prefecture": "宮城県",
    "prefecture_kana": "ミヤギケン",
    "prefecture_code": 4,
    "city": "石巻市",
    "city_kana": "イシノマキシ",
    "town": "荻浜",
    "town_kana": "オギノハマ",
    "street": null,
    "office_name": null,
    "office_name_kana": null
  },
  "2342": {
    "postcode": "9862342",
    "prefecture": "宮城県",
    "prefecture_kana": "ミヤギケン",
    "prefecture_code": 4,
    "city": "石巻市",
    "city_kana": "イシノマキシ",
    "town": "小積浜",
    "town_kana": "コヅミハマ",
    "street": null,
    "office_name": null,
    "office_name_kana": null
  },
  "2343": {
    "postcode": "9862343",
    "prefecture": "宮城県",
    "prefecture_kana": "ミヤギケン",
    "prefecture_code": 4,
    "city": "石巻市",
    "city_kana": "イシノマキシ",
    "town": "福貴浦",
    "town_kana": "フッキウラ",
    "street": null,
    "office_name": null,
    "office_name_kana": null
  },
  "2344": {
    "postcode": "9862344",
    "prefecture": "宮城県",
    "prefecture_kana": "ミヤギケン",
    "prefecture_code": 4,
    "city": "石巻市",
    "city_kana": "イシノマキシ",
    "town": "鹿立",
    "town_kana": "スダチ",
    "street": null,
    "office_name": null,
    "office_name_kana": null
  },
  "2345": {
    "postcode": "9862345",
    "prefecture": "宮城県",
    "prefecture_kana": "ミヤギケン",
    "prefecture_code": 4,
    "city": "石巻市",
    "city_kana": "イシノマキシ",
    "town": "狐崎浜",
    "town_kana": "キツネザキハマ",
    "street": null,
    "office_name": null,
    "office_name_kana": null
  },
  "2346": {
    "postcode": "9862346",
    "prefecture": "宮城県",
    "prefecture_kana": "ミヤギケン",
    "prefecture_code": 4,
    "city": "石巻市",
    "city_kana": "イシノマキシ",
    "town": "竹浜",
    "town_kana": "タケノハマ",
    "street": null,
    "office_name": null,
    "office_name_kana": null
  },
  "2347": {
    "postcode": "9862347",
    "prefecture": "宮城県",
    "prefecture_kana": "ミヤギケン",
    "prefecture_code": 4,
    "city": "石巻市",
    "city_kana": "イシノマキシ",
    "town": "牧浜",
    "town_kana": "マキノハマ",
    "street": null,
    "office_name": null,
    "office_name_kana": null
  },
  "2351": {
    "postcode": "9862351",
    "prefecture": "宮城県",
    "prefecture_kana": "ミヤギケン",
    "prefecture_code": 4,
    "city": "石巻市",
    "city_kana": "イシノマキシ",
    "town": "侍浜",
    "town_kana": "サムライハマ",
    "street": null,
    "office_name": null,
    "office_name_kana": null
  },
  "2352": {
    "postcode": "9862352",
    "prefecture": "宮城県",
    "prefecture_kana": "ミヤギケン",
    "prefecture_code": 4,
    "city": "石巻市",
    "city_kana": "イシノマキシ",
    "town": "月浦",
    "town_kana": "ツキノウラ",
    "street": null,
    "office_name": null,
    "office_name_kana": null
  },
  "2353": {
    "postcode": "9862353",
    "prefecture": "宮城県",
    "prefecture_kana": "ミヤギケン",
    "prefecture_code": 4,
    "city": "石巻市",
    "city_kana": "イシノマキシ",
    "town": "桃浦",
    "town_kana": "モモノウラ",
    "street": null,
    "office_name": null,
    "office_name_kana": null
  },
  "2354": {
    "postcode": "9862354",
    "prefecture": "宮城県",
    "prefecture_kana": "ミヤギケン",
    "prefecture_code": 4,
    "city": "石巻市",
    "city_kana": "イシノマキシ",
    "town": "蛤浜",
    "town_kana": "ハマグリハマ",
    "street": null,
    "office_name": null,
    "office_name_kana": null
  },
  "2355": {
    "postcode": "9862355",
    "prefecture": "宮城県",
    "prefecture_kana": "ミヤギケン",
    "prefecture_code": 4,
    "city": "石巻市",
    "city_kana": "イシノマキシ",
    "town": "折浜",
    "town_kana": "オリノハマ",
    "street": null,
    "office_name": null,
    "office_name_kana": null
  },
  "2401": {
    "postcode": "9862401",
    "prefecture": "宮城県",
    "prefecture_kana": "ミヤギケン",
    "prefecture_code": 4,
    "city": "石巻市",
    "city_kana": "イシノマキシ",
    "town": "泊浜",
    "town_kana": "トマリハマ",
    "street": null,
    "office_name": null,
    "office_name_kana": null
  },
  "2402": {
    "postcode": "9862402",
    "prefecture": "宮城県",
    "prefecture_kana": "ミヤギケン",
    "prefecture_code": 4,
    "city": "石巻市",
    "city_kana": "イシノマキシ",
    "town": "谷川浜",
    "town_kana": "ヤガワハマ",
    "street": null,
    "office_name": null,
    "office_name_kana": null
  },
  "2403": {
    "postcode": "9862403",
    "prefecture": "宮城県",
    "prefecture_kana": "ミヤギケン",
    "prefecture_code": 4,
    "city": "石巻市",
    "city_kana": "イシノマキシ",
    "town": "鮫浦",
    "town_kana": "サメノウラ",
    "street": null,
    "office_name": null,
    "office_name_kana": null
  },
  "2404": {
    "postcode": "9862404",
    "prefecture": "宮城県",
    "prefecture_kana": "ミヤギケン",
    "prefecture_code": 4,
    "city": "石巻市",
    "city_kana": "イシノマキシ",
    "town": "寄磯浜",
    "town_kana": "ヨリイソハマ",
    "street": null,
    "office_name": null,
    "office_name_kana": null
  },
  "2405": {
    "postcode": "9862405",
    "prefecture": "宮城県",
    "prefecture_kana": "ミヤギケン",
    "prefecture_code": 4,
    "city": "石巻市",
    "city_kana": "イシノマキシ",
    "town": "大谷川浜",
    "town_kana": "オオヤガワハマ",
    "street": null,
    "office_name": null,
    "office_name_kana": null
  },
  "2406": {
    "postcode": "9862406",
    "prefecture": "宮城県",
    "prefecture_kana": "ミヤギケン",
    "prefecture_code": 4,
    "city": "石巻市",
    "city_kana": "イシノマキシ",
    "town": "前網浜",
    "town_kana": "マエアミハマ",
    "street": null,
    "office_name": null,
    "office_name_kana": null
  },
  "2411": {
    "postcode": "9862411",
    "prefecture": "宮城県",
    "prefecture_kana": "ミヤギケン",
    "prefecture_code": 4,
    "city": "石巻市",
    "city_kana": "イシノマキシ",
    "town": "給分浜",
    "town_kana": "キュウブンハマ",
    "street": null,
    "office_name": null,
    "office_name_kana": null
  },
  "2412": {
    "postcode": "9862412",
    "prefecture": "宮城県",
    "prefecture_kana": "ミヤギケン",
    "prefecture_code": 4,
    "city": "石巻市",
    "city_kana": "イシノマキシ",
    "town": "大原浜",
    "town_kana": "オオハラハマ",
    "street": null,
    "office_name": null,
    "office_name_kana": null
  },
  "2413": {
    "postcode": "9862413",
    "prefecture": "宮城県",
    "prefecture_kana": "ミヤギケン",
    "prefecture_code": 4,
    "city": "石巻市",
    "city_kana": "イシノマキシ",
    "town": "清水田浜",
    "town_kana": "シミズダハマ",
    "street": null,
    "office_name": null,
    "office_name_kana": null
  },
  "2414": {
    "postcode": "9862414",
    "prefecture": "宮城県",
    "prefecture_kana": "ミヤギケン",
    "prefecture_code": 4,
    "city": "石巻市",
    "city_kana": "イシノマキシ",
    "town": "小網倉浜",
    "town_kana": "コアミクラハマ",
    "street": null,
    "office_name": null,
    "office_name_kana": null
  },
  "2415": {
    "postcode": "9862415",
    "prefecture": "宮城県",
    "prefecture_kana": "ミヤギケン",
    "prefecture_code": 4,
    "city": "石巻市",
    "city_kana": "イシノマキシ",
    "town": "小渕浜",
    "town_kana": "コブチハマ",
    "street": null,
    "office_name": null,
    "office_name_kana": null
  },
  "2521": {
    "postcode": "9862521",
    "prefecture": "宮城県",
    "prefecture_kana": "ミヤギケン",
    "prefecture_code": 4,
    "city": "石巻市",
    "city_kana": "イシノマキシ",
    "town": "新山浜",
    "town_kana": "ニイヤマハマ",
    "street": null,
    "office_name": null,
    "office_name_kana": null
  },
  "2522": {
    "postcode": "9862522",
    "prefecture": "宮城県",
    "prefecture_kana": "ミヤギケン",
    "prefecture_code": 4,
    "city": "石巻市",
    "city_kana": "イシノマキシ",
    "town": "鮎川大町",
    "town_kana": "アユカワオオマチ",
    "street": null,
    "office_name": null,
    "office_name_kana": null
  },
  "2523": {
    "postcode": "9862523",
    "prefecture": "宮城県",
    "prefecture_kana": "ミヤギケン",
    "prefecture_code": 4,
    "city": "石巻市",
    "city_kana": "イシノマキシ",
    "town": "鮎川浜",
    "town_kana": "アユカワハマ",
    "street": null,
    "office_name": null,
    "office_name_kana": null
  },
  "2524": {
    "postcode": "9862524",
    "prefecture": "宮城県",
    "prefecture_kana": "ミヤギケン",
    "prefecture_code": 4,
    "city": "石巻市",
    "city_kana": "イシノマキシ",
    "town": "鮎川浜丁",
    "town_kana": "アユカワハマチョウ",
    "street": null,
    "office_name": null,
    "office_name_kana": null
  },
  "2525": {
    "postcode": "9862525",
    "prefecture": "宮城県",
    "prefecture_kana": "ミヤギケン",
    "prefecture_code": 4,
    "city": "石巻市",
    "city_kana": "イシノマキシ",
    "town": "長渡浜",
    "town_kana": "フタワタシハマ",
    "street": null,
    "office_name": null,
    "office_name_kana": null
  },
  "2526": {
    "postcode": "9862526",
    "prefecture": "宮城県",
    "prefecture_kana": "ミヤギケン",
    "prefecture_code": 4,
    "city": "石巻市",
    "city_kana": "イシノマキシ",
    "town": "網地浜",
    "town_kana": "アジハマ",
    "street": null,
    "office_name": null,
    "office_name_kana": null
  },
  "2527": {
    "postcode": "9862527",
    "prefecture": "宮城県",
    "prefecture_kana": "ミヤギケン",
    "prefecture_code": 4,
    "city": "石巻市",
    "city_kana": "イシノマキシ",
    "town": "十八成浜",
    "town_kana": "クグナリハマ",
    "street": null,
    "office_name": null,
    "office_name_kana": null
  },
  "8501": {
    "postcode": "9868501",
    "prefecture": "宮城県",
    "prefecture_kana": "ミヤギケン",
    "prefecture_code": 4,
    "city": "石巻市",
    "city_kana": "イシノマキシ",
    "town": "穀町",
    "town_kana": "コクチョウ",
    "street": "１４番１号",
    "office_name": "石巻市役所",
    "office_name_kana": "イシノマキシヤクシヨ"
  },
  "8507": {
    "postcode": "9868507",
    "prefecture": "宮城県",
    "prefecture_kana": "ミヤギケン",
    "prefecture_code": 4,
    "city": "石巻市",
    "city_kana": "イシノマキシ",
    "town": "南光町",
    "town_kana": "ナンコウチョウ",
    "street": "２丁目２２０−１",
    "office_name": "株式会社　七星社",
    "office_name_kana": "カブシキガイシヤ シチセイシヤ"
  },
  "8522": {
    "postcode": "9868522",
    "prefecture": "宮城県",
    "prefecture_kana": "ミヤギケン",
    "prefecture_code": 4,
    "city": "石巻市",
    "city_kana": "イシノマキシ",
    "town": "蛇田",
    "town_kana": "ヘビタ",
    "street": "字西道下７１番地",
    "office_name": "石巻赤十字病院",
    "office_name_kana": "イシノマキセキジユウジビヨウイン"
  },
  "8525": {
    "postcode": "9868525",
    "prefecture": "宮城県",
    "prefecture_kana": "ミヤギケン",
    "prefecture_code": 4,
    "city": "石巻市",
    "city_kana": "イシノマキシ",
    "town": "南光町",
    "town_kana": "ナンコウチョウ",
    "street": "２丁目２番地１１号",
    "office_name": "日本製紙石巻テクノ　株式会社",
    "office_name_kana": "ニホンセイシイシノマキテクノ カブシキガイシヤ"
  },
  "8540": {
    "postcode": "9868540",
    "prefecture": "宮城県",
    "prefecture_kana": "ミヤギケン",
    "prefecture_code": 4,
    "city": "石巻市",
    "city_kana": "イシノマキシ",
    "town": "魚町",
    "town_kana": "サカナマチ",
    "street": "２丁目７−４",
    "office_name": "大興水産　株式会社",
    "office_name_kana": "タイコウスイサン カブシキガイシヤ"
  },
  "8555": {
    "postcode": "9868555",
    "prefecture": "宮城県",
    "prefecture_kana": "ミヤギケン",
    "prefecture_code": 4,
    "city": "石巻市",
    "city_kana": "イシノマキシ",
    "town": "南光町",
    "town_kana": "ナンコウチョウ",
    "street": "２丁目２−１",
    "office_name": "日本製紙　株式会社　石巻工場",
    "office_name_kana": "ニツポンセイシ カブシキガイシヤ イシノマキコウジヨウ"
  },
  "8580": {
    "postcode": "9868580",
    "prefecture": "宮城県",
    "prefecture_kana": "ミヤギケン",
    "prefecture_code": 4,
    "city": "石巻市",
    "city_kana": "イシノマキシ",
    "town": "南境",
    "town_kana": "ミナミザカイ",
    "street": "字新水戸１",
    "office_name": "石巻専修大学",
    "office_name_kana": "イシノマキセンシユウダイガク"
  },
  "8585": {
    "postcode": "9868585",
    "prefecture": "宮城県",
    "prefecture_kana": "ミヤギケン",
    "prefecture_code": 4,
    "city": "石巻市",
    "city_kana": "イシノマキシ",
    "town": "松並",
    "town_kana": "マツナミ",
    "street": "２丁目１４−４",
    "office_name": "株式会社　遠藤商会",
    "office_name_kana": "カブシキガイシヤ エンドウシヨウカイ"
  }
}