{
  "0000": {
    "postcode": "9930000",
    "prefecture": "山形県",
    "prefecture_kana": "ヤマガタケン",
    "prefecture_code": 6,
    "city": "長井市",
    "city_kana": "ナガイシ",
    "town": "",
    "town_kana": "",
    "street": null,
    "office_name": null,
    "office_name_kana": null
  },
  "0001": {
    "postcode": "9930001",
    "prefecture": "山形県",
    "prefecture_kana": "ヤマガタケン",
    "prefecture_code": 6,
    "city": "長井市",
    "city_kana": "ナガイシ",
    "town": "ままの上",
    "town_kana": "ママノウエ",
    "street": null,
    "office_name": null,
    "office_name_kana": null
  },
  "0002": {
    "postcode": "9930002",
    "prefecture": "山形県",
    "prefecture_kana": "ヤマガタケン",
    "prefecture_code": 6,
    "city": "長井市",
    "city_kana": "ナガイシ",
    "town": "屋城町",
    "town_kana": "ヤシロマチ",
    "street": null,
    "office_name": null,
    "office_name_kana": null
  },
  "0003": {
    "postcode": "9930003",
    "prefecture": "山形県",
    "prefecture_kana": "ヤマガタケン",
    "prefecture_code": 6,
    "city": "長井市",
    "city_kana": "ナガイシ",
    "town": "東町",
    "town_kana": "ヒガシマチ",
    "street": null,
    "office_name": null,
    "office_name_kana": null
  },
  "0004": {
    "postcode": "9930004",
    "prefecture": "山形県",
    "prefecture_kana": "ヤマガタケン",
    "prefecture_code": 6,
    "city": "長井市",
    "city_kana": "ナガイシ",
    "town": "神明町",
    "town_kana": "シンメイチョウ",
    "street": null,
    "office_name": null,
    "office_name_kana": null
  },
  "0005": {
    "postcode": "9930005",
    "prefecture": "山形県",
    "prefecture_kana": "ヤマガタケン",
    "prefecture_code": 6,
    "city": "長井市",
    "city_kana": "ナガイシ",
    "town": "片田町",
    "town_kana": "カタタマチ",
    "street": null,
    "office_name": null,
    "office_name_kana": null
  },
  "0006": {
    "postcode": "9930006",
    "prefecture": "山形県",
    "prefecture_kana": "ヤマガタケン",
    "prefecture_code": 6,
    "city": "長井市",
    "city_kana": "ナガイシ",
    "town": "あら町",
    "town_kana": "アラマチ",
    "street": null,
    "office_name": null,
    "office_name_kana": null
  },
  "0007": {
    "postcode": "9930007",
    "prefecture": "山形県",
    "prefecture_kana": "ヤマガタケン",
    "prefecture_code": 6,
    "city": "長井市",
    "city_kana": "ナガイシ",
    "town": "本町",
    "town_kana": "モトマチ",
    "street": null,
    "office_name": null,
    "office_name_kana": null
  },
  "0011": {
    "postcode": "9930011",
    "prefecture": "山形県",
    "prefecture_kana": "ヤマガタケン",
    "prefecture_code": 6,
    "city": "長井市",
    "city_kana": "ナガイシ",
    "town": "館町北",
    "town_kana": "タテマチキタ",
    "street": null,
    "office_name": null,
    "office_name_kana": null
  },
  "0012": {
    "postcode": "9930012",
    "prefecture": "山形県",
    "prefecture_kana": "ヤマガタケン",
    "prefecture_code": 6,
    "city": "長井市",
    "city_kana": "ナガイシ",
    "town": "日の出町",
    "town_kana": "ヒノデチョウ",
    "street": null,
    "office_name": null,
    "office_name_kana": null
  },
  "0013": {
    "postcode": "9930013",
    "prefecture": "山形県",
    "prefecture_kana": "ヤマガタケン",
    "prefecture_code": 6,
    "city": "長井市",
    "city_kana": "ナガイシ",
    "town": "館町南",
    "town_kana": "タテマチミナミ",
    "street": null,
    "office_name": null,
    "office_name_kana": null
  },
  "0014": {
    "postcode": "9930014",
    "prefecture": "山形県",
    "prefecture_kana": "ヤマガタケン",
    "prefecture_code": 6,
    "city": "長井市",
    "city_kana": "ナガイシ",
    "town": "小出",
    "town_kana": "コイデ",
    "street": null,
    "office_name": null,
    "office_name_kana": null
  },
  "0015": {
    "postcode": "9930015",
    "prefecture": "山形県",
    "prefecture_kana": "ヤマガタケン",
    "prefecture_code": 6,
    "city": "長井市",
    "city_kana": "ナガイシ",
    "town": "四ツ谷",
    "town_kana": "ヨツヤ",
    "street": null,
    "office_name": null,
    "office_name_kana": null
  },
  "0016": {
    "postcode": "9930016",
    "prefecture": "山形県",
    "prefecture_kana": "ヤマガタケン",
    "prefecture_code": 6,
    "city": "長井市",
    "city_kana": "ナガイシ",
    "town": "台町",
    "town_kana": "ダイマチ",
    "street": null,
    "office_name": null,
    "office_name_kana": null
  },
  "0017": {
    "postcode": "9930017",
    "prefecture": "山形県",
    "prefecture_kana": "ヤマガタケン",
    "prefecture_code": 6,
    "city": "長井市",
    "city_kana": "ナガイシ",
    "town": "花作町",
    "town_kana": "ハナヅクリマチ",
    "street": null,
    "office_name": null,
    "office_name_kana": null
  },
  "0021": {
    "postcode": "9930021",
    "prefecture": "山形県",
    "prefecture_kana": "ヤマガタケン",
    "prefecture_code": 6,
    "city": "長井市",
    "city_kana": "ナガイシ",
    "town": "上伊佐沢",
    "town_kana": "カミイサザワ",
    "street": null,
    "office_name": null,
    "office_name_kana": null
  },
  "0022": {
    "postcode": "9930022",
    "prefecture": "山形県",
    "prefecture_kana": "ヤマガタケン",
    "prefecture_code": 6,
    "city": "長井市",
    "city_kana": "ナガイシ",
    "town": "芦沢",
    "town_kana": "アシザワ",
    "street": null,
    "office_name": null,
    "office_name_kana": null
  },
  "0023": {
    "postcode": "9930023",
    "prefecture": "山形県",
    "prefecture_kana": "ヤマガタケン",
    "prefecture_code": 6,
    "city": "長井市",
    "city_kana": "ナガイシ",
    "town": "下伊佐沢",
    "town_kana": "シモイサザワ",
    "street": null,
    "office_name": null,
    "office_name_kana": null
  },
  "0024": {
    "postcode": "9930024",
    "prefecture": "山形県",
    "prefecture_kana": "ヤマガタケン",
    "prefecture_code": 6,
    "city": "長井市",
    "city_kana": "ナガイシ",
    "town": "中伊佐沢",
    "town_kana": "ナカイサザワ",
    "street": null,
    "office_name": null,
    "office_name_kana": null
  },
  "0031": {
    "postcode": "9930031",
    "prefecture": "山形県",
    "prefecture_kana": "ヤマガタケン",
    "prefecture_code": 6,
    "city": "長井市",
    "city_kana": "ナガイシ",
    "town": "泉",
    "town_kana": "イズミ",
    "street": null,
    "office_name": null,
    "office_name_kana": null
  },
  "0032": {
    "postcode": "9930032",
    "prefecture": "山形県",
    "prefecture_kana": "ヤマガタケン",
    "prefecture_code": 6,
    "city": "長井市",
    "city_kana": "ナガイシ",
    "town": "河井",
    "town_kana": "カワイ",
    "street": null,
    "office_name": null,
    "office_name_kana": null
  },
  "0033": {
    "postcode": "9930033",
    "prefecture": "山形県",
    "prefecture_kana": "ヤマガタケン",
    "prefecture_code": 6,
    "city": "長井市",
    "city_kana": "ナガイシ",
    "town": "今泉",
    "town_kana": "イマイズミ",
    "street": null,
    "office_name": null,
    "office_name_kana": null
  },
  "0034": {
    "postcode": "9930034",
    "prefecture": "山形県",
    "prefecture_kana": "ヤマガタケン",
    "prefecture_code": 6,
    "city": "長井市",
    "city_kana": "ナガイシ",
    "town": "歌丸",
    "town_kana": "ウタマル",
    "street": null,
    "office_name": null,
    "office_name_kana": null
  },
  "0035": {
    "postcode": "9930035",
    "prefecture": "山形県",
    "prefecture_kana": "ヤマガタケン",
    "prefecture_code": 6,
    "city": "長井市",
    "city_kana": "ナガイシ",
    "town": "時庭",
    "town_kana": "トキニワ",
    "street": null,
    "office_name": null,
    "office_name_kana": null
  },
  "0041": {
    "postcode": "9930041",
    "prefecture": "山形県",
    "prefecture_kana": "ヤマガタケン",
    "prefecture_code": 6,
    "city": "長井市",
    "city_kana": "ナガイシ",
    "town": "九野本",
    "town_kana": "クノモト",
    "street": null,
    "office_name": null,
    "office_name_kana": null
  },
  "0042": {
    "postcode": "9930042",
    "prefecture": "山形県",
    "prefecture_kana": "ヤマガタケン",
    "prefecture_code": 6,
    "city": "長井市",
    "city_kana": "ナガイシ",
    "town": "平山",
    "town_kana": "ヒラヤマ",
    "street": null,
    "office_name": null,
    "office_name_kana": null
  },
  "0051": {
    "postcode": "9930051",
    "prefecture": "山形県",
    "prefecture_kana": "ヤマガタケン",
    "prefecture_code": 6,
    "city": "長井市",
    "city_kana": "ナガイシ",
    "town": "幸町",
    "town_kana": "サイワイチョウ",
    "street": null,
    "office_name": null,
    "office_name_kana": null
  },
  "0052": {
    "postcode": "9930052",
    "prefecture": "山形県",
    "prefecture_kana": "ヤマガタケン",
    "prefecture_code": 6,
    "city": "長井市",
    "city_kana": "ナガイシ",
    "town": "新町",
    "town_kana": "シンマチ",
    "street": null,
    "office_name": null,
    "office_name_kana": null
  },
  "0053": {
    "postcode": "9930053",
    "prefecture": "山形県",
    "prefecture_kana": "ヤマガタケン",
    "prefecture_code": 6,
    "city": "長井市",
    "city_kana": "ナガイシ",
    "town": "中道",
    "town_kana": "ナカミチ",
    "street": null,
    "office_name": null,
    "office_name_kana": null
  },
  "0054": {
    "postcode": "9930054",
    "prefecture": "山形県",
    "prefecture_kana": "ヤマガタケン",
    "prefecture_code": 6,
    "city": "長井市",
    "city_kana": "ナガイシ",
    "town": "清水町",
    "town_kana": "シミズチョウ",
    "street": null,
    "office_name": null,
    "office_name_kana": null
  },
  "0061": {
    "postcode": "9930061",
    "prefecture": "山形県",
    "prefecture_kana": "ヤマガタケン",
    "prefecture_code": 6,
    "city": "長井市",
    "city_kana": "ナガイシ",
    "town": "寺泉",
    "town_kana": "テライズミ",
    "street": null,
    "office_name": null,
    "office_name_kana": null
  },
  "0062": {
    "postcode": "9930062",
    "prefecture": "山形県",
    "prefecture_kana": "ヤマガタケン",
    "prefecture_code": 6,
    "city": "長井市",
    "city_kana": "ナガイシ",
    "town": "川原沢",
    "town_kana": "カワラザワ",
    "street": null,
    "office_name": null,
    "office_name_kana": null
  },
  "0063": {
    "postcode": "9930063",
    "prefecture": "山形県",
    "prefecture_kana": "ヤマガタケン",
    "prefecture_code": 6,
    "city": "長井市",
    "city_kana": "ナガイシ",
    "town": "草岡",
    "town_kana": "クサオカ",
    "street": null,
    "office_name": null,
    "office_name_kana": null
  },
  "0064": {
    "postcode": "9930064",
    "prefecture": "山形県",
    "prefecture_kana": "ヤマガタケン",
    "prefecture_code": 6,
    "city": "長井市",
    "city_kana": "ナガイシ",
    "town": "勧進代",
    "town_kana": "カンジンダイ",
    "street": null,
    "office_name": null,
    "office_name_kana": null
  },
  "0071": {
    "postcode": "9930071",
    "prefecture": "山形県",
    "prefecture_kana": "ヤマガタケン",
    "prefecture_code": 6,
    "city": "長井市",
    "city_kana": "ナガイシ",
    "town": "白兎",
    "town_kana": "シロウサギ",
    "street": null,
    "office_name": null,
    "office_name_kana": null
  },
  "0072": {
    "postcode": "9930072",
    "prefecture": "山形県",
    "prefecture_kana": "ヤマガタケン",
    "prefecture_code": 6,
    "city": "長井市",
    "city_kana": "ナガイシ",
    "town": "五十川",
    "town_kana": "イカガワ",
    "street": null,
    "office_name": null,
    "office_name_kana": null
  },
  "0073": {
    "postcode": "9930073",
    "prefecture": "山形県",
    "prefecture_kana": "ヤマガタケン",
    "prefecture_code": 6,
    "city": "長井市",
    "city_kana": "ナガイシ",
    "town": "森",
    "town_kana": "モリ",
    "street": null,
    "office_name": null,
    "office_name_kana": null
  },
  "0074": {
    "postcode": "9930074",
    "prefecture": "山形県",
    "prefecture_kana": "ヤマガタケン",
    "prefecture_code": 6,
    "city": "長井市",
    "city_kana": "ナガイシ",
    "town": "宮",
    "town_kana": "ミヤ",
    "street": null,
    "office_name": null,
    "office_name_kana": null
  },
  "0075": {
    "postcode": "9930075",
    "prefecture": "山形県",
    "prefecture_kana": "ヤマガタケン",
    "prefecture_code": 6,
    "city": "長井市",
    "city_kana": "ナガイシ",
    "town": "成田",
    "town_kana": "ナリタ",
    "street": null,
    "office_name": null,
    "office_name_kana": null
  },
  "0081": {
    "postcode": "9930081",
    "prefecture": "山形県",
    "prefecture_kana": "ヤマガタケン",
    "prefecture_code": 6,
    "city": "長井市",
    "city_kana": "ナガイシ",
    "town": "緑町",
    "town_kana": "ミドリチョウ",
    "street": null,
    "office_name": null,
    "office_name_kana": null
  },
  "0082": {
    "postcode": "9930082",
    "prefecture": "山形県",
    "prefecture_kana": "ヤマガタケン",
    "prefecture_code": 6,
    "city": "長井市",
    "city_kana": "ナガイシ",
    "town": "舟場",
    "town_kana": "フナバ",
    "street": null,
    "office_name": null,
    "office_name_kana": null
  },
  "0083": {
    "postcode": "9930083",
    "prefecture": "山形県",
    "prefecture_kana": "ヤマガタケン",
    "prefecture_code": 6,
    "city": "長井市",
    "city_kana": "ナガイシ",
    "town": "大町",
    "town_kana": "オオマチ",
    "street": null,
    "office_name": null,
    "office_name_kana": null
  },
  "0084": {
    "postcode": "9930084",
    "prefecture": "山形県",
    "prefecture_kana": "ヤマガタケン",
    "prefecture_code": 6,
    "city": "長井市",
    "city_kana": "ナガイシ",
    "town": "栄町",
    "town_kana": "サカエマチ",
    "street": null,
    "office_name": null,
    "office_name_kana": null
  },
  "0085": {
    "postcode": "9930085",
    "prefecture": "山形県",
    "prefecture_kana": "ヤマガタケン",
    "prefecture_code": 6,
    "city": "長井市",
    "city_kana": "ナガイシ",
    "town": "高野町",
    "town_kana": "コウヤチョウ",
    "street": null,
    "office_name": null,
    "office_name_kana": null
  },
  "0086": {
    "postcode": "9930086",
    "prefecture": "山形県",
    "prefecture_kana": "ヤマガタケン",
    "prefecture_code": 6,
    "city": "長井市",
    "city_kana": "ナガイシ",
    "town": "十日町",
    "town_kana": "トオカマチ",
    "street": null,
    "office_name": null,
    "office_name_kana": null
  },
  "0087": {
    "postcode": "9930087",
    "prefecture": "山形県",
    "prefecture_kana": "ヤマガタケン",
    "prefecture_code": 6,
    "city": "長井市",
    "city_kana": "ナガイシ",
    "town": "横町",
    "town_kana": "ヨコマチ",
    "street": null,
    "office_name": null,
    "office_name_kana": null
  },
  "8501": {
    "postcode": "9938501",
    "prefecture": "山形県",
    "prefecture_kana": "ヤマガタケン",
    "prefecture_code": 6,
    "city": "長井市",
    "city_kana": "ナガイシ",
    "town": "高野町",
    "town_kana": "コウヤチョウ",
    "street": "２丁目３−１",
    "office_name": "置賜総合支庁　西庁舎",
    "office_name_kana": "オキタマソウゴウシチヨウ ニシチヨウシヤ"
  },
  "8511": {
    "postcode": "9938511",
    "prefecture": "山形県",
    "prefecture_kana": "ヤマガタケン",
    "prefecture_code": 6,
    "city": "長井市",
    "city_kana": "ナガイシ",
    "town": "幸町",
    "town_kana": "サイワイチョウ",
    "street": "１−１",
    "office_name": "ケミコン山形　株式会社",
    "office_name_kana": "ケミコンヤマガタ カブシキガイシヤ"
  },
  "8601": {
    "postcode": "9938601",
    "prefecture": "山形県",
    "prefecture_kana": "ヤマガタケン",
    "prefecture_code": 6,
    "city": "長井市",
    "city_kana": "ナガイシ",
    "town": "栄町",
    "town_kana": "サカエマチ",
    "street": "１−１（長井郵便局私書箱第１号）",
    "office_name": "長井市役所",
    "office_name_kana": "ナガイシヤクシヨ"
  },
  "8602": {
    "postcode": "9938602",
    "prefecture": "山形県",
    "prefecture_kana": "ヤマガタケン",
    "prefecture_code": 6,
    "city": "長井市",
    "city_kana": "ナガイシ",
    "town": "屋城町",
    "town_kana": "ヤシロマチ",
    "street": "２−１",
    "office_name": "公立置賜長井病院",
    "office_name_kana": "コウリツオキタマナガイビヨウイン"
  },
  "8611": {
    "postcode": "9938611",
    "prefecture": "山形県",
    "prefecture_kana": "ヤマガタケン",
    "prefecture_code": 6,
    "city": "長井市",
    "city_kana": "ナガイシ",
    "town": "本町",
    "town_kana": "モトマチ",
    "street": "２丁目１０−６",
    "office_name": "協同薬品工業　株式会社",
    "office_name_kana": "キヨウドウヤクヒンコウギヨウ カブシキガイシヤ"
  },
  "8642": {
    "postcode": "9938642",
    "prefecture": "山形県",
    "prefecture_kana": "ヤマガタケン",
    "prefecture_code": 6,
    "city": "長井市",
    "city_kana": "ナガイシ",
    "town": "本町",
    "town_kana": "モトマチ",
    "street": "１丁目３−３（長井郵便局私書箱第８号）",
    "office_name": "山形中央信用組合",
    "office_name_kana": "ヤマガタチユウオウシンヨウクミアイ"
  }
}