{
  "0000": {
    "postcode": "9940000",
    "prefecture": "山形県",
    "prefecture_kana": "ヤマガタケン",
    "prefecture_code": 6,
    "city": "天童市",
    "city_kana": "テンドウシ",
    "town": "",
    "town_kana": "",
    "street": null,
    "office_name": null,
    "office_name_kana": null
  },
  "0001": {
    "postcode": "9940001",
    "prefecture": "山形県",
    "prefecture_kana": "ヤマガタケン",
    "prefecture_code": 6,
    "city": "天童市",
    "city_kana": "テンドウシ",
    "town": "万代",
    "town_kana": "バンダイ",
    "street": null,
    "office_name": null,
    "office_name_kana": null
  },
  "0002": {
    "postcode": "9940002",
    "prefecture": "山形県",
    "prefecture_kana": "ヤマガタケン",
    "prefecture_code": 6,
    "city": "天童市",
    "city_kana": "テンドウシ",
    "town": "乱川",
    "town_kana": "ミダレガワ",
    "street": null,
    "office_name": null,
    "office_name_kana": null
  },
  "0003": {
    "postcode": "9940003",
    "prefecture": "山形県",
    "prefecture_kana": "ヤマガタケン",
    "prefecture_code": 6,
    "city": "天童市",
    "city_kana": "テンドウシ",
    "town": "柏木町",
    "town_kana": "カシワギチョウ",
    "street": null,
    "office_name": null,
    "office_name_kana": null
  },
  "0004": {
    "postcode": "9940004",
    "prefecture": "山形県",
    "prefecture_kana": "ヤマガタケン",
    "prefecture_code": 6,
    "city": "天童市",
    "city_kana": "テンドウシ",
    "town": "小関",
    "town_kana": "コセキ",
    "street": null,
    "office_name": null,
    "office_name_kana": null
  },
  "0005": {
    "postcode": "9940005",
    "prefecture": "山形県",
    "prefecture_kana": "ヤマガタケン",
    "prefecture_code": 6,
    "city": "天童市",
    "city_kana": "テンドウシ",
    "town": "高木",
    "town_kana": "タカギ",
    "street": null,
    "office_name": null,
    "office_name_kana": null
  },
  "0006": {
    "postcode": "9940006",
    "prefecture": "山形県",
    "prefecture_kana": "ヤマガタケン",
    "prefecture_code": 6,
    "city": "天童市",
    "city_kana": "テンドウシ",
    "town": "成生",
    "town_kana": "ナリウ",
    "street": null,
    "office_name": null,
    "office_name_kana": null
  },
  "0007": {
    "postcode": "9940007",
    "prefecture": "山形県",
    "prefecture_kana": "ヤマガタケン",
    "prefecture_code": 6,
    "city": "天童市",
    "city_kana": "テンドウシ",
    "town": "大清水",
    "town_kana": "オオシミズ",
    "street": null,
    "office_name": null,
    "office_name_kana": null
  },
  "0011": {
    "postcode": "9940011",
    "prefecture": "山形県",
    "prefecture_kana": "ヤマガタケン",
    "prefecture_code": 6,
    "city": "天童市",
    "city_kana": "テンドウシ",
    "town": "北久野本",
    "town_kana": "キタクノモト",
    "street": null,
    "office_name": null,
    "office_name_kana": null
  },
  "0012": {
    "postcode": "9940012",
    "prefecture": "山形県",
    "prefecture_kana": "ヤマガタケン",
    "prefecture_code": 6,
    "city": "天童市",
    "city_kana": "テンドウシ",
    "town": "久野本",
    "town_kana": "クノモト",
    "street": null,
    "office_name": null,
    "office_name_kana": null
  },
  "0013": {
    "postcode": "9940013",
    "prefecture": "山形県",
    "prefecture_kana": "ヤマガタケン",
    "prefecture_code": 6,
    "city": "天童市",
    "city_kana": "テンドウシ",
    "town": "老野森",
    "town_kana": "オイノモリ",
    "street": null,
    "office_name": null,
    "office_name_kana": null
  },
  "0014": {
    "postcode": "9940014",
    "prefecture": "山形県",
    "prefecture_kana": "ヤマガタケン",
    "prefecture_code": 6,
    "city": "天童市",
    "city_kana": "テンドウシ",
    "town": "糠塚",
    "town_kana": "ヌカヅカ",
    "street": null,
    "office_name": null,
    "office_name_kana": null
  },
  "0015": {
    "postcode": "9940015",
    "prefecture": "山形県",
    "prefecture_kana": "ヤマガタケン",
    "prefecture_code": 6,
    "city": "天童市",
    "city_kana": "テンドウシ",
    "town": "泉町",
    "town_kana": "イズミチョウ",
    "street": null,
    "office_name": null,
    "office_name_kana": null
  },
  "0016": {
    "postcode": "9940016",
    "prefecture": "山形県",
    "prefecture_kana": "ヤマガタケン",
    "prefecture_code": 6,
    "city": "天童市",
    "city_kana": "テンドウシ",
    "town": "東久野本",
    "town_kana": "ヒガシクノモト",
    "street": null,
    "office_name": null,
    "office_name_kana": null
  },
  "0021": {
    "postcode": "9940021",
    "prefecture": "山形県",
    "prefecture_kana": "ヤマガタケン",
    "prefecture_code": 6,
    "city": "天童市",
    "city_kana": "テンドウシ",
    "town": "山元",
    "town_kana": "ヤマモト",
    "street": null,
    "office_name": null,
    "office_name_kana": null
  },
  "0022": {
    "postcode": "9940022",
    "prefecture": "山形県",
    "prefecture_kana": "ヤマガタケン",
    "prefecture_code": 6,
    "city": "天童市",
    "city_kana": "テンドウシ",
    "town": "貫津",
    "town_kana": "ヌクヅ",
    "street": null,
    "office_name": null,
    "office_name_kana": null
  },
  "0023": {
    "postcode": "9940023",
    "prefecture": "山形県",
    "prefecture_kana": "ヤマガタケン",
    "prefecture_code": 6,
    "city": "天童市",
    "city_kana": "テンドウシ",
    "town": "東善寺",
    "town_kana": "トウゼンジ",
    "street": null,
    "office_name": null,
    "office_name_kana": null
  },
  "0024": {
    "postcode": "9940024",
    "prefecture": "山形県",
    "prefecture_kana": "ヤマガタケン",
    "prefecture_code": 6,
    "city": "天童市",
    "city_kana": "テンドウシ",
    "town": "鎌田",
    "town_kana": "カマタ",
    "street": null,
    "office_name": null,
    "office_name_kana": null
  },
  "0025": {
    "postcode": "9940025",
    "prefecture": "山形県",
    "prefecture_kana": "ヤマガタケン",
    "prefecture_code": 6,
    "city": "天童市",
    "city_kana": "テンドウシ",
    "town": "鎌田本町",
    "town_kana": "カマタホンチョウ",
    "street": null,
    "office_name": null,
    "office_name_kana": null
  },
  "0026": {
    "postcode": "9940026",
    "prefecture": "山形県",
    "prefecture_kana": "ヤマガタケン",
    "prefecture_code": 6,
    "city": "天童市",
    "city_kana": "テンドウシ",
    "town": "東本町",
    "town_kana": "ヒガシホンチョウ",
    "street": null,
    "office_name": null,
    "office_name_kana": null
  },
  "0027": {
    "postcode": "9940027",
    "prefecture": "山形県",
    "prefecture_kana": "ヤマガタケン",
    "prefecture_code": 6,
    "city": "天童市",
    "city_kana": "テンドウシ",
    "town": "桜町",
    "town_kana": "サクラマチ",
    "street": null,
    "office_name": null,
    "office_name_kana": null
  },
  "0028": {
    "postcode": "9940028",
    "prefecture": "山形県",
    "prefecture_kana": "ヤマガタケン",
    "prefecture_code": 6,
    "city": "天童市",
    "city_kana": "テンドウシ",
    "town": "鍬ノ町",
    "town_kana": "クワノマチ",
    "street": null,
    "office_name": null,
    "office_name_kana": null
  },
  "0031": {
    "postcode": "9940031",
    "prefecture": "山形県",
    "prefecture_kana": "ヤマガタケン",
    "prefecture_code": 6,
    "city": "天童市",
    "city_kana": "テンドウシ",
    "town": "天童中",
    "town_kana": "テンドウナカ",
    "street": null,
    "office_name": null,
    "office_name_kana": null
  },
  "0032": {
    "postcode": "9940032",
    "prefecture": "山形県",
    "prefecture_kana": "ヤマガタケン",
    "prefecture_code": 6,
    "city": "天童市",
    "city_kana": "テンドウシ",
    "town": "小路",
    "town_kana": "コウジ",
    "street": null,
    "office_name": null,
    "office_name_kana": null
  },
  "0033": {
    "postcode": "9940033",
    "prefecture": "山形県",
    "prefecture_kana": "ヤマガタケン",
    "prefecture_code": 6,
    "city": "天童市",
    "city_kana": "テンドウシ",
    "town": "三日町",
    "town_kana": "ミッカマチ",
    "street": null,
    "office_name": null,
    "office_name_kana": null
  },
  "0034": {
    "postcode": "9940034",
    "prefecture": "山形県",
    "prefecture_kana": "ヤマガタケン",
    "prefecture_code": 6,
    "city": "天童市",
    "city_kana": "テンドウシ",
    "town": "本町",
    "town_kana": "ホンチョウ",
    "street": null,
    "office_name": null,
    "office_name_kana": null
  },
  "0041": {
    "postcode": "9940041",
    "prefecture": "山形県",
    "prefecture_kana": "ヤマガタケン",
    "prefecture_code": 6,
    "city": "天童市",
    "city_kana": "テンドウシ",
    "town": "五日町",
    "town_kana": "イツカマチ",
    "street": null,
    "office_name": null,
    "office_name_kana": null
  },
  "0042": {
    "postcode": "9940042",
    "prefecture": "山形県",
    "prefecture_kana": "ヤマガタケン",
    "prefecture_code": 6,
    "city": "天童市",
    "city_kana": "テンドウシ",
    "town": "北目",
    "town_kana": "キタメ",
    "street": null,
    "office_name": null,
    "office_name_kana": null
  },
  "0043": {
    "postcode": "9940043",
    "prefecture": "山形県",
    "prefecture_kana": "ヤマガタケン",
    "prefecture_code": 6,
    "city": "天童市",
    "city_kana": "テンドウシ",
    "town": "松城町",
    "town_kana": "マツシロチョウ",
    "street": null,
    "office_name": null,
    "office_name_kana": null
  },
  "0044": {
    "postcode": "9940044",
    "prefecture": "山形県",
    "prefecture_kana": "ヤマガタケン",
    "prefecture_code": 6,
    "city": "天童市",
    "city_kana": "テンドウシ",
    "town": "一日町",
    "town_kana": "ヒトイチマチ",
    "street": null,
    "office_name": null,
    "office_name_kana": null
  },
  "0045": {
    "postcode": "9940045",
    "prefecture": "山形県",
    "prefecture_kana": "ヤマガタケン",
    "prefecture_code": 6,
    "city": "天童市",
    "city_kana": "テンドウシ",
    "town": "仲町",
    "town_kana": "ナカマチ",
    "street": null,
    "office_name": null,
    "office_name_kana": null
  },
  "0046": {
    "postcode": "9940046",
    "prefecture": "山形県",
    "prefecture_kana": "ヤマガタケン",
    "prefecture_code": 6,
    "city": "天童市",
    "city_kana": "テンドウシ",
    "town": "田鶴町",
    "town_kana": "タヅルチョウ",
    "street": null,
    "office_name": null,
    "office_name_kana": null
  },
  "0047": {
    "postcode": "9940047",
    "prefecture": "山形県",
    "prefecture_kana": "ヤマガタケン",
    "prefecture_code": 6,
    "city": "天童市",
    "city_kana": "テンドウシ",
    "town": "駅西",
    "town_kana": "エキニシ",
    "street": null,
    "office_name": null,
    "office_name_kana": null
  },
  "0048": {
    "postcode": "9940048",
    "prefecture": "山形県",
    "prefecture_kana": "ヤマガタケン",
    "prefecture_code": 6,
    "city": "天童市",
    "city_kana": "テンドウシ",
    "town": "交り江",
    "town_kana": "マジリエ",
    "street": null,
    "office_name": null,
    "office_name_kana": null
  },
  "0049": {
    "postcode": "9940049",
    "prefecture": "山形県",
    "prefecture_kana": "ヤマガタケン",
    "prefecture_code": 6,
    "city": "天童市",
    "city_kana": "テンドウシ",
    "town": "南町",
    "town_kana": "ミナミマチ",
    "street": null,
    "office_name": null,
    "office_name_kana": null
  },
  "0051": {
    "postcode": "9940051",
    "prefecture": "山形県",
    "prefecture_kana": "ヤマガタケン",
    "prefecture_code": 6,
    "city": "天童市",
    "city_kana": "テンドウシ",
    "town": "奈良沢",
    "town_kana": "ナラザワ",
    "street": null,
    "office_name": null,
    "office_name_kana": null
  },
  "0052": {
    "postcode": "9940052",
    "prefecture": "山形県",
    "prefecture_kana": "ヤマガタケン",
    "prefecture_code": 6,
    "city": "天童市",
    "city_kana": "テンドウシ",
    "town": "下荻野戸",
    "town_kana": "シモオギノト",
    "street": null,
    "office_name": null,
    "office_name_kana": null
  },
  "0053": {
    "postcode": "9940053",
    "prefecture": "山形県",
    "prefecture_kana": "ヤマガタケン",
    "prefecture_code": 6,
    "city": "天童市",
    "city_kana": "テンドウシ",
    "town": "上荻野戸",
    "town_kana": "カミオギノト",
    "street": null,
    "office_name": null,
    "office_name_kana": null
  },
  "0054": {
    "postcode": "9940054",
    "prefecture": "山形県",
    "prefecture_kana": "ヤマガタケン",
    "prefecture_code": 6,
    "city": "天童市",
    "city_kana": "テンドウシ",
    "town": "荒谷",
    "town_kana": "アラヤ",
    "street": null,
    "office_name": null,
    "office_name_kana": null
  },
  "0055": {
    "postcode": "9940055",
    "prefecture": "山形県",
    "prefecture_kana": "ヤマガタケン",
    "prefecture_code": 6,
    "city": "天童市",
    "city_kana": "テンドウシ",
    "town": "原町",
    "town_kana": "ハラマチ",
    "street": null,
    "office_name": null,
    "office_name_kana": null
  },
  "0056": {
    "postcode": "9940056",
    "prefecture": "山形県",
    "prefecture_kana": "ヤマガタケン",
    "prefecture_code": 6,
    "city": "天童市",
    "city_kana": "テンドウシ",
    "town": "干布",
    "town_kana": "ホシヌノ",
    "street": null,
    "office_name": null,
    "office_name_kana": null
  },
  "0057": {
    "postcode": "9940057",
    "prefecture": "山形県",
    "prefecture_kana": "ヤマガタケン",
    "prefecture_code": 6,
    "city": "天童市",
    "city_kana": "テンドウシ",
    "town": "石鳥居",
    "town_kana": "イシドリイ",
    "street": null,
    "office_name": null,
    "office_name_kana": null
  },
  "0061": {
    "postcode": "9940061",
    "prefecture": "山形県",
    "prefecture_kana": "ヤマガタケン",
    "prefecture_code": 6,
    "city": "天童市",
    "city_kana": "テンドウシ",
    "town": "東芳賀",
    "town_kana": "ヒガシハガ",
    "street": null,
    "office_name": null,
    "office_name_kana": null
  },
  "0062": {
    "postcode": "9940062",
    "prefecture": "山形県",
    "prefecture_kana": "ヤマガタケン",
    "prefecture_code": 6,
    "city": "天童市",
    "city_kana": "テンドウシ",
    "town": "長岡北",
    "town_kana": "ナガオカキタ",
    "street": null,
    "office_name": null,
    "office_name_kana": null
  },
  "0063": {
    "postcode": "9940063",
    "prefecture": "山形県",
    "prefecture_kana": "ヤマガタケン",
    "prefecture_code": 6,
    "city": "天童市",
    "city_kana": "テンドウシ",
    "town": "東長岡",
    "town_kana": "ヒガシナガオカ",
    "street": null,
    "office_name": null,
    "office_name_kana": null
  },
  "0064": {
    "postcode": "9940064",
    "prefecture": "山形県",
    "prefecture_kana": "ヤマガタケン",
    "prefecture_code": 6,
    "city": "天童市",
    "city_kana": "テンドウシ",
    "town": "中里",
    "town_kana": "ナカザト",
    "street": null,
    "office_name": null,
    "office_name_kana": null
  },
  "0065": {
    "postcode": "9940065",
    "prefecture": "山形県",
    "prefecture_kana": "ヤマガタケン",
    "prefecture_code": 6,
    "city": "天童市",
    "city_kana": "テンドウシ",
    "town": "清池",
    "town_kana": "ショウゲ",
    "street": null,
    "office_name": null,
    "office_name_kana": null
  },
  "0066": {
    "postcode": "9940066",
    "prefecture": "山形県",
    "prefecture_kana": "ヤマガタケン",
    "prefecture_code": 6,
    "city": "天童市",
    "city_kana": "テンドウシ",
    "town": "長岡",
    "town_kana": "ナガオカ",
    "street": null,
    "office_name": null,
    "office_name_kana": null
  },
  "0067": {
    "postcode": "9940067",
    "prefecture": "山形県",
    "prefecture_kana": "ヤマガタケン",
    "prefecture_code": 6,
    "city": "天童市",
    "city_kana": "テンドウシ",
    "town": "芳賀",
    "town_kana": "ハガ",
    "street": null,
    "office_name": null,
    "office_name_kana": null
  },
  "0068": {
    "postcode": "9940068",
    "prefecture": "山形県",
    "prefecture_kana": "ヤマガタケン",
    "prefecture_code": 6,
    "city": "天童市",
    "city_kana": "テンドウシ",
    "town": "高擶",
    "town_kana": "タカダマ",
    "street": null,
    "office_name": null,
    "office_name_kana": null
  },
  "0069": {
    "postcode": "9940069",
    "prefecture": "山形県",
    "prefecture_kana": "ヤマガタケン",
    "prefecture_code": 6,
    "city": "天童市",
    "city_kana": "テンドウシ",
    "town": "清池東",
    "town_kana": "ショウゲヒガシ",
    "street": null,
    "office_name": null,
    "office_name_kana": null
  },
  "0071": {
    "postcode": "9940071",
    "prefecture": "山形県",
    "prefecture_kana": "ヤマガタケン",
    "prefecture_code": 6,
    "city": "天童市",
    "city_kana": "テンドウシ",
    "town": "矢野目",
    "town_kana": "ヤノメ",
    "street": null,
    "office_name": null,
    "office_name_kana": null
  },
  "0072": {
    "postcode": "9940072",
    "prefecture": "山形県",
    "prefecture_kana": "ヤマガタケン",
    "prefecture_code": 6,
    "city": "天童市",
    "city_kana": "テンドウシ",
    "town": "塚野目",
    "town_kana": "ツカノメ",
    "street": null,
    "office_name": null,
    "office_name_kana": null
  },
  "0073": {
    "postcode": "9940073",
    "prefecture": "山形県",
    "prefecture_kana": "ヤマガタケン",
    "prefecture_code": 6,
    "city": "天童市",
    "city_kana": "テンドウシ",
    "town": "寺津",
    "town_kana": "テラヅ",
    "street": null,
    "office_name": null,
    "office_name_kana": null
  },
  "0074": {
    "postcode": "9940074",
    "prefecture": "山形県",
    "prefecture_kana": "ヤマガタケン",
    "prefecture_code": 6,
    "city": "天童市",
    "city_kana": "テンドウシ",
    "town": "藤内新田",
    "town_kana": "トウナイシンデン",
    "street": null,
    "office_name": null,
    "office_name_kana": null
  },
  "0075": {
    "postcode": "9940075",
    "prefecture": "山形県",
    "prefecture_kana": "ヤマガタケン",
    "prefecture_code": 6,
    "city": "天童市",
    "city_kana": "テンドウシ",
    "town": "蔵増",
    "town_kana": "クラゾウ",
    "street": null,
    "office_name": null,
    "office_name_kana": null
  },
  "0076": {
    "postcode": "9940076",
    "prefecture": "山形県",
    "prefecture_kana": "ヤマガタケン",
    "prefecture_code": 6,
    "city": "天童市",
    "city_kana": "テンドウシ",
    "town": "高野辺",
    "town_kana": "タカノベ",
    "street": null,
    "office_name": null,
    "office_name_kana": null
  },
  "0077": {
    "postcode": "9940077",
    "prefecture": "山形県",
    "prefecture_kana": "ヤマガタケン",
    "prefecture_code": 6,
    "city": "天童市",
    "city_kana": "テンドウシ",
    "town": "窪野目",
    "town_kana": "クボノメ",
    "street": null,
    "office_name": null,
    "office_name_kana": null
  },
  "0078": {
    "postcode": "9940078",
    "prefecture": "山形県",
    "prefecture_kana": "ヤマガタケン",
    "prefecture_code": 6,
    "city": "天童市",
    "city_kana": "テンドウシ",
    "town": "今町",
    "town_kana": "イママチ",
    "street": null,
    "office_name": null,
    "office_name_kana": null
  },
  "0079": {
    "postcode": "9940079",
    "prefecture": "山形県",
    "prefecture_kana": "ヤマガタケン",
    "prefecture_code": 6,
    "city": "天童市",
    "city_kana": "テンドウシ",
    "town": "大町",
    "town_kana": "オオマチ",
    "street": null,
    "office_name": null,
    "office_name_kana": null
  },
  "0081": {
    "postcode": "9940081",
    "prefecture": "山形県",
    "prefecture_kana": "ヤマガタケン",
    "prefecture_code": 6,
    "city": "天童市",
    "city_kana": "テンドウシ",
    "town": "南小畑",
    "town_kana": "ミナミオバタ",
    "street": null,
    "office_name": null,
    "office_name_kana": null
  },
  "0082": {
    "postcode": "9940082",
    "prefecture": "山形県",
    "prefecture_kana": "ヤマガタケン",
    "prefecture_code": 6,
    "city": "天童市",
    "city_kana": "テンドウシ",
    "town": "芳賀タウン北",
    "town_kana": "ハガタウンキタ",
    "street": null,
    "office_name": null,
    "office_name_kana": null
  },
  "0083": {
    "postcode": "9940083",
    "prefecture": "山形県",
    "prefecture_kana": "ヤマガタケン",
    "prefecture_code": 6,
    "city": "天童市",
    "city_kana": "テンドウシ",
    "town": "芳賀タウン南",
    "town_kana": "ハガタウンミナミ",
    "street": null,
    "office_name": null,
    "office_name_kana": null
  },
  "0101": {
    "postcode": "9940101",
    "prefecture": "山形県",
    "prefecture_kana": "ヤマガタケン",
    "prefecture_code": 6,
    "city": "天童市",
    "city_kana": "テンドウシ",
    "town": "山口",
    "town_kana": "ヤマグチ",
    "street": null,
    "office_name": null,
    "office_name_kana": null
  },
  "0102": {
    "postcode": "9940102",
    "prefecture": "山形県",
    "prefecture_kana": "ヤマガタケン",
    "prefecture_code": 6,
    "city": "天童市",
    "city_kana": "テンドウシ",
    "town": "道満",
    "town_kana": "ドウマン",
    "street": null,
    "office_name": null,
    "office_name_kana": null
  },
  "0103": {
    "postcode": "9940103",
    "prefecture": "山形県",
    "prefecture_kana": "ヤマガタケン",
    "prefecture_code": 6,
    "city": "天童市",
    "city_kana": "テンドウシ",
    "town": "川原子",
    "town_kana": "カワラゴ",
    "street": null,
    "office_name": null,
    "office_name_kana": null
  },
  "0104": {
    "postcode": "9940104",
    "prefecture": "山形県",
    "prefecture_kana": "ヤマガタケン",
    "prefecture_code": 6,
    "city": "天童市",
    "city_kana": "テンドウシ",
    "town": "田麦野",
    "town_kana": "タムギノ",
    "street": null,
    "office_name": null,
    "office_name_kana": null
  },
  "8501": {
    "postcode": "9948501",
    "prefecture": "山形県",
    "prefecture_kana": "ヤマガタケン",
    "prefecture_code": 6,
    "city": "天童市",
    "city_kana": "テンドウシ",
    "town": "北久野本",
    "town_kana": "キタクノモト",
    "street": "１丁目７番４３号",
    "office_name": "エムテックスマツムラ　株式会社",
    "office_name_kana": "エムテツクスマツムラ カブシキガイシヤ"
  },
  "8510": {
    "postcode": "9948510",
    "prefecture": "山形県",
    "prefecture_kana": "ヤマガタケン",
    "prefecture_code": 6,
    "city": "天童市",
    "city_kana": "テンドウシ",
    "town": "老野森",
    "town_kana": "オイノモリ",
    "street": "１丁目１−１",
    "office_name": "天童市役所",
    "office_name_kana": "テンドウシヤクシヨ"
  },
  "8511": {
    "postcode": "9948511",
    "prefecture": "山形県",
    "prefecture_kana": "ヤマガタケン",
    "prefecture_code": 6,
    "city": "天童市",
    "city_kana": "テンドウシ",
    "town": "大字小関",
    "town_kana": null,
    "street": "１３３３番地",
    "office_name": "山形中央農業共済組合",
    "office_name_kana": "ヤマガタチユウオウノウギヨウキヨウサイクミアイ"
  },
  "8585": {
    "postcode": "9948585",
    "prefecture": "山形県",
    "prefecture_kana": "ヤマガタケン",
    "prefecture_code": 6,
    "city": "天童市",
    "city_kana": "テンドウシ",
    "town": "大字久野本",
    "town_kana": null,
    "street": "字日光１１０５",
    "office_name": "東北パイオニア　株式会社",
    "office_name_kana": "トウホクパイオニア カブシキガイシヤ"
  },
  "8601": {
    "postcode": "9948601",
    "prefecture": "山形県",
    "prefecture_kana": "ヤマガタケン",
    "prefecture_code": 6,
    "city": "天童市",
    "city_kana": "テンドウシ",
    "town": "乱川",
    "town_kana": "ミダレガワ",
    "street": "１丁目３−１０",
    "office_name": "株式会社　天童木工",
    "office_name_kana": "カブシキガイシヤ テンドウモツコウ"
  },
  "8611": {
    "postcode": "9948611",
    "prefecture": "山形県",
    "prefecture_kana": "ヤマガタケン",
    "prefecture_code": 6,
    "city": "天童市",
    "city_kana": "テンドウシ",
    "town": "本町",
    "town_kana": "ホンチョウ",
    "street": "１丁目５番３２号（天童郵便局私書箱第３号）",
    "office_name": "株式会社　山本製作所",
    "office_name_kana": "カブシキガイシヤ ヤマモトセイサクシヨ"
  }
}