{
  "0000": {
    "postcode": "9970000",
    "prefecture": "山形県",
    "prefecture_kana": "ヤマガタケン",
    "prefecture_code": 6,
    "city": "鶴岡市",
    "city_kana": "ツルオカシ",
    "town": "",
    "town_kana": "",
    "street": null,
    "office_name": null,
    "office_name_kana": null
  },
  "0001": {
    "postcode": "9970001",
    "prefecture": "山形県",
    "prefecture_kana": "ヤマガタケン",
    "prefecture_code": 6,
    "city": "鶴岡市",
    "city_kana": "ツルオカシ",
    "town": "湯野沢",
    "town_kana": "ユノサワ",
    "street": null,
    "office_name": null,
    "office_name_kana": null
  },
  "0002": {
    "postcode": "9970002",
    "prefecture": "山形県",
    "prefecture_kana": "ヤマガタケン",
    "prefecture_code": 6,
    "city": "鶴岡市",
    "city_kana": "ツルオカシ",
    "town": "播磨",
    "town_kana": "ハリマ",
    "street": null,
    "office_name": null,
    "office_name_kana": null
  },
  "0003": {
    "postcode": "9970003",
    "prefecture": "山形県",
    "prefecture_kana": "ヤマガタケン",
    "prefecture_code": 6,
    "city": "鶴岡市",
    "city_kana": "ツルオカシ",
    "town": "文下",
    "town_kana": "ホウダシ",
    "street": null,
    "office_name": null,
    "office_name_kana": null
  },
  "0004": {
    "postcode": "9970004",
    "prefecture": "山形県",
    "prefecture_kana": "ヤマガタケン",
    "prefecture_code": 6,
    "city": "鶴岡市",
    "city_kana": "ツルオカシ",
    "town": "本田",
    "town_kana": "ホンデン",
    "street": null,
    "office_name": null,
    "office_name_kana": null
  },
  "0005": {
    "postcode": "9970005",
    "prefecture": "山形県",
    "prefecture_kana": "ヤマガタケン",
    "prefecture_code": 6,
    "city": "鶴岡市",
    "city_kana": "ツルオカシ",
    "town": "小京田",
    "town_kana": "コキョウデン",
    "street": null,
    "office_name": null,
    "office_name_kana": null
  },
  "0006": {
    "postcode": "9970006",
    "prefecture": "山形県",
    "prefecture_kana": "ヤマガタケン",
    "prefecture_code": 6,
    "city": "鶴岡市",
    "city_kana": "ツルオカシ",
    "town": "福田",
    "town_kana": "フクダ",
    "street": null,
    "office_name": null,
    "office_name_kana": null
  },
  "0007": {
    "postcode": "9970007",
    "prefecture": "山形県",
    "prefecture_kana": "ヤマガタケン",
    "prefecture_code": 6,
    "city": "鶴岡市",
    "city_kana": "ツルオカシ",
    "town": "豊田",
    "town_kana": "トヨダ",
    "street": null,
    "office_name": null,
    "office_name_kana": null
  },
  "0008": {
    "postcode": "9970008",
    "prefecture": "山形県",
    "prefecture_kana": "ヤマガタケン",
    "prefecture_code": 6,
    "city": "鶴岡市",
    "city_kana": "ツルオカシ",
    "town": "平田",
    "town_kana": "ヒラタ",
    "street": null,
    "office_name": null,
    "office_name_kana": null
  },
  "0009": {
    "postcode": "9970009",
    "prefecture": "山形県",
    "prefecture_kana": "ヤマガタケン",
    "prefecture_code": 6,
    "city": "鶴岡市",
    "city_kana": "ツルオカシ",
    "town": "中京田",
    "town_kana": "ナカキョウデン",
    "street": null,
    "office_name": null,
    "office_name_kana": null
  },
  "0010": {
    "postcode": "9970010",
    "prefecture": "山形県",
    "prefecture_kana": "ヤマガタケン",
    "prefecture_code": 6,
    "city": "鶴岡市",
    "city_kana": "ツルオカシ",
    "town": "余慶町",
    "town_kana": "ヨケイマチ",
    "street": null,
    "office_name": null,
    "office_name_kana": null
  },
  "0011": {
    "postcode": "9970011",
    "prefecture": "山形県",
    "prefecture_kana": "ヤマガタケン",
    "prefecture_code": 6,
    "city": "鶴岡市",
    "city_kana": "ツルオカシ",
    "town": "宝田",
    "town_kana": "タカラダ",
    "street": null,
    "office_name": null,
    "office_name_kana": null
  },
  "0012": {
    "postcode": "9970012",
    "prefecture": "山形県",
    "prefecture_kana": "ヤマガタケン",
    "prefecture_code": 6,
    "city": "鶴岡市",
    "city_kana": "ツルオカシ",
    "town": "道形",
    "town_kana": "ドウガタ",
    "street": null,
    "office_name": null,
    "office_name_kana": null
  },
  "0013": {
    "postcode": "9970013",
    "prefecture": "山形県",
    "prefecture_kana": "ヤマガタケン",
    "prefecture_code": 6,
    "city": "鶴岡市",
    "city_kana": "ツルオカシ",
    "town": "道形町",
    "town_kana": "ドウガタマチ",
    "street": null,
    "office_name": null,
    "office_name_kana": null
  },
  "0014": {
    "postcode": "9970014",
    "prefecture": "山形県",
    "prefecture_kana": "ヤマガタケン",
    "prefecture_code": 6,
    "city": "鶴岡市",
    "city_kana": "ツルオカシ",
    "town": "大宝寺町",
    "town_kana": "ダイホウジマチ",
    "street": null,
    "office_name": null,
    "office_name_kana": null
  },
  "0015": {
    "postcode": "9970015",
    "prefecture": "山形県",
    "prefecture_kana": "ヤマガタケン",
    "prefecture_code": 6,
    "city": "鶴岡市",
    "city_kana": "ツルオカシ",
    "town": "末広町",
    "town_kana": "スエヒロマチ",
    "street": null,
    "office_name": null,
    "office_name_kana": null
  },
  "0016": {
    "postcode": "9970016",
    "prefecture": "山形県",
    "prefecture_kana": "ヤマガタケン",
    "prefecture_code": 6,
    "city": "鶴岡市",
    "city_kana": "ツルオカシ",
    "town": "日和田町",
    "town_kana": "ヒヨリダマチ",
    "street": null,
    "office_name": null,
    "office_name_kana": null
  },
  "0017": {
    "postcode": "9970017",
    "prefecture": "山形県",
    "prefecture_kana": "ヤマガタケン",
    "prefecture_code": 6,
    "city": "鶴岡市",
    "city_kana": "ツルオカシ",
    "town": "大宝寺",
    "town_kana": "ダイホウジ",
    "street": null,
    "office_name": null,
    "office_name_kana": null
  },
  "0018": {
    "postcode": "9970018",
    "prefecture": "山形県",
    "prefecture_kana": "ヤマガタケン",
    "prefecture_code": 6,
    "city": "鶴岡市",
    "city_kana": "ツルオカシ",
    "town": "茅原町",
    "town_kana": "チワラマチ",
    "street": null,
    "office_name": null,
    "office_name_kana": null
  },
  "0019": {
    "postcode": "9970019",
    "prefecture": "山形県",
    "prefecture_kana": "ヤマガタケン",
    "prefecture_code": 6,
    "city": "鶴岡市",
    "city_kana": "ツルオカシ",
    "town": "茅原",
    "town_kana": "チワラ",
    "street": null,
    "office_name": null,
    "office_name_kana": null
  },
  "0021": {
    "postcode": "9970021",
    "prefecture": "山形県",
    "prefecture_kana": "ヤマガタケン",
    "prefecture_code": 6,
    "city": "鶴岡市",
    "city_kana": "ツルオカシ",
    "town": "宝町",
    "town_kana": "タカラマチ",
    "street": null,
    "office_name": null,
    "office_name_kana": null
  },
  "0022": {
    "postcode": "9970022",
    "prefecture": "山形県",
    "prefecture_kana": "ヤマガタケン",
    "prefecture_code": 6,
    "city": "鶴岡市",
    "city_kana": "ツルオカシ",
    "town": "切添町",
    "town_kana": "キリゾエマチ",
    "street": null,
    "office_name": null,
    "office_name_kana": null
  },
  "0023": {
    "postcode": "9970023",
    "prefecture": "山形県",
    "prefecture_kana": "ヤマガタケン",
    "prefecture_code": 6,
    "city": "鶴岡市",
    "city_kana": "ツルオカシ",
    "town": "鳥居町",
    "town_kana": "トリイマチ",
    "street": null,
    "office_name": null,
    "office_name_kana": null
  },
  "0024": {
    "postcode": "9970024",
    "prefecture": "山形県",
    "prefecture_kana": "ヤマガタケン",
    "prefecture_code": 6,
    "city": "鶴岡市",
    "city_kana": "ツルオカシ",
    "town": "朝暘町",
    "town_kana": "チョウヨウマチ",
    "street": null,
    "office_name": null,
    "office_name_kana": null
  },
  "0025": {
    "postcode": "9970025",
    "prefecture": "山形県",
    "prefecture_kana": "ヤマガタケン",
    "prefecture_code": 6,
    "city": "鶴岡市",
    "city_kana": "ツルオカシ",
    "town": "日出",
    "town_kana": "ヒノデ",
    "street": null,
    "office_name": null,
    "office_name_kana": null
  },
  "0026": {
    "postcode": "9970026",
    "prefecture": "山形県",
    "prefecture_kana": "ヤマガタケン",
    "prefecture_code": 6,
    "city": "鶴岡市",
    "city_kana": "ツルオカシ",
    "town": "大東町",
    "town_kana": "ダイトウマチ",
    "street": null,
    "office_name": null,
    "office_name_kana": null
  },
  "0027": {
    "postcode": "9970027",
    "prefecture": "山形県",
    "prefecture_kana": "ヤマガタケン",
    "prefecture_code": 6,
    "city": "鶴岡市",
    "city_kana": "ツルオカシ",
    "town": "昭和町",
    "town_kana": "ショウワマチ",
    "street": null,
    "office_name": null,
    "office_name_kana": null
  },
  "0028": {
    "postcode": "9970028",
    "prefecture": "山形県",
    "prefecture_kana": "ヤマガタケン",
    "prefecture_code": 6,
    "city": "鶴岡市",
    "city_kana": "ツルオカシ",
    "town": "山王町",
    "town_kana": "サンノウマチ",
    "street": null,
    "office_name": null,
    "office_name_kana": null
  },
  "0029": {
    "postcode": "9970029",
    "prefecture": "山形県",
    "prefecture_kana": "ヤマガタケン",
    "prefecture_code": 6,
    "city": "鶴岡市",
    "city_kana": "ツルオカシ",
    "town": "日吉町",
    "town_kana": "ヒヨシマチ",
    "street": null,
    "office_name": null,
    "office_name_kana": null
  },
  "0031": {
    "postcode": "9970031",
    "prefecture": "山形県",
    "prefecture_kana": "ヤマガタケン",
    "prefecture_code": 6,
    "city": "鶴岡市",
    "city_kana": "ツルオカシ",
    "town": "錦町",
    "town_kana": "ニシキマチ",
    "street": null,
    "office_name": null,
    "office_name_kana": null
  },
  "0032": {
    "postcode": "9970032",
    "prefecture": "山形県",
    "prefecture_kana": "ヤマガタケン",
    "prefecture_code": 6,
    "city": "鶴岡市",
    "city_kana": "ツルオカシ",
    "town": "上畑町",
    "town_kana": "カミハタマチ",
    "street": null,
    "office_name": null,
    "office_name_kana": null
  },
  "0033": {
    "postcode": "9970033",
    "prefecture": "山形県",
    "prefecture_kana": "ヤマガタケン",
    "prefecture_code": 6,
    "city": "鶴岡市",
    "city_kana": "ツルオカシ",
    "town": "泉町",
    "town_kana": "イズミマチ",
    "street": null,
    "office_name": null,
    "office_name_kana": null
  },
  "0034": {
    "postcode": "9970034",
    "prefecture": "山形県",
    "prefecture_kana": "ヤマガタケン",
    "prefecture_code": 6,
    "city": "鶴岡市",
    "city_kana": "ツルオカシ",
    "town": "本町",
    "town_kana": "ホンチョウ",
    "street": null,
    "office_name": null,
    "office_name_kana": null
  },
  "0035": {
    "postcode": "9970035",
    "prefecture": "山形県",
    "prefecture_kana": "ヤマガタケン",
    "prefecture_code": 6,
    "city": "鶴岡市",
    "city_kana": "ツルオカシ",
    "town": "馬場町",
    "town_kana": "ババチョウ",
    "street": null,
    "office_name": null,
    "office_name_kana": null
  },
  "0036": {
    "postcode": "9970036",
    "prefecture": "山形県",
    "prefecture_kana": "ヤマガタケン",
    "prefecture_code": 6,
    "city": "鶴岡市",
    "city_kana": "ツルオカシ",
    "town": "家中新町",
    "town_kana": "カチュウシンマチ",
    "street": null,
    "office_name": null,
    "office_name_kana": null
  },
  "0037": {
    "postcode": "9970037",
    "prefecture": "山形県",
    "prefecture_kana": "ヤマガタケン",
    "prefecture_code": 6,
    "city": "鶴岡市",
    "city_kana": "ツルオカシ",
    "town": "若葉町",
    "town_kana": "ワカバマチ",
    "street": null,
    "office_name": null,
    "office_name_kana": null
  },
  "0038": {
    "postcode": "9970038",
    "prefecture": "山形県",
    "prefecture_kana": "ヤマガタケン",
    "prefecture_code": 6,
    "city": "鶴岡市",
    "city_kana": "ツルオカシ",
    "town": "北茅原町",
    "town_kana": "キタチワラマチ",
    "street": null,
    "office_name": null,
    "office_name_kana": null
  },
  "0039": {
    "postcode": "9970039",
    "prefecture": "山形県",
    "prefecture_kana": "ヤマガタケン",
    "prefecture_code": 6,
    "city": "鶴岡市",
    "city_kana": "ツルオカシ",
    "town": "西茅原町",
    "town_kana": "ニシチワラマチ",
    "street": null,
    "office_name": null,
    "office_name_kana": null
  },
  "0041": {
    "postcode": "9970041",
    "prefecture": "山形県",
    "prefecture_kana": "ヤマガタケン",
    "prefecture_code": 6,
    "city": "鶴岡市",
    "city_kana": "ツルオカシ",
    "town": "城北町",
    "town_kana": "ジョウホクマチ",
    "street": null,
    "office_name": null,
    "office_name_kana": null
  },
  "0042": {
    "postcode": "9970042",
    "prefecture": "山形県",
    "prefecture_kana": "ヤマガタケン",
    "prefecture_code": 6,
    "city": "鶴岡市",
    "city_kana": "ツルオカシ",
    "town": "新形町",
    "town_kana": "ニイガタマチ",
    "street": null,
    "office_name": null,
    "office_name_kana": null
  },
  "0043": {
    "postcode": "9970043",
    "prefecture": "山形県",
    "prefecture_kana": "ヤマガタケン",
    "prefecture_code": 6,
    "city": "鶴岡市",
    "city_kana": "ツルオカシ",
    "town": "東新斎町",
    "town_kana": "ヒガシシンサイマチ",
    "street": null,
    "office_name": null,
    "office_name_kana": null
  },
  "0044": {
    "postcode": "9970044",
    "prefecture": "山形県",
    "prefecture_kana": "ヤマガタケン",
    "prefecture_code": 6,
    "city": "鶴岡市",
    "city_kana": "ツルオカシ",
    "town": "新海町",
    "town_kana": "シンカイマチ",
    "street": null,
    "office_name": null,
    "office_name_kana": null
  },
  "0045": {
    "postcode": "9970045",
    "prefecture": "山形県",
    "prefecture_kana": "ヤマガタケン",
    "prefecture_code": 6,
    "city": "鶴岡市",
    "city_kana": "ツルオカシ",
    "town": "西新斎町",
    "town_kana": "ニシシンサイマチ",
    "street": null,
    "office_name": null,
    "office_name_kana": null
  },
  "0046": {
    "postcode": "9970046",
    "prefecture": "山形県",
    "prefecture_kana": "ヤマガタケン",
    "prefecture_code": 6,
    "city": "鶴岡市",
    "city_kana": "ツルオカシ",
    "town": "みどり町",
    "town_kana": "ミドリマチ",
    "street": null,
    "office_name": null,
    "office_name_kana": null
  },
  "0047": {
    "postcode": "9970047",
    "prefecture": "山形県",
    "prefecture_kana": "ヤマガタケン",
    "prefecture_code": 6,
    "city": "鶴岡市",
    "city_kana": "ツルオカシ",
    "town": "大塚町",
    "town_kana": "オオツカマチ",
    "street": null,
    "office_name": null,
    "office_name_kana": null
  },
  "0048": {
    "postcode": "9970048",
    "prefecture": "山形県",
    "prefecture_kana": "ヤマガタケン",
    "prefecture_code": 6,
    "city": "鶴岡市",
    "city_kana": "ツルオカシ",
    "town": "平京田",
    "town_kana": "ヘイキョウデン",
    "street": null,
    "office_name": null,
    "office_name_kana": null
  },
  "0049": {
    "postcode": "9970049",
    "prefecture": "山形県",
    "prefecture_kana": "ヤマガタケン",
    "prefecture_code": 6,
    "city": "鶴岡市",
    "city_kana": "ツルオカシ",
    "town": "大部町",
    "town_kana": "ダイブマチ",
    "street": null,
    "office_name": null,
    "office_name_kana": null
  },
  "0051": {
    "postcode": "9970051",
    "prefecture": "山形県",
    "prefecture_kana": "ヤマガタケン",
    "prefecture_code": 6,
    "city": "鶴岡市",
    "city_kana": "ツルオカシ",
    "town": "荒井京田",
    "town_kana": "アライキョウデン",
    "street": null,
    "office_name": null,
    "office_name_kana": null
  },
  "0052": {
    "postcode": "9970052",
    "prefecture": "山形県",
    "prefecture_kana": "ヤマガタケン",
    "prefecture_code": 6,
    "city": "鶴岡市",
    "city_kana": "ツルオカシ",
    "town": "覚岸寺",
    "town_kana": "カクガンジ",
    "street": null,
    "office_name": null,
    "office_name_kana": null
  },
  "0053": {
    "postcode": "9970053",
    "prefecture": "山形県",
    "prefecture_kana": "ヤマガタケン",
    "prefecture_code": 6,
    "city": "鶴岡市",
    "city_kana": "ツルオカシ",
    "town": "北京田",
    "town_kana": "キタキョウデン",
    "street": null,
    "office_name": null,
    "office_name_kana": null
  },
  "0054": {
    "postcode": "9970054",
    "prefecture": "山形県",
    "prefecture_kana": "ヤマガタケン",
    "prefecture_code": 6,
    "city": "鶴岡市",
    "city_kana": "ツルオカシ",
    "town": "高田",
    "town_kana": "タカダ",
    "street": null,
    "office_name": null,
    "office_name_kana": null
  },
  "0055": {
    "postcode": "9970055",
    "prefecture": "山形県",
    "prefecture_kana": "ヤマガタケン",
    "prefecture_code": 6,
    "city": "鶴岡市",
    "city_kana": "ツルオカシ",
    "town": "西京田",
    "town_kana": "ニシキョウデン",
    "street": null,
    "office_name": null,
    "office_name_kana": null
  },
  "0056": {
    "postcode": "9970056",
    "prefecture": "山形県",
    "prefecture_kana": "ヤマガタケン",
    "prefecture_code": 6,
    "city": "鶴岡市",
    "city_kana": "ツルオカシ",
    "town": "中野京田",
    "town_kana": "ナカノキョウデン",
    "street": null,
    "office_name": null,
    "office_name_kana": null
  },
  "0057": {
    "postcode": "9970057",
    "prefecture": "山形県",
    "prefecture_kana": "ヤマガタケン",
    "prefecture_code": 6,
    "city": "鶴岡市",
    "city_kana": "ツルオカシ",
    "town": "安丹",
    "town_kana": "アンタン",
    "street": null,
    "office_name": null,
    "office_name_kana": null
  },
  "0058": {
    "postcode": "9970058",
    "prefecture": "山形県",
    "prefecture_kana": "ヤマガタケン",
    "prefecture_code": 6,
    "city": "鶴岡市",
    "city_kana": "ツルオカシ",
    "town": "林崎",
    "town_kana": "ハヤシザキ",
    "street": null,
    "office_name": null,
    "office_name_kana": null
  },
  "0101": {
    "postcode": "9970101",
    "prefecture": "山形県",
    "prefecture_kana": "ヤマガタケン",
    "prefecture_code": 6,
    "city": "鶴岡市",
    "city_kana": "ツルオカシ",
    "town": "羽黒町町屋",
    "town_kana": "ハグロマチマチヤ",
    "street": null,
    "office_name": null,
    "office_name_kana": null
  },
  "0102": {
    "postcode": "9970102",
    "prefecture": "山形県",
    "prefecture_kana": "ヤマガタケン",
    "prefecture_code": 6,
    "city": "鶴岡市",
    "city_kana": "ツルオカシ",
    "town": "羽黒町中里",
    "town_kana": "ハグロマチナカザト",
    "street": null,
    "office_name": null,
    "office_name_kana": null
  },
  "0103": {
    "postcode": "9970103",
    "prefecture": "山形県",
    "prefecture_kana": "ヤマガタケン",
    "prefecture_code": 6,
    "city": "鶴岡市",
    "city_kana": "ツルオカシ",
    "town": "羽黒町戸野",
    "town_kana": "ハグロマチトノ",
    "street": null,
    "office_name": null,
    "office_name_kana": null
  },
  "0104": {
    "postcode": "9970104",
    "prefecture": "山形県",
    "prefecture_kana": "ヤマガタケン",
    "prefecture_code": 6,
    "city": "鶴岡市",
    "city_kana": "ツルオカシ",
    "town": "羽黒町坂ノ下",
    "town_kana": "ハグロマチサカノシタ",
    "street": null,
    "office_name": null,
    "office_name_kana": null
  },
  "0105": {
    "postcode": "9970105",
    "prefecture": "山形県",
    "prefecture_kana": "ヤマガタケン",
    "prefecture_code": 6,
    "city": "鶴岡市",
    "city_kana": "ツルオカシ",
    "town": "羽黒町川行",
    "town_kana": "ハグロマチカワツラ",
    "street": null,
    "office_name": null,
    "office_name_kana": null
  },
  "0106": {
    "postcode": "9970106",
    "prefecture": "山形県",
    "prefecture_kana": "ヤマガタケン",
    "prefecture_code": 6,
    "city": "鶴岡市",
    "city_kana": "ツルオカシ",
    "town": "羽黒町染興屋",
    "town_kana": "ハグロマチソメコウヤ",
    "street": null,
    "office_name": null,
    "office_name_kana": null
  },
  "0107": {
    "postcode": "9970107",
    "prefecture": "山形県",
    "prefecture_kana": "ヤマガタケン",
    "prefecture_code": 6,
    "city": "鶴岡市",
    "city_kana": "ツルオカシ",
    "town": "羽黒町小増川",
    "town_kana": "ハグロマチコマスガワ",
    "street": null,
    "office_name": null,
    "office_name_kana": null
  },
  "0108": {
    "postcode": "9970108",
    "prefecture": "山形県",
    "prefecture_kana": "ヤマガタケン",
    "prefecture_code": 6,
    "city": "鶴岡市",
    "city_kana": "ツルオカシ",
    "town": "羽黒町金森目",
    "town_kana": "ハグロマチカナモリメ",
    "street": null,
    "office_name": null,
    "office_name_kana": null
  },
  "0117": [
    {
      "postcode": "9970117",
      "prefecture": "山形県",
      "prefecture_kana": "ヤマガタケン",
      "prefecture_code": 6,
      "city": "鶴岡市",
      "city_kana": "ツルオカシ",
      "town": "大宝寺",
      "town_kana": "ダイホウジ",
      "street": null,
      "office_name": null,
      "office_name_kana": null
    },
    {
      "postcode": "9970117",
      "prefecture": "山形県",
      "prefecture_kana": "ヤマガタケン",
      "prefecture_code": 6,
      "city": "鶴岡市",
      "city_kana": "ツルオカシ",
      "town": "大宝寺中野",
      "town_kana": "ダイホウジナカノ",
      "street": null,
      "office_name": null,
      "office_name_kana": null
    }
  ],
  "0121": {
    "postcode": "9970121",
    "prefecture": "山形県",
    "prefecture_kana": "ヤマガタケン",
    "prefecture_code": 6,
    "city": "鶴岡市",
    "city_kana": "ツルオカシ",
    "town": "羽黒町玉川",
    "town_kana": "ハグロマチタマガワ",
    "street": null,
    "office_name": null,
    "office_name_kana": null
  },
  "0122": {
    "postcode": "9970122",
    "prefecture": "山形県",
    "prefecture_kana": "ヤマガタケン",
    "prefecture_code": 6,
    "city": "鶴岡市",
    "city_kana": "ツルオカシ",
    "town": "羽黒町大口",
    "town_kana": "ハグロマチオオグチ",
    "street": null,
    "office_name": null,
    "office_name_kana": null
  },
  "0123": {
    "postcode": "9970123",
    "prefecture": "山形県",
    "prefecture_kana": "ヤマガタケン",
    "prefecture_code": 6,
    "city": "鶴岡市",
    "city_kana": "ツルオカシ",
    "town": "羽黒町市野山",
    "town_kana": "ハグロマチイチノヤマ",
    "street": null,
    "office_name": null,
    "office_name_kana": null
  },
  "0124": {
    "postcode": "9970124",
    "prefecture": "山形県",
    "prefecture_kana": "ヤマガタケン",
    "prefecture_code": 6,
    "city": "鶴岡市",
    "city_kana": "ツルオカシ",
    "town": "羽黒町増川新田",
    "town_kana": "ハグロマチマスカワシンデン",
    "street": null,
    "office_name": null,
    "office_name_kana": null
  },
  "0125": {
    "postcode": "9970125",
    "prefecture": "山形県",
    "prefecture_kana": "ヤマガタケン",
    "prefecture_code": 6,
    "city": "鶴岡市",
    "city_kana": "ツルオカシ",
    "town": "羽黒町仙道",
    "town_kana": "ハグロマチセンドウ",
    "street": null,
    "office_name": null,
    "office_name_kana": null
  },
  "0126": {
    "postcode": "9970126",
    "prefecture": "山形県",
    "prefecture_kana": "ヤマガタケン",
    "prefecture_code": 6,
    "city": "鶴岡市",
    "city_kana": "ツルオカシ",
    "town": "羽黒町野荒町",
    "town_kana": "ハグロマチノアラマチ",
    "street": null,
    "office_name": null,
    "office_name_kana": null
  },
  "0127": {
    "postcode": "9970127",
    "prefecture": "山形県",
    "prefecture_kana": "ヤマガタケン",
    "prefecture_code": 6,
    "city": "鶴岡市",
    "city_kana": "ツルオカシ",
    "town": "羽黒町十文字",
    "town_kana": "ハグロマチジュウモンジ",
    "street": null,
    "office_name": null,
    "office_name_kana": null
  },
  "0131": {
    "postcode": "9970131",
    "prefecture": "山形県",
    "prefecture_kana": "ヤマガタケン",
    "prefecture_code": 6,
    "city": "鶴岡市",
    "city_kana": "ツルオカシ",
    "town": "羽黒町川代",
    "town_kana": "ハグロマチカワダイ",
    "street": null,
    "office_name": null,
    "office_name_kana": null
  },
  "0141": {
    "postcode": "9970141",
    "prefecture": "山形県",
    "prefecture_kana": "ヤマガタケン",
    "prefecture_code": 6,
    "city": "鶴岡市",
    "city_kana": "ツルオカシ",
    "town": "羽黒町荒川",
    "town_kana": "ハグロマチアラカワ",
    "street": null,
    "office_name": null,
    "office_name_kana": null
  },
  "0142": {
    "postcode": "9970142",
    "prefecture": "山形県",
    "prefecture_kana": "ヤマガタケン",
    "prefecture_code": 6,
    "city": "鶴岡市",
    "city_kana": "ツルオカシ",
    "town": "羽黒町上野新田",
    "town_kana": "ハグロマチウワノシンデン",
    "street": null,
    "office_name": null,
    "office_name_kana": null
  },
  "0143": {
    "postcode": "9970143",
    "prefecture": "山形県",
    "prefecture_kana": "ヤマガタケン",
    "prefecture_code": 6,
    "city": "鶴岡市",
    "city_kana": "ツルオカシ",
    "town": "羽黒町野田",
    "town_kana": "ハグロマチノダ",
    "street": null,
    "office_name": null,
    "office_name_kana": null
  },
  "0151": {
    "postcode": "9970151",
    "prefecture": "山形県",
    "prefecture_kana": "ヤマガタケン",
    "prefecture_code": 6,
    "city": "鶴岡市",
    "city_kana": "ツルオカシ",
    "town": "羽黒町黒瀬",
    "town_kana": "ハグロマチクロセ",
    "street": null,
    "office_name": null,
    "office_name_kana": null
  },
  "0152": {
    "postcode": "9970152",
    "prefecture": "山形県",
    "prefecture_kana": "ヤマガタケン",
    "prefecture_code": 6,
    "city": "鶴岡市",
    "city_kana": "ツルオカシ",
    "town": "羽黒町猪俣新田",
    "town_kana": "ハグロマチイノマタシンデン",
    "street": null,
    "office_name": null,
    "office_name_kana": null
  },
  "0153": {
    "postcode": "9970153",
    "prefecture": "山形県",
    "prefecture_kana": "ヤマガタケン",
    "prefecture_code": 6,
    "city": "鶴岡市",
    "city_kana": "ツルオカシ",
    "town": "羽黒町高寺",
    "town_kana": "ハグロマチタカデラ",
    "street": null,
    "office_name": null,
    "office_name_kana": null
  },
  "0154": {
    "postcode": "9970154",
    "prefecture": "山形県",
    "prefecture_kana": "ヤマガタケン",
    "prefecture_code": 6,
    "city": "鶴岡市",
    "city_kana": "ツルオカシ",
    "town": "羽黒町馬渡ノ内下",
    "town_kana": "ハグロマチマワタリノウチシモ",
    "street": null,
    "office_name": null,
    "office_name_kana": null
  },
  "0155": {
    "postcode": "9970155",
    "prefecture": "山形県",
    "prefecture_kana": "ヤマガタケン",
    "prefecture_code": 6,
    "city": "鶴岡市",
    "city_kana": "ツルオカシ",
    "town": "羽黒町石野新田",
    "town_kana": "ハグロマチイシノシンデン",
    "street": null,
    "office_name": null,
    "office_name_kana": null
  },
  "0156": {
    "postcode": "9970156",
    "prefecture": "山形県",
    "prefecture_kana": "ヤマガタケン",
    "prefecture_code": 6,
    "city": "鶴岡市",
    "city_kana": "ツルオカシ",
    "town": "羽黒町松尾",
    "town_kana": "ハグロマチマツオ",
    "street": null,
    "office_name": null,
    "office_name_kana": null
  },
  "0157": {
    "postcode": "9970157",
    "prefecture": "山形県",
    "prefecture_kana": "ヤマガタケン",
    "prefecture_code": 6,
    "city": "鶴岡市",
    "city_kana": "ツルオカシ",
    "town": "羽黒町後田",
    "town_kana": "ハグロマチウシロダ",
    "street": null,
    "office_name": null,
    "office_name_kana": null
  },
  "0158": {
    "postcode": "9970158",
    "prefecture": "山形県",
    "prefecture_kana": "ヤマガタケン",
    "prefecture_code": 6,
    "city": "鶴岡市",
    "city_kana": "ツルオカシ",
    "town": "羽黒町松ケ岡",
    "town_kana": "ハグロマチマツガオカ",
    "street": null,
    "office_name": null,
    "office_name_kana": null
  },
  "0161": {
    "postcode": "9970161",
    "prefecture": "山形県",
    "prefecture_kana": "ヤマガタケン",
    "prefecture_code": 6,
    "city": "鶴岡市",
    "city_kana": "ツルオカシ",
    "town": "羽黒町押口",
    "town_kana": "ハグロマチオサエグチ",
    "street": null,
    "office_name": null,
    "office_name_kana": null
  },
  "0162": {
    "postcode": "9970162",
    "prefecture": "山形県",
    "prefecture_kana": "ヤマガタケン",
    "prefecture_code": 6,
    "city": "鶴岡市",
    "city_kana": "ツルオカシ",
    "town": "羽黒町細谷",
    "town_kana": "ハグロマチホソヤ",
    "street": null,
    "office_name": null,
    "office_name_kana": null
  },
  "0163": {
    "postcode": "9970163",
    "prefecture": "山形県",
    "prefecture_kana": "ヤマガタケン",
    "prefecture_code": 6,
    "city": "鶴岡市",
    "city_kana": "ツルオカシ",
    "town": "羽黒町狩谷野目",
    "town_kana": "ハグロマチカリヤノメ",
    "street": null,
    "office_name": null,
    "office_name_kana": null
  },
  "0164": {
    "postcode": "9970164",
    "prefecture": "山形県",
    "prefecture_kana": "ヤマガタケン",
    "prefecture_code": 6,
    "city": "鶴岡市",
    "city_kana": "ツルオカシ",
    "town": "羽黒町昼田",
    "town_kana": "ハグロマチヒルダ",
    "street": null,
    "office_name": null,
    "office_name_kana": null
  },
  "0165": {
    "postcode": "9970165",
    "prefecture": "山形県",
    "prefecture_kana": "ヤマガタケン",
    "prefecture_code": 6,
    "city": "鶴岡市",
    "city_kana": "ツルオカシ",
    "town": "羽黒町富沢",
    "town_kana": "ハグロマチトミザワ",
    "street": null,
    "office_name": null,
    "office_name_kana": null
  },
  "0166": {
    "postcode": "9970166",
    "prefecture": "山形県",
    "prefecture_kana": "ヤマガタケン",
    "prefecture_code": 6,
    "city": "鶴岡市",
    "city_kana": "ツルオカシ",
    "town": "羽黒町三ツ橋",
    "town_kana": "ハグロマチミツハシ",
    "street": null,
    "office_name": null,
    "office_name_kana": null
  },
  "0167": {
    "postcode": "9970167",
    "prefecture": "山形県",
    "prefecture_kana": "ヤマガタケン",
    "prefecture_code": 6,
    "city": "鶴岡市",
    "city_kana": "ツルオカシ",
    "town": "羽黒町赤川",
    "town_kana": "ハグロマチアカガワ",
    "street": null,
    "office_name": null,
    "office_name_kana": null
  },
  "0192": {
    "postcode": "9970192",
    "prefecture": "山形県",
    "prefecture_kana": "ヤマガタケン",
    "prefecture_code": 6,
    "city": "鶴岡市",
    "city_kana": "ツルオカシ",
    "town": "羽黒町荒川",
    "town_kana": "ハグロマチアラカワ",
    "street": "字前田元８９",
    "office_name": "鶴岡市　羽黒庁舎",
    "office_name_kana": "ツルオカシ ハグロチヨウシヤ"
  },
  "0211": {
    "postcode": "9970211",
    "prefecture": "山形県",
    "prefecture_kana": "ヤマガタケン",
    "prefecture_code": 6,
    "city": "鶴岡市",
    "city_kana": "ツルオカシ",
    "town": "羽黒町手向",
    "town_kana": "ハグロマチトウゲ",
    "street": null,
    "office_name": null,
    "office_name_kana": null
  },
  "0292": {
    "postcode": "9970292",
    "prefecture": "山形県",
    "prefecture_kana": "ヤマガタケン",
    "prefecture_code": 6,
    "city": "鶴岡市",
    "city_kana": "ツルオカシ",
    "town": "羽黒町手向",
    "town_kana": "ハグロマチトウゲ",
    "street": "字手向７",
    "office_name": "出羽三山神社",
    "office_name_kana": "デワサンザンジンジヤ"
  },
  "0296": {
    "postcode": "9970296",
    "prefecture": "山形県",
    "prefecture_kana": "ヤマガタケン",
    "prefecture_code": 6,
    "city": "鶴岡市",
    "city_kana": "ツルオカシ",
    "town": "羽黒町手向",
    "town_kana": "ハグロマチトウゲ",
    "street": "字薬師沢１９８",
    "office_name": "学校法人　羽黒学園　羽黒高等学校",
    "office_name_kana": "ガツコウホウジン ハグロガクエン ハグロコウトウガツコウ"
  },
  "0301": {
    "postcode": "9970301",
    "prefecture": "山形県",
    "prefecture_kana": "ヤマガタケン",
    "prefecture_code": 6,
    "city": "鶴岡市",
    "city_kana": "ツルオカシ",
    "town": "馬渡",
    "town_kana": "マワタリ",
    "street": null,
    "office_name": null,
    "office_name_kana": null
  },
  "0302": {
    "postcode": "9970302",
    "prefecture": "山形県",
    "prefecture_kana": "ヤマガタケン",
    "prefecture_code": 6,
    "city": "鶴岡市",
    "city_kana": "ツルオカシ",
    "town": "田代",
    "town_kana": "タシロ",
    "street": null,
    "office_name": null,
    "office_name_kana": null
  },
  "0303": {
    "postcode": "9970303",
    "prefecture": "山形県",
    "prefecture_kana": "ヤマガタケン",
    "prefecture_code": 6,
    "city": "鶴岡市",
    "city_kana": "ツルオカシ",
    "town": "たらのき代",
    "town_kana": "タラノキダイ",
    "street": null,
    "office_name": null,
    "office_name_kana": null
  },
  "0311": {
    "postcode": "9970311",
    "prefecture": "山形県",
    "prefecture_kana": "ヤマガタケン",
    "prefecture_code": 6,
    "city": "鶴岡市",
    "city_kana": "ツルオカシ",
    "town": "黒川",
    "town_kana": "クロカワ",
    "street": null,
    "office_name": null,
    "office_name_kana": null
  },
  "0321": {
    "postcode": "9970321",
    "prefecture": "山形県",
    "prefecture_kana": "ヤマガタケン",
    "prefecture_code": 6,
    "city": "鶴岡市",
    "city_kana": "ツルオカシ",
    "town": "宝谷",
    "town_kana": "ホウヤ",
    "street": null,
    "office_name": null,
    "office_name_kana": null
  },
  "0322": {
    "postcode": "9970322",
    "prefecture": "山形県",
    "prefecture_kana": "ヤマガタケン",
    "prefecture_code": 6,
    "city": "鶴岡市",
    "city_kana": "ツルオカシ",
    "town": "松根",
    "town_kana": "マツネ",
    "street": null,
    "office_name": null,
    "office_name_kana": null
  },
  "0323": {
    "postcode": "9970323",
    "prefecture": "山形県",
    "prefecture_kana": "ヤマガタケン",
    "prefecture_code": 6,
    "city": "鶴岡市",
    "city_kana": "ツルオカシ",
    "town": "西片屋",
    "town_kana": "ニシカタヤ",
    "street": null,
    "office_name": null,
    "office_name_kana": null
  },
  "0331": {
    "postcode": "9970331",
    "prefecture": "山形県",
    "prefecture_kana": "ヤマガタケン",
    "prefecture_code": 6,
    "city": "鶴岡市",
    "city_kana": "ツルオカシ",
    "town": "板井川",
    "town_kana": "イタイガワ",
    "street": null,
    "office_name": null,
    "office_name_kana": null
  },
  "0332": {
    "postcode": "9970332",
    "prefecture": "山形県",
    "prefecture_kana": "ヤマガタケン",
    "prefecture_code": 6,
    "city": "鶴岡市",
    "city_kana": "ツルオカシ",
    "town": "西荒屋",
    "town_kana": "ニシアラヤ",
    "street": null,
    "office_name": null,
    "office_name_kana": null
  },
  "0333": {
    "postcode": "9970333",
    "prefecture": "山形県",
    "prefecture_kana": "ヤマガタケン",
    "prefecture_code": 6,
    "city": "鶴岡市",
    "city_kana": "ツルオカシ",
    "town": "常盤木",
    "town_kana": "トキワギ",
    "street": null,
    "office_name": null,
    "office_name_kana": null
  },
  "0334": {
    "postcode": "9970334",
    "prefecture": "山形県",
    "prefecture_kana": "ヤマガタケン",
    "prefecture_code": 6,
    "city": "鶴岡市",
    "city_kana": "ツルオカシ",
    "town": "丸岡",
    "town_kana": "マルオカ",
    "street": null,
    "office_name": null,
    "office_name_kana": null
  },
  "0341": {
    "postcode": "9970341",
    "prefecture": "山形県",
    "prefecture_kana": "ヤマガタケン",
    "prefecture_code": 6,
    "city": "鶴岡市",
    "city_kana": "ツルオカシ",
    "town": "下山添",
    "town_kana": "シモヤマゾエ",
    "street": null,
    "office_name": null,
    "office_name_kana": null
  },
  "0342": {
    "postcode": "9970342",
    "prefecture": "山形県",
    "prefecture_kana": "ヤマガタケン",
    "prefecture_code": 6,
    "city": "鶴岡市",
    "city_kana": "ツルオカシ",
    "town": "三千刈",
    "town_kana": "サンゼンガリ",
    "street": null,
    "office_name": null,
    "office_name_kana": null
  },
  "0343": {
    "postcode": "9970343",
    "prefecture": "山形県",
    "prefecture_kana": "ヤマガタケン",
    "prefecture_code": 6,
    "city": "鶴岡市",
    "city_kana": "ツルオカシ",
    "town": "桂荒俣",
    "town_kana": "カツラアラマタ",
    "street": null,
    "office_name": null,
    "office_name_kana": null
  },
  "0344": {
    "postcode": "9970344",
    "prefecture": "山形県",
    "prefecture_kana": "ヤマガタケン",
    "prefecture_code": 6,
    "city": "鶴岡市",
    "city_kana": "ツルオカシ",
    "town": "東荒屋",
    "town_kana": "ヒガシアラヤ",
    "street": null,
    "office_name": null,
    "office_name_kana": null
  },
  "0345": {
    "postcode": "9970345",
    "prefecture": "山形県",
    "prefecture_kana": "ヤマガタケン",
    "prefecture_code": 6,
    "city": "鶴岡市",
    "city_kana": "ツルオカシ",
    "town": "中田",
    "town_kana": "ナカダ",
    "street": null,
    "office_name": null,
    "office_name_kana": null
  },
  "0346": {
    "postcode": "9970346",
    "prefecture": "山形県",
    "prefecture_kana": "ヤマガタケン",
    "prefecture_code": 6,
    "city": "鶴岡市",
    "city_kana": "ツルオカシ",
    "town": "上山添",
    "town_kana": "カミヤマゾエ",
    "street": null,
    "office_name": null,
    "office_name_kana": null
  },
  "0351": {
    "postcode": "9970351",
    "prefecture": "山形県",
    "prefecture_kana": "ヤマガタケン",
    "prefecture_code": 6,
    "city": "鶴岡市",
    "city_kana": "ツルオカシ",
    "town": "勝福寺",
    "town_kana": "ショウフクジ",
    "street": null,
    "office_name": null,
    "office_name_kana": null
  },
  "0361": {
    "postcode": "9970361",
    "prefecture": "山形県",
    "prefecture_kana": "ヤマガタケン",
    "prefecture_code": 6,
    "city": "鶴岡市",
    "city_kana": "ツルオカシ",
    "town": "民田",
    "town_kana": "ミンデン",
    "street": null,
    "office_name": null,
    "office_name_kana": null
  },
  "0362": {
    "postcode": "9970362",
    "prefecture": "山形県",
    "prefecture_kana": "ヤマガタケン",
    "prefecture_code": 6,
    "city": "鶴岡市",
    "city_kana": "ツルオカシ",
    "town": "中橋",
    "town_kana": "ナカハシ",
    "street": null,
    "office_name": null,
    "office_name_kana": null
  },
  "0363": {
    "postcode": "9970363",
    "prefecture": "山形県",
    "prefecture_kana": "ヤマガタケン",
    "prefecture_code": 6,
    "city": "鶴岡市",
    "city_kana": "ツルオカシ",
    "town": "寿",
    "town_kana": "コトブキ",
    "street": null,
    "office_name": null,
    "office_name_kana": null
  },
  "0364": {
    "postcode": "9970364",
    "prefecture": "山形県",
    "prefecture_kana": "ヤマガタケン",
    "prefecture_code": 6,
    "city": "鶴岡市",
    "city_kana": "ツルオカシ",
    "town": "滝沢",
    "town_kana": "タキザワ",
    "street": null,
    "office_name": null,
    "office_name_kana": null
  },
  "0365": {
    "postcode": "9970365",
    "prefecture": "山形県",
    "prefecture_kana": "ヤマガタケン",
    "prefecture_code": 6,
    "city": "鶴岡市",
    "city_kana": "ツルオカシ",
    "town": "金谷",
    "town_kana": "カナヤ",
    "street": null,
    "office_name": null,
    "office_name_kana": null
  },
  "0366": {
    "postcode": "9970366",
    "prefecture": "山形県",
    "prefecture_kana": "ヤマガタケン",
    "prefecture_code": 6,
    "city": "鶴岡市",
    "city_kana": "ツルオカシ",
    "town": "谷定",
    "town_kana": "タニサダ",
    "street": null,
    "office_name": null,
    "office_name_kana": null
  },
  "0367": {
    "postcode": "9970367",
    "prefecture": "山形県",
    "prefecture_kana": "ヤマガタケン",
    "prefecture_code": 6,
    "city": "鶴岡市",
    "city_kana": "ツルオカシ",
    "town": "上山谷",
    "town_kana": "カミヤマヤ",
    "street": null,
    "office_name": null,
    "office_name_kana": null
  },
  "0368": {
    "postcode": "9970368",
    "prefecture": "山形県",
    "prefecture_kana": "ヤマガタケン",
    "prefecture_code": 6,
    "city": "鶴岡市",
    "city_kana": "ツルオカシ",
    "town": "青龍寺",
    "town_kana": "ショウリュウジ",
    "street": null,
    "office_name": null,
    "office_name_kana": null
  },
  "0369": {
    "postcode": "9970369",
    "prefecture": "山形県",
    "prefecture_kana": "ヤマガタケン",
    "prefecture_code": 6,
    "city": "鶴岡市",
    "city_kana": "ツルオカシ",
    "town": "高坂",
    "town_kana": "タカサカ",
    "street": null,
    "office_name": null,
    "office_name_kana": null
  },
  "0401": {
    "postcode": "9970401",
    "prefecture": "山形県",
    "prefecture_kana": "ヤマガタケン",
    "prefecture_code": 6,
    "city": "鶴岡市",
    "city_kana": "ツルオカシ",
    "town": "中野新田",
    "town_kana": "ナカノシンデン",
    "street": null,
    "office_name": null,
    "office_name_kana": null
  },
  "0402": {
    "postcode": "9970402",
    "prefecture": "山形県",
    "prefecture_kana": "ヤマガタケン",
    "prefecture_code": 6,
    "city": "鶴岡市",
    "city_kana": "ツルオカシ",
    "town": "東岩本",
    "town_kana": "ヒガシイワモト",
    "street": null,
    "office_name": null,
    "office_name_kana": null
  },
  "0403": {
    "postcode": "9970403",
    "prefecture": "山形県",
    "prefecture_kana": "ヤマガタケン",
    "prefecture_code": 6,
    "city": "鶴岡市",
    "city_kana": "ツルオカシ",
    "town": "越中山",
    "town_kana": "エッチュウヤマ",
    "street": null,
    "office_name": null,
    "office_name_kana": null
  },
  "0404": {
    "postcode": "9970404",
    "prefecture": "山形県",
    "prefecture_kana": "ヤマガタケン",
    "prefecture_code": 6,
    "city": "鶴岡市",
    "city_kana": "ツルオカシ",
    "town": "下名川",
    "town_kana": "シモナガワ",
    "street": null,
    "office_name": null,
    "office_name_kana": null
  },
  "0405": {
    "postcode": "9970405",
    "prefecture": "山形県",
    "prefecture_kana": "ヤマガタケン",
    "prefecture_code": 6,
    "city": "鶴岡市",
    "city_kana": "ツルオカシ",
    "town": "上名川",
    "town_kana": "カミナガワ",
    "street": null,
    "office_name": null,
    "office_name_kana": null
  },
  "0411": {
    "postcode": "9970411",
    "prefecture": "山形県",
    "prefecture_kana": "ヤマガタケン",
    "prefecture_code": 6,
    "city": "鶴岡市",
    "city_kana": "ツルオカシ",
    "town": "熊出",
    "town_kana": "クマイデ",
    "street": null,
    "office_name": null,
    "office_name_kana": null
  },
  "0412": {
    "postcode": "9970412",
    "prefecture": "山形県",
    "prefecture_kana": "ヤマガタケン",
    "prefecture_code": 6,
    "city": "鶴岡市",
    "city_kana": "ツルオカシ",
    "town": "本郷",
    "town_kana": "ホンゴウ",
    "street": null,
    "office_name": null,
    "office_name_kana": null
  },
  "0413": {
    "postcode": "9970413",
    "prefecture": "山形県",
    "prefecture_kana": "ヤマガタケン",
    "prefecture_code": 6,
    "city": "鶴岡市",
    "city_kana": "ツルオカシ",
    "town": "行沢",
    "town_kana": "ナメザワ",
    "street": null,
    "office_name": null,
    "office_name_kana": null
  },
  "0414": {
    "postcode": "9970414",
    "prefecture": "山形県",
    "prefecture_kana": "ヤマガタケン",
    "prefecture_code": 6,
    "city": "鶴岡市",
    "city_kana": "ツルオカシ",
    "town": "大針",
    "town_kana": "オオバリ",
    "street": null,
    "office_name": null,
    "office_name_kana": null
  },
  "0415": {
    "postcode": "9970415",
    "prefecture": "山形県",
    "prefecture_kana": "ヤマガタケン",
    "prefecture_code": 6,
    "city": "鶴岡市",
    "city_kana": "ツルオカシ",
    "town": "砂川",
    "town_kana": "スナガワ",
    "street": null,
    "office_name": null,
    "office_name_kana": null
  },
  "0492": {
    "postcode": "9970492",
    "prefecture": "山形県",
    "prefecture_kana": "ヤマガタケン",
    "prefecture_code": 6,
    "city": "鶴岡市",
    "city_kana": "ツルオカシ",
    "town": "下名川",
    "town_kana": "シモナガワ",
    "street": "字落合１",
    "office_name": "鶴岡市　朝日庁舎",
    "office_name_kana": "ツルオカシ アサヒチヨウシヤ"
  },
  "0531": {
    "postcode": "9970531",
    "prefecture": "山形県",
    "prefecture_kana": "ヤマガタケン",
    "prefecture_code": 6,
    "city": "鶴岡市",
    "city_kana": "ツルオカシ",
    "town": "大網",
    "town_kana": "オオアミ",
    "street": null,
    "office_name": null,
    "office_name_kana": null
  },
  "0532": {
    "postcode": "9970532",
    "prefecture": "山形県",
    "prefecture_kana": "ヤマガタケン",
    "prefecture_code": 6,
    "city": "鶴岡市",
    "city_kana": "ツルオカシ",
    "town": "田麦俣",
    "town_kana": "タムギマタ",
    "street": null,
    "office_name": null,
    "office_name_kana": null
  },
  "0621": {
    "postcode": "9970621",
    "prefecture": "山形県",
    "prefecture_kana": "ヤマガタケン",
    "prefecture_code": 6,
    "city": "鶴岡市",
    "city_kana": "ツルオカシ",
    "town": "荒沢",
    "town_kana": "アラサワ",
    "street": null,
    "office_name": null,
    "office_name_kana": null
  },
  "0622": {
    "postcode": "9970622",
    "prefecture": "山形県",
    "prefecture_kana": "ヤマガタケン",
    "prefecture_code": 6,
    "city": "鶴岡市",
    "city_kana": "ツルオカシ",
    "town": "大鳥",
    "town_kana": "オオトリ",
    "street": null,
    "office_name": null,
    "office_name_kana": null
  },
  "0623": {
    "postcode": "9970623",
    "prefecture": "山形県",
    "prefecture_kana": "ヤマガタケン",
    "prefecture_code": 6,
    "city": "鶴岡市",
    "city_kana": "ツルオカシ",
    "town": "上田沢",
    "town_kana": "カミタザワ",
    "street": null,
    "office_name": null,
    "office_name_kana": null
  },
  "0624": {
    "postcode": "9970624",
    "prefecture": "山形県",
    "prefecture_kana": "ヤマガタケン",
    "prefecture_code": 6,
    "city": "鶴岡市",
    "city_kana": "ツルオカシ",
    "town": "倉沢",
    "town_kana": "クラサワ",
    "street": null,
    "office_name": null,
    "office_name_kana": null
  },
  "0625": {
    "postcode": "9970625",
    "prefecture": "山形県",
    "prefecture_kana": "ヤマガタケン",
    "prefecture_code": 6,
    "city": "鶴岡市",
    "city_kana": "ツルオカシ",
    "town": "下田沢",
    "town_kana": "シモタザワ",
    "street": null,
    "office_name": null,
    "office_name_kana": null
  },
  "0626": {
    "postcode": "9970626",
    "prefecture": "山形県",
    "prefecture_kana": "ヤマガタケン",
    "prefecture_code": 6,
    "city": "鶴岡市",
    "city_kana": "ツルオカシ",
    "town": "松沢",
    "town_kana": "マツザワ",
    "street": null,
    "office_name": null,
    "office_name_kana": null
  },
  "0751": {
    "postcode": "9970751",
    "prefecture": "山形県",
    "prefecture_kana": "ヤマガタケン",
    "prefecture_code": 6,
    "city": "鶴岡市",
    "city_kana": "ツルオカシ",
    "town": "藤沢",
    "town_kana": "フジサワ",
    "street": null,
    "office_name": null,
    "office_name_kana": null
  },
  "0752": {
    "postcode": "9970752",
    "prefecture": "山形県",
    "prefecture_kana": "ヤマガタケン",
    "prefecture_code": 6,
    "city": "鶴岡市",
    "city_kana": "ツルオカシ",
    "town": "湯田川",
    "town_kana": "ユタガワ",
    "street": null,
    "office_name": null,
    "office_name_kana": null
  },
  "0753": {
    "postcode": "9970753",
    "prefecture": "山形県",
    "prefecture_kana": "ヤマガタケン",
    "prefecture_code": 6,
    "city": "鶴岡市",
    "city_kana": "ツルオカシ",
    "town": "田川",
    "town_kana": "タガワ",
    "street": null,
    "office_name": null,
    "office_name_kana": null
  },
  "0754": {
    "postcode": "9970754",
    "prefecture": "山形県",
    "prefecture_kana": "ヤマガタケン",
    "prefecture_code": 6,
    "city": "鶴岡市",
    "city_kana": "ツルオカシ",
    "town": "少連寺",
    "town_kana": "ショウレンジ",
    "street": null,
    "office_name": null,
    "office_name_kana": null
  },
  "0755": {
    "postcode": "9970755",
    "prefecture": "山形県",
    "prefecture_kana": "ヤマガタケン",
    "prefecture_code": 6,
    "city": "鶴岡市",
    "city_kana": "ツルオカシ",
    "town": "砂谷",
    "town_kana": "イサゴダニ",
    "street": null,
    "office_name": null,
    "office_name_kana": null
  },
  "0756": {
    "postcode": "9970756",
    "prefecture": "山形県",
    "prefecture_kana": "ヤマガタケン",
    "prefecture_code": 6,
    "city": "鶴岡市",
    "city_kana": "ツルオカシ",
    "town": "東目",
    "town_kana": "ヒガシメ",
    "street": null,
    "office_name": null,
    "office_name_kana": null
  },
  "0757": {
    "postcode": "9970757",
    "prefecture": "山形県",
    "prefecture_kana": "ヤマガタケン",
    "prefecture_code": 6,
    "city": "鶴岡市",
    "city_kana": "ツルオカシ",
    "town": "坂野下",
    "town_kana": "サカノシタ",
    "street": null,
    "office_name": null,
    "office_name_kana": null
  },
  "0758": {
    "postcode": "9970758",
    "prefecture": "山形県",
    "prefecture_kana": "ヤマガタケン",
    "prefecture_code": 6,
    "city": "鶴岡市",
    "city_kana": "ツルオカシ",
    "town": "関根",
    "town_kana": "セキネ",
    "street": null,
    "office_name": null,
    "office_name_kana": null
  },
  "0801": {
    "postcode": "9970801",
    "prefecture": "山形県",
    "prefecture_kana": "ヤマガタケン",
    "prefecture_code": 6,
    "city": "鶴岡市",
    "city_kana": "ツルオカシ",
    "town": "東原町",
    "town_kana": "ヒガシハラマチ",
    "street": null,
    "office_name": null,
    "office_name_kana": null
  },
  "0802": {
    "postcode": "9970802",
    "prefecture": "山形県",
    "prefecture_kana": "ヤマガタケン",
    "prefecture_code": 6,
    "city": "鶴岡市",
    "city_kana": "ツルオカシ",
    "town": "伊勢原町",
    "town_kana": "イセハラマチ",
    "street": null,
    "office_name": null,
    "office_name_kana": null
  },
  "0803": {
    "postcode": "9970803",
    "prefecture": "山形県",
    "prefecture_kana": "ヤマガタケン",
    "prefecture_code": 6,
    "city": "鶴岡市",
    "city_kana": "ツルオカシ",
    "town": "伊勢横内",
    "town_kana": "イセヨコウチ",
    "street": null,
    "office_name": null,
    "office_name_kana": null
  },
  "0804": {
    "postcode": "9970804",
    "prefecture": "山形県",
    "prefecture_kana": "ヤマガタケン",
    "prefecture_code": 6,
    "city": "鶴岡市",
    "city_kana": "ツルオカシ",
    "town": "斎藤川原",
    "town_kana": "サイトウガワラ",
    "street": null,
    "office_name": null,
    "office_name_kana": null
  },
  "0805": {
    "postcode": "9970805",
    "prefecture": "山形県",
    "prefecture_kana": "ヤマガタケン",
    "prefecture_code": 6,
    "city": "鶴岡市",
    "city_kana": "ツルオカシ",
    "town": "我老林",
    "town_kana": "ガロウバヤシ",
    "street": null,
    "office_name": null,
    "office_name_kana": null
  },
  "0806": {
    "postcode": "9970806",
    "prefecture": "山形県",
    "prefecture_kana": "ヤマガタケン",
    "prefecture_code": 6,
    "city": "鶴岡市",
    "city_kana": "ツルオカシ",
    "town": "遠賀原",
    "town_kana": "オガワラ",
    "street": null,
    "office_name": null,
    "office_name_kana": null
  },
  "0807": {
    "postcode": "9970807",
    "prefecture": "山形県",
    "prefecture_kana": "ヤマガタケン",
    "prefecture_code": 6,
    "city": "鶴岡市",
    "city_kana": "ツルオカシ",
    "town": "八ツ興屋",
    "town_kana": "ヤツゴウヤ",
    "street": null,
    "office_name": null,
    "office_name_kana": null
  },
  "0808": {
    "postcode": "9970808",
    "prefecture": "山形県",
    "prefecture_kana": "ヤマガタケン",
    "prefecture_code": 6,
    "city": "鶴岡市",
    "city_kana": "ツルオカシ",
    "town": "苗津",
    "town_kana": "ナエヅ",
    "street": null,
    "office_name": null,
    "office_name_kana": null
  },
  "0809": {
    "postcode": "9970809",
    "prefecture": "山形県",
    "prefecture_kana": "ヤマガタケン",
    "prefecture_code": 6,
    "city": "鶴岡市",
    "city_kana": "ツルオカシ",
    "town": "苗津町",
    "town_kana": "ナエヅマチ",
    "street": null,
    "office_name": null,
    "office_name_kana": null
  },
  "0811": {
    "postcode": "9970811",
    "prefecture": "山形県",
    "prefecture_kana": "ヤマガタケン",
    "prefecture_code": 6,
    "city": "鶴岡市",
    "city_kana": "ツルオカシ",
    "town": "神明町",
    "town_kana": "シンメイチョウ",
    "street": null,
    "office_name": null,
    "office_name_kana": null
  },
  "0812": {
    "postcode": "9970812",
    "prefecture": "山形県",
    "prefecture_kana": "ヤマガタケン",
    "prefecture_code": 6,
    "city": "鶴岡市",
    "city_kana": "ツルオカシ",
    "town": "長者町",
    "town_kana": "チョウジャマチ",
    "street": null,
    "office_name": null,
    "office_name_kana": null
  },
  "0813": {
    "postcode": "9970813",
    "prefecture": "山形県",
    "prefecture_kana": "ヤマガタケン",
    "prefecture_code": 6,
    "city": "鶴岡市",
    "city_kana": "ツルオカシ",
    "town": "千石町",
    "town_kana": "センゴクマチ",
    "street": null,
    "office_name": null,
    "office_name_kana": null
  },
  "0814": {
    "postcode": "9970814",
    "prefecture": "山形県",
    "prefecture_kana": "ヤマガタケン",
    "prefecture_code": 6,
    "city": "鶴岡市",
    "city_kana": "ツルオカシ",
    "town": "城南町",
    "town_kana": "ジョウナンマチ",
    "street": null,
    "office_name": null,
    "office_name_kana": null
  },
  "0815": {
    "postcode": "9970815",
    "prefecture": "山形県",
    "prefecture_kana": "ヤマガタケン",
    "prefecture_code": 6,
    "city": "鶴岡市",
    "city_kana": "ツルオカシ",
    "town": "外内島",
    "town_kana": "トノジマ",
    "street": null,
    "office_name": null,
    "office_name_kana": null
  },
  "0816": {
    "postcode": "9970816",
    "prefecture": "山形県",
    "prefecture_kana": "ヤマガタケン",
    "prefecture_code": 6,
    "city": "鶴岡市",
    "city_kana": "ツルオカシ",
    "town": "文園町",
    "town_kana": "フミゾノマチ",
    "street": null,
    "office_name": null,
    "office_name_kana": null
  },
  "0817": {
    "postcode": "9970817",
    "prefecture": "山形県",
    "prefecture_kana": "ヤマガタケン",
    "prefecture_code": 6,
    "city": "鶴岡市",
    "city_kana": "ツルオカシ",
    "town": "睦町",
    "town_kana": "ムツミマチ",
    "street": null,
    "office_name": null,
    "office_name_kana": null
  },
  "0818": {
    "postcode": "9970818",
    "prefecture": "山形県",
    "prefecture_kana": "ヤマガタケン",
    "prefecture_code": 6,
    "city": "鶴岡市",
    "city_kana": "ツルオカシ",
    "town": "三和町",
    "town_kana": "ミワマチ",
    "street": null,
    "office_name": null,
    "office_name_kana": null
  },
  "0819": {
    "postcode": "9970819",
    "prefecture": "山形県",
    "prefecture_kana": "ヤマガタケン",
    "prefecture_code": 6,
    "city": "鶴岡市",
    "city_kana": "ツルオカシ",
    "town": "のぞみ町",
    "town_kana": "ノゾミマチ",
    "street": null,
    "office_name": null,
    "office_name_kana": null
  },
  "0821": {
    "postcode": "9970821",
    "prefecture": "山形県",
    "prefecture_kana": "ヤマガタケン",
    "prefecture_code": 6,
    "city": "鶴岡市",
    "city_kana": "ツルオカシ",
    "town": "三光町",
    "town_kana": "サンコウチョウ",
    "street": null,
    "office_name": null,
    "office_name_kana": null
  },
  "0822": {
    "postcode": "9970822",
    "prefecture": "山形県",
    "prefecture_kana": "ヤマガタケン",
    "prefecture_code": 6,
    "city": "鶴岡市",
    "city_kana": "ツルオカシ",
    "town": "双葉町",
    "town_kana": "フタバチョウ",
    "street": null,
    "office_name": null,
    "office_name_kana": null
  },
  "0823": {
    "postcode": "9970823",
    "prefecture": "山形県",
    "prefecture_kana": "ヤマガタケン",
    "prefecture_code": 6,
    "city": "鶴岡市",
    "city_kana": "ツルオカシ",
    "town": "海老島町",
    "town_kana": "エビジママチ",
    "street": null,
    "office_name": null,
    "office_name_kana": null
  },
  "0824": {
    "postcode": "9970824",
    "prefecture": "山形県",
    "prefecture_kana": "ヤマガタケン",
    "prefecture_code": 6,
    "city": "鶴岡市",
    "city_kana": "ツルオカシ",
    "town": "日枝",
    "town_kana": "ヒエ",
    "street": null,
    "office_name": null,
    "office_name_kana": null
  },
  "0825": {
    "postcode": "9970825",
    "prefecture": "山形県",
    "prefecture_kana": "ヤマガタケン",
    "prefecture_code": 6,
    "city": "鶴岡市",
    "city_kana": "ツルオカシ",
    "town": "小真木原町",
    "town_kana": "コマギハラマチ",
    "street": null,
    "office_name": null,
    "office_name_kana": null
  },
  "0826": {
    "postcode": "9970826",
    "prefecture": "山形県",
    "prefecture_kana": "ヤマガタケン",
    "prefecture_code": 6,
    "city": "鶴岡市",
    "city_kana": "ツルオカシ",
    "town": "美原町",
    "town_kana": "ミハラマチ",
    "street": null,
    "office_name": null,
    "office_name_kana": null
  },
  "0827": {
    "postcode": "9970827",
    "prefecture": "山形県",
    "prefecture_kana": "ヤマガタケン",
    "prefecture_code": 6,
    "city": "鶴岡市",
    "city_kana": "ツルオカシ",
    "town": "陽光町",
    "town_kana": "ヨウコウマチ",
    "street": null,
    "office_name": null,
    "office_name_kana": null
  },
  "0831": {
    "postcode": "9970831",
    "prefecture": "山形県",
    "prefecture_kana": "ヤマガタケン",
    "prefecture_code": 6,
    "city": "鶴岡市",
    "city_kana": "ツルオカシ",
    "town": "大西町",
    "town_kana": "オオニシマチ",
    "street": null,
    "office_name": null,
    "office_name_kana": null
  },
  "0832": {
    "postcode": "9970832",
    "prefecture": "山形県",
    "prefecture_kana": "ヤマガタケン",
    "prefecture_code": 6,
    "city": "鶴岡市",
    "city_kana": "ツルオカシ",
    "town": "青柳町",
    "town_kana": "アオヤギチョウ",
    "street": null,
    "office_name": null,
    "office_name_kana": null
  },
  "0833": {
    "postcode": "9970833",
    "prefecture": "山形県",
    "prefecture_kana": "ヤマガタケン",
    "prefecture_code": 6,
    "city": "鶴岡市",
    "city_kana": "ツルオカシ",
    "town": "柳田",
    "town_kana": "ヤナギダ",
    "street": null,
    "office_name": null,
    "office_name_kana": null
  },
  "0834": {
    "postcode": "9970834",
    "prefecture": "山形県",
    "prefecture_kana": "ヤマガタケン",
    "prefecture_code": 6,
    "city": "鶴岡市",
    "city_kana": "ツルオカシ",
    "town": "稲生",
    "town_kana": "イナオイ",
    "street": null,
    "office_name": null,
    "office_name_kana": null
  },
  "0835": {
    "postcode": "9970835",
    "prefecture": "山形県",
    "prefecture_kana": "ヤマガタケン",
    "prefecture_code": 6,
    "city": "鶴岡市",
    "city_kana": "ツルオカシ",
    "town": "番田",
    "town_kana": "バンデン",
    "street": null,
    "office_name": null,
    "office_name_kana": null
  },
  "0836": {
    "postcode": "9970836",
    "prefecture": "山形県",
    "prefecture_kana": "ヤマガタケン",
    "prefecture_code": 6,
    "city": "鶴岡市",
    "city_kana": "ツルオカシ",
    "town": "寺田",
    "town_kana": "テラダ",
    "street": null,
    "office_name": null,
    "office_name_kana": null
  },
  "0837": {
    "postcode": "9970837",
    "prefecture": "山形県",
    "prefecture_kana": "ヤマガタケン",
    "prefecture_code": 6,
    "city": "鶴岡市",
    "city_kana": "ツルオカシ",
    "town": "道田町",
    "town_kana": "ミチダマチ",
    "street": null,
    "office_name": null,
    "office_name_kana": null
  },
  "0838": {
    "postcode": "9970838",
    "prefecture": "山形県",
    "prefecture_kana": "ヤマガタケン",
    "prefecture_code": 6,
    "city": "鶴岡市",
    "city_kana": "ツルオカシ",
    "town": "淀川町",
    "town_kana": "ヨドカワマチ",
    "street": null,
    "office_name": null,
    "office_name_kana": null
  },
  "0839": {
    "postcode": "9970839",
    "prefecture": "山形県",
    "prefecture_kana": "ヤマガタケン",
    "prefecture_code": 6,
    "city": "鶴岡市",
    "city_kana": "ツルオカシ",
    "town": "砂田町",
    "town_kana": "スナダマチ",
    "street": null,
    "office_name": null,
    "office_name_kana": null
  },
  "0841": {
    "postcode": "9970841",
    "prefecture": "山形県",
    "prefecture_kana": "ヤマガタケン",
    "prefecture_code": 6,
    "city": "鶴岡市",
    "city_kana": "ツルオカシ",
    "town": "白山",
    "town_kana": "シラヤマ",
    "street": null,
    "office_name": null,
    "office_name_kana": null
  },
  "0842": {
    "postcode": "9970842",
    "prefecture": "山形県",
    "prefecture_kana": "ヤマガタケン",
    "prefecture_code": 6,
    "city": "鶴岡市",
    "city_kana": "ツルオカシ",
    "town": "井岡",
    "town_kana": "イノオカ",
    "street": null,
    "office_name": null,
    "office_name_kana": null
  },
  "0843": {
    "postcode": "9970843",
    "prefecture": "山形県",
    "prefecture_kana": "ヤマガタケン",
    "prefecture_code": 6,
    "city": "鶴岡市",
    "city_kana": "ツルオカシ",
    "town": "岡山",
    "town_kana": "オカヤマ",
    "street": null,
    "office_name": null,
    "office_name_kana": null
  },
  "0844": {
    "postcode": "9970844",
    "prefecture": "山形県",
    "prefecture_kana": "ヤマガタケン",
    "prefecture_code": 6,
    "city": "鶴岡市",
    "city_kana": "ツルオカシ",
    "town": "森片",
    "town_kana": "モリカタ",
    "street": null,
    "office_name": null,
    "office_name_kana": null
  },
  "0845": {
    "postcode": "9970845",
    "prefecture": "山形県",
    "prefecture_kana": "ヤマガタケン",
    "prefecture_code": 6,
    "city": "鶴岡市",
    "city_kana": "ツルオカシ",
    "town": "下清水",
    "town_kana": "シモシミズ",
    "street": null,
    "office_name": null,
    "office_name_kana": null
  },
  "0846": {
    "postcode": "9970846",
    "prefecture": "山形県",
    "prefecture_kana": "ヤマガタケン",
    "prefecture_code": 6,
    "city": "鶴岡市",
    "city_kana": "ツルオカシ",
    "town": "中清水",
    "town_kana": "ナカシミズ",
    "street": null,
    "office_name": null,
    "office_name_kana": null
  },
  "0847": {
    "postcode": "9970847",
    "prefecture": "山形県",
    "prefecture_kana": "ヤマガタケン",
    "prefecture_code": 6,
    "city": "鶴岡市",
    "city_kana": "ツルオカシ",
    "town": "上清水",
    "town_kana": "カミシミズ",
    "street": null,
    "office_name": null,
    "office_name_kana": null
  },
  "0848": {
    "postcode": "9970848",
    "prefecture": "山形県",
    "prefecture_kana": "ヤマガタケン",
    "prefecture_code": 6,
    "city": "鶴岡市",
    "city_kana": "ツルオカシ",
    "town": "清水新田",
    "town_kana": "シミズシンデン",
    "street": null,
    "office_name": null,
    "office_name_kana": null
  },
  "0851": {
    "postcode": "9970851",
    "prefecture": "山形県",
    "prefecture_kana": "ヤマガタケン",
    "prefecture_code": 6,
    "city": "鶴岡市",
    "city_kana": "ツルオカシ",
    "town": "布目",
    "town_kana": "ヌノメ",
    "street": null,
    "office_name": null,
    "office_name_kana": null
  },
  "0852": {
    "postcode": "9970852",
    "prefecture": "山形県",
    "prefecture_kana": "ヤマガタケン",
    "prefecture_code": 6,
    "city": "鶴岡市",
    "city_kana": "ツルオカシ",
    "town": "新斎部",
    "town_kana": "シンサイブ",
    "street": null,
    "office_name": null,
    "office_name_kana": null
  },
  "0853": {
    "postcode": "9970853",
    "prefecture": "山形県",
    "prefecture_kana": "ヤマガタケン",
    "prefecture_code": 6,
    "city": "鶴岡市",
    "city_kana": "ツルオカシ",
    "town": "小淀川",
    "town_kana": "コヨドカワ",
    "street": null,
    "office_name": null,
    "office_name_kana": null
  },
  "0854": {
    "postcode": "9970854",
    "prefecture": "山形県",
    "prefecture_kana": "ヤマガタケン",
    "prefecture_code": 6,
    "city": "鶴岡市",
    "city_kana": "ツルオカシ",
    "town": "大淀川",
    "town_kana": "オオヨドカワ",
    "street": null,
    "office_name": null,
    "office_name_kana": null
  },
  "0855": {
    "postcode": "9970855",
    "prefecture": "山形県",
    "prefecture_kana": "ヤマガタケン",
    "prefecture_code": 6,
    "city": "鶴岡市",
    "city_kana": "ツルオカシ",
    "town": "矢馳",
    "town_kana": "ヤバセ",
    "street": null,
    "office_name": null,
    "office_name_kana": null
  },
  "0856": {
    "postcode": "9970856",
    "prefecture": "山形県",
    "prefecture_kana": "ヤマガタケン",
    "prefecture_code": 6,
    "city": "鶴岡市",
    "city_kana": "ツルオカシ",
    "town": "山田",
    "town_kana": "ヤマダ",
    "street": null,
    "office_name": null,
    "office_name_kana": null
  },
  "0857": {
    "postcode": "9970857",
    "prefecture": "山形県",
    "prefecture_kana": "ヤマガタケン",
    "prefecture_code": 6,
    "city": "鶴岡市",
    "city_kana": "ツルオカシ",
    "town": "美咲町",
    "town_kana": "ミサキマチ",
    "street": null,
    "office_name": null,
    "office_name_kana": null
  },
  "0861": {
    "postcode": "9970861",
    "prefecture": "山形県",
    "prefecture_kana": "ヤマガタケン",
    "prefecture_code": 6,
    "city": "鶴岡市",
    "city_kana": "ツルオカシ",
    "town": "桜新町",
    "town_kana": "サクラシンマチ",
    "street": null,
    "office_name": null,
    "office_name_kana": null
  },
  "0862": {
    "postcode": "9970862",
    "prefecture": "山形県",
    "prefecture_kana": "ヤマガタケン",
    "prefecture_code": 6,
    "city": "鶴岡市",
    "city_kana": "ツルオカシ",
    "town": "ほなみ町",
    "town_kana": "ホナミマチ",
    "street": null,
    "office_name": null,
    "office_name_kana": null
  },
  "1111": {
    "postcode": "9971111",
    "prefecture": "山形県",
    "prefecture_kana": "ヤマガタケン",
    "prefecture_code": 6,
    "city": "鶴岡市",
    "city_kana": "ツルオカシ",
    "town": "茨新田",
    "town_kana": "バラシンデン",
    "street": null,
    "office_name": null,
    "office_name_kana": null
  },
  "1112": {
    "postcode": "9971112",
    "prefecture": "山形県",
    "prefecture_kana": "ヤマガタケン",
    "prefecture_code": 6,
    "city": "鶴岡市",
    "city_kana": "ツルオカシ",
    "town": "西沼",
    "town_kana": "ニシヌマ",
    "street": null,
    "office_name": null,
    "office_name_kana": null
  },
  "1113": {
    "postcode": "9971113",
    "prefecture": "山形県",
    "prefecture_kana": "ヤマガタケン",
    "prefecture_code": 6,
    "city": "鶴岡市",
    "city_kana": "ツルオカシ",
    "town": "長崎",
    "town_kana": "ナガサキ",
    "street": null,
    "office_name": null,
    "office_name_kana": null
  },
  "1114": {
    "postcode": "9971114",
    "prefecture": "山形県",
    "prefecture_kana": "ヤマガタケン",
    "prefecture_code": 6,
    "city": "鶴岡市",
    "city_kana": "ツルオカシ",
    "town": "千安京田",
    "town_kana": "チヤスキョウデン",
    "street": null,
    "office_name": null,
    "office_name_kana": null
  },
  "1115": {
    "postcode": "9971115",
    "prefecture": "山形県",
    "prefecture_kana": "ヤマガタケン",
    "prefecture_code": 6,
    "city": "鶴岡市",
    "city_kana": "ツルオカシ",
    "town": "辻興屋",
    "town_kana": "ツジコウヤ",
    "street": null,
    "office_name": null,
    "office_name_kana": null
  },
  "1116": {
    "postcode": "9971116",
    "prefecture": "山形県",
    "prefecture_kana": "ヤマガタケン",
    "prefecture_code": 6,
    "city": "鶴岡市",
    "city_kana": "ツルオカシ",
    "town": "面野山",
    "town_kana": "オモノヤマ",
    "street": null,
    "office_name": null,
    "office_name_kana": null
  },
  "1117": {
    "postcode": "9971117",
    "prefecture": "山形県",
    "prefecture_kana": "ヤマガタケン",
    "prefecture_code": 6,
    "city": "鶴岡市",
    "city_kana": "ツルオカシ",
    "town": "下川",
    "town_kana": "シモガワ",
    "street": null,
    "office_name": null,
    "office_name_kana": null
  },
  "1121": {
    "postcode": "9971121",
    "prefecture": "山形県",
    "prefecture_kana": "ヤマガタケン",
    "prefecture_code": 6,
    "city": "鶴岡市",
    "city_kana": "ツルオカシ",
    "town": "大山",
    "town_kana": "オオヤマ",
    "street": null,
    "office_name": null,
    "office_name_kana": null
  },
  "1122": {
    "postcode": "9971122",
    "prefecture": "山形県",
    "prefecture_kana": "ヤマガタケン",
    "prefecture_code": 6,
    "city": "鶴岡市",
    "city_kana": "ツルオカシ",
    "town": "友江",
    "town_kana": "トモエ",
    "street": null,
    "office_name": null,
    "office_name_kana": null
  },
  "1123": {
    "postcode": "9971123",
    "prefecture": "山形県",
    "prefecture_kana": "ヤマガタケン",
    "prefecture_code": 6,
    "city": "鶴岡市",
    "city_kana": "ツルオカシ",
    "town": "友江町",
    "town_kana": "トモエマチ",
    "street": null,
    "office_name": null,
    "office_name_kana": null
  },
  "1124": {
    "postcode": "9971124",
    "prefecture": "山形県",
    "prefecture_kana": "ヤマガタケン",
    "prefecture_code": 6,
    "city": "鶴岡市",
    "city_kana": "ツルオカシ",
    "town": "大山",
    "town_kana": "オオヤマ",
    "street": null,
    "office_name": null,
    "office_name_kana": null
  },
  "1125": {
    "postcode": "9971125",
    "prefecture": "山形県",
    "prefecture_kana": "ヤマガタケン",
    "prefecture_code": 6,
    "city": "鶴岡市",
    "city_kana": "ツルオカシ",
    "town": "馬町",
    "town_kana": "ウママチ",
    "street": null,
    "office_name": null,
    "office_name_kana": null
  },
  "1131": {
    "postcode": "9971131",
    "prefecture": "山形県",
    "prefecture_kana": "ヤマガタケン",
    "prefecture_code": 6,
    "city": "鶴岡市",
    "city_kana": "ツルオカシ",
    "town": "菱津",
    "town_kana": "ヒシヅ",
    "street": null,
    "office_name": null,
    "office_name_kana": null
  },
  "1132": {
    "postcode": "9971132",
    "prefecture": "山形県",
    "prefecture_kana": "ヤマガタケン",
    "prefecture_code": 6,
    "city": "鶴岡市",
    "city_kana": "ツルオカシ",
    "town": "栃屋",
    "town_kana": "トチヤ",
    "street": null,
    "office_name": null,
    "office_name_kana": null
  },
  "1133": {
    "postcode": "9971133",
    "prefecture": "山形県",
    "prefecture_kana": "ヤマガタケン",
    "prefecture_code": 6,
    "city": "鶴岡市",
    "city_kana": "ツルオカシ",
    "town": "下興屋",
    "town_kana": "シモコウヤ",
    "street": null,
    "office_name": null,
    "office_name_kana": null
  },
  "1134": {
    "postcode": "9971134",
    "prefecture": "山形県",
    "prefecture_kana": "ヤマガタケン",
    "prefecture_code": 6,
    "city": "鶴岡市",
    "city_kana": "ツルオカシ",
    "town": "下小中",
    "town_kana": "シモコナカ",
    "street": null,
    "office_name": null,
    "office_name_kana": null
  },
  "1135": {
    "postcode": "9971135",
    "prefecture": "山形県",
    "prefecture_kana": "ヤマガタケン",
    "prefecture_code": 6,
    "city": "鶴岡市",
    "city_kana": "ツルオカシ",
    "town": "中楯",
    "town_kana": "ナカダテ",
    "street": null,
    "office_name": null,
    "office_name_kana": null
  },
  "1156": {
    "postcode": "9971156",
    "prefecture": "山形県",
    "prefecture_kana": "ヤマガタケン",
    "prefecture_code": 6,
    "city": "鶴岡市",
    "city_kana": "ツルオカシ",
    "town": "平成町",
    "town_kana": "ヘイセイマチ",
    "street": null,
    "office_name": null,
    "office_name_kana": null
  },
  "1201": {
    "postcode": "9971201",
    "prefecture": "山形県",
    "prefecture_kana": "ヤマガタケン",
    "prefecture_code": 6,
    "city": "鶴岡市",
    "city_kana": "ツルオカシ",
    "town": "湯野浜",
    "town_kana": "ユノハマ",
    "street": null,
    "office_name": null,
    "office_name_kana": null
  },
  "1202": {
    "postcode": "9971202",
    "prefecture": "山形県",
    "prefecture_kana": "ヤマガタケン",
    "prefecture_code": 6,
    "city": "鶴岡市",
    "city_kana": "ツルオカシ",
    "town": "宮沢",
    "town_kana": "ミヤザワ",
    "street": null,
    "office_name": null,
    "office_name_kana": null
  },
  "1203": {
    "postcode": "9971203",
    "prefecture": "山形県",
    "prefecture_kana": "ヤマガタケン",
    "prefecture_code": 6,
    "city": "鶴岡市",
    "city_kana": "ツルオカシ",
    "town": "金沢",
    "town_kana": "カネザワ",
    "street": null,
    "office_name": null,
    "office_name_kana": null
  },
  "1204": {
    "postcode": "9971204",
    "prefecture": "山形県",
    "prefecture_kana": "ヤマガタケン",
    "prefecture_code": 6,
    "city": "鶴岡市",
    "city_kana": "ツルオカシ",
    "town": "加茂",
    "town_kana": "カモ",
    "street": null,
    "office_name": null,
    "office_name_kana": null
  },
  "1205": {
    "postcode": "9971205",
    "prefecture": "山形県",
    "prefecture_kana": "ヤマガタケン",
    "prefecture_code": 6,
    "city": "鶴岡市",
    "city_kana": "ツルオカシ",
    "town": "油戸",
    "town_kana": "アブラト",
    "street": null,
    "office_name": null,
    "office_name_kana": null
  },
  "1206": {
    "postcode": "9971206",
    "prefecture": "山形県",
    "prefecture_kana": "ヤマガタケン",
    "prefecture_code": 6,
    "city": "鶴岡市",
    "city_kana": "ツルオカシ",
    "town": "今泉",
    "town_kana": "イマイズミ",
    "street": null,
    "office_name": null,
    "office_name_kana": null
  },
  "1300": {
    "postcode": "9971300",
    "prefecture": "山形県",
    "prefecture_kana": "ヤマガタケン",
    "prefecture_code": 6,
    "city": "東田川郡三川町",
    "city_kana": "ヒガシタガワグンミカワマチ",
    "town": "",
    "town_kana": "",
    "street": null,
    "office_name": null,
    "office_name_kana": null
  },
  "1301": {
    "postcode": "9971301",
    "prefecture": "山形県",
    "prefecture_kana": "ヤマガタケン",
    "prefecture_code": 6,
    "city": "東田川郡三川町",
    "city_kana": "ヒガシタガワグンミカワマチ",
    "town": "横山",
    "town_kana": "ヨコヤマ",
    "street": null,
    "office_name": null,
    "office_name_kana": null
  },
  "1311": {
    "postcode": "9971311",
    "prefecture": "山形県",
    "prefecture_kana": "ヤマガタケン",
    "prefecture_code": 6,
    "city": "東田川郡三川町",
    "city_kana": "ヒガシタガワグンミカワマチ",
    "town": "青山",
    "town_kana": "アオヤマ",
    "street": null,
    "office_name": null,
    "office_name_kana": null
  },
  "1312": {
    "postcode": "9971312",
    "prefecture": "山形県",
    "prefecture_kana": "ヤマガタケン",
    "prefecture_code": 6,
    "city": "東田川郡三川町",
    "city_kana": "ヒガシタガワグンミカワマチ",
    "town": "善阿弥",
    "town_kana": "ゼンナミ",
    "street": null,
    "office_name": null,
    "office_name_kana": null
  },
  "1313": {
    "postcode": "9971313",
    "prefecture": "山形県",
    "prefecture_kana": "ヤマガタケン",
    "prefecture_code": 6,
    "city": "東田川郡三川町",
    "city_kana": "ヒガシタガワグンミカワマチ",
    "town": "角田二口",
    "town_kana": "カクタフタクチ",
    "street": null,
    "office_name": null,
    "office_name_kana": null
  },
  "1314": {
    "postcode": "9971314",
    "prefecture": "山形県",
    "prefecture_kana": "ヤマガタケン",
    "prefecture_code": 6,
    "city": "東田川郡三川町",
    "city_kana": "ヒガシタガワグンミカワマチ",
    "town": "東沼",
    "town_kana": "ヒガシヌマ",
    "street": null,
    "office_name": null,
    "office_name_kana": null
  },
  "1315": {
    "postcode": "9971315",
    "prefecture": "山形県",
    "prefecture_kana": "ヤマガタケン",
    "prefecture_code": 6,
    "city": "東田川郡三川町",
    "city_kana": "ヒガシタガワグンミカワマチ",
    "town": "神花",
    "town_kana": "カンバナ",
    "street": null,
    "office_name": null,
    "office_name_kana": null
  },
  "1316": {
    "postcode": "9971316",
    "prefecture": "山形県",
    "prefecture_kana": "ヤマガタケン",
    "prefecture_code": 6,
    "city": "東田川郡三川町",
    "city_kana": "ヒガシタガワグンミカワマチ",
    "town": "猪子",
    "town_kana": "イノコ",
    "street": null,
    "office_name": null,
    "office_name_kana": null
  },
  "1317": {
    "postcode": "9971317",
    "prefecture": "山形県",
    "prefecture_kana": "ヤマガタケン",
    "prefecture_code": 6,
    "city": "東田川郡三川町",
    "city_kana": "ヒガシタガワグンミカワマチ",
    "town": "成田新田",
    "town_kana": "ナリタシンデン",
    "street": null,
    "office_name": null,
    "office_name_kana": null
  },
  "1321": {
    "postcode": "9971321",
    "prefecture": "山形県",
    "prefecture_kana": "ヤマガタケン",
    "prefecture_code": 6,
    "city": "東田川郡三川町",
    "city_kana": "ヒガシタガワグンミカワマチ",
    "town": "押切新田",
    "town_kana": "オシキリシンデン",
    "street": null,
    "office_name": null,
    "office_name_kana": null
  },
  "1322": {
    "postcode": "9971322",
    "prefecture": "山形県",
    "prefecture_kana": "ヤマガタケン",
    "prefecture_code": 6,
    "city": "東田川郡三川町",
    "city_kana": "ヒガシタガワグンミカワマチ",
    "town": "土口",
    "town_kana": "ドグチ",
    "street": null,
    "office_name": null,
    "office_name_kana": null
  },
  "1331": {
    "postcode": "9971331",
    "prefecture": "山形県",
    "prefecture_kana": "ヤマガタケン",
    "prefecture_code": 6,
    "city": "東田川郡三川町",
    "city_kana": "ヒガシタガワグンミカワマチ",
    "town": "助川",
    "town_kana": "スケガワ",
    "street": null,
    "office_name": null,
    "office_name_kana": null
  },
  "1332": {
    "postcode": "9971332",
    "prefecture": "山形県",
    "prefecture_kana": "ヤマガタケン",
    "prefecture_code": 6,
    "city": "東田川郡三川町",
    "city_kana": "ヒガシタガワグンミカワマチ",
    "town": "堤野",
    "town_kana": "ツツミノ",
    "street": null,
    "office_name": null,
    "office_name_kana": null
  },
  "1333": {
    "postcode": "9971333",
    "prefecture": "山形県",
    "prefecture_kana": "ヤマガタケン",
    "prefecture_code": 6,
    "city": "東田川郡三川町",
    "city_kana": "ヒガシタガワグンミカワマチ",
    "town": "横内",
    "town_kana": "ヨコウチ",
    "street": null,
    "office_name": null,
    "office_name_kana": null
  },
  "1334": {
    "postcode": "9971334",
    "prefecture": "山形県",
    "prefecture_kana": "ヤマガタケン",
    "prefecture_code": 6,
    "city": "東田川郡三川町",
    "city_kana": "ヒガシタガワグンミカワマチ",
    "town": "竹原田",
    "town_kana": "タケハラダ",
    "street": null,
    "office_name": null,
    "office_name_kana": null
  },
  "1335": {
    "postcode": "9971335",
    "prefecture": "山形県",
    "prefecture_kana": "ヤマガタケン",
    "prefecture_code": 6,
    "city": "東田川郡三川町",
    "city_kana": "ヒガシタガワグンミカワマチ",
    "town": "菱沼",
    "town_kana": "ヒシヌマ",
    "street": null,
    "office_name": null,
    "office_name_kana": null
  },
  "1336": {
    "postcode": "9971336",
    "prefecture": "山形県",
    "prefecture_kana": "ヤマガタケン",
    "prefecture_code": 6,
    "city": "東田川郡三川町",
    "city_kana": "ヒガシタガワグンミカワマチ",
    "town": "加藤",
    "town_kana": "カトウ",
    "street": null,
    "office_name": null,
    "office_name_kana": null
  },
  "1337": {
    "postcode": "9971337",
    "prefecture": "山形県",
    "prefecture_kana": "ヤマガタケン",
    "prefecture_code": 6,
    "city": "東田川郡三川町",
    "city_kana": "ヒガシタガワグンミカワマチ",
    "town": "小尺",
    "town_kana": "ショウシャク",
    "street": null,
    "office_name": null,
    "office_name_kana": null
  },
  "1338": {
    "postcode": "9971338",
    "prefecture": "山形県",
    "prefecture_kana": "ヤマガタケン",
    "prefecture_code": 6,
    "city": "東田川郡三川町",
    "city_kana": "ヒガシタガワグンミカワマチ",
    "town": "横川",
    "town_kana": "ヨコカワ",
    "street": null,
    "office_name": null,
    "office_name_kana": null
  },
  "1339": {
    "postcode": "9971339",
    "prefecture": "山形県",
    "prefecture_kana": "ヤマガタケン",
    "prefecture_code": 6,
    "city": "東田川郡三川町",
    "city_kana": "ヒガシタガワグンミカワマチ",
    "town": "横川新田",
    "town_kana": "ヨコカワシンデン",
    "street": null,
    "office_name": null,
    "office_name_kana": null
  },
  "1392": {
    "postcode": "9971392",
    "prefecture": "山形県",
    "prefecture_kana": "ヤマガタケン",
    "prefecture_code": 6,
    "city": "東田川郡三川町",
    "city_kana": "ヒガシタガワグンミカワマチ",
    "town": "大字横山",
    "town_kana": null,
    "street": "字袖東１９−１",
    "office_name": "山形県　庄内総合支庁",
    "office_name_kana": "ヤマガタケン シヨウナイソウゴウシチヨウ"
  },
  "8501": {
    "postcode": "9978501",
    "prefecture": "山形県",
    "prefecture_kana": "ヤマガタケン",
    "prefecture_code": 6,
    "city": "鶴岡市",
    "city_kana": "ツルオカシ",
    "town": "錦町",
    "town_kana": "ニシキマチ",
    "street": "２１−１２",
    "office_name": "鶴岡社会保険事務所",
    "office_name_kana": "ツルオカシヤカイホケンジムシヨ"
  },
  "8510": {
    "postcode": "9978510",
    "prefecture": "山形県",
    "prefecture_kana": "ヤマガタケン",
    "prefecture_code": 6,
    "city": "鶴岡市",
    "city_kana": "ツルオカシ",
    "town": "北茅原町",
    "town_kana": "キタチワラマチ",
    "street": "１３番１号",
    "office_name": "山形県立こころの医療センター",
    "office_name_kana": "ヤマガタケンリツココロノイリヨウセンタ-"
  },
  "8511": {
    "postcode": "9978511",
    "prefecture": "山形県",
    "prefecture_kana": "ヤマガタケン",
    "prefecture_code": 6,
    "city": "鶴岡市",
    "city_kana": "ツルオカシ",
    "town": "大字井岡",
    "town_kana": null,
    "street": "字沢田１０４",
    "office_name": "鶴岡工業高等専門学校",
    "office_name_kana": "ツルオカコウギヨウコウトウセンモンガツコウ"
  },
  "8515": {
    "postcode": "9978515",
    "prefecture": "山形県",
    "prefecture_kana": "ヤマガタケン",
    "prefecture_code": 6,
    "city": "鶴岡市",
    "city_kana": "ツルオカシ",
    "town": "泉町",
    "town_kana": "イズミマチ",
    "street": "４−２０",
    "office_name": "鶴岡市立　荘内病院",
    "office_name_kana": "ツルオカシリツ シヨウナイビヨウイン"
  },
  "8522": {
    "postcode": "9978522",
    "prefecture": "山形県",
    "prefecture_kana": "ヤマガタケン",
    "prefecture_code": 6,
    "city": "鶴岡市",
    "city_kana": "ツルオカシ",
    "town": "宝田",
    "town_kana": "タカラダ",
    "street": "一丁目１１番７３号",
    "office_name": "ソニーセミコンダクタ　株式会社　山形テクノロジーセンター",
    "office_name_kana": "ソニ-セミコンダクタ カブシキガイシヤ ヤマガタテクノロジ-センタ-"
  },
  "8523": {
    "postcode": "9978523",
    "prefecture": "山形県",
    "prefecture_kana": "ヤマガタケン",
    "prefecture_code": 6,
    "city": "鶴岡市",
    "city_kana": "ツルオカシ",
    "town": "宝田",
    "town_kana": "タカラダ",
    "street": "一丁目１４番３８号",
    "office_name": "ルネサスセミコンダクタマニュファクチュアリング　株式会社　鶴岡工場",
    "office_name_kana": "ルネサスセミコンダクタマニユフアクチユアリング カブシキガイシヤ ツルオカコウジヨウ"
  },
  "8555": {
    "postcode": "9978555",
    "prefecture": "山形県",
    "prefecture_kana": "ヤマガタケン",
    "prefecture_code": 6,
    "city": "鶴岡市",
    "city_kana": "ツルオカシ",
    "town": "若葉町",
    "town_kana": "ワカバマチ",
    "street": "１−２３",
    "office_name": "山形大学　農学部",
    "office_name_kana": "ヤマガタダイガク ノウガクブ"
  },
  "8558": {
    "postcode": "9978558",
    "prefecture": "山形県",
    "prefecture_kana": "ヤマガタケン",
    "prefecture_code": 6,
    "city": "鶴岡市",
    "city_kana": "ツルオカシ",
    "town": "日吉町",
    "town_kana": "ヒヨシマチ",
    "street": "３番１号",
    "office_name": "鶴岡市農業協同組合",
    "office_name_kana": "ツルオカシノウギヨウキヨウドウクミアイ"
  },
  "8567": {
    "postcode": "9978567",
    "prefecture": "山形県",
    "prefecture_kana": "ヤマガタケン",
    "prefecture_code": 6,
    "city": "鶴岡市",
    "city_kana": "ツルオカシ",
    "town": "文園町",
    "town_kana": "フミゾノマチ",
    "street": "９−３",
    "office_name": "庄内医療生活協同組合",
    "office_name_kana": "シヨウナイイリヨウセイカツ キヨウドウクミアイ"
  },
  "8585": {
    "postcode": "9978585",
    "prefecture": "山形県",
    "prefecture_kana": "ヤマガタケン",
    "prefecture_code": 6,
    "city": "鶴岡市",
    "city_kana": "ツルオカシ",
    "town": "馬場町",
    "town_kana": "ババチョウ",
    "street": "８−１３",
    "office_name": "鶴岡商工会議所",
    "office_name_kana": "ツルオカシヨウコウカイギシヨ"
  },
  "8588": {
    "postcode": "9978588",
    "prefecture": "山形県",
    "prefecture_kana": "ヤマガタケン",
    "prefecture_code": 6,
    "city": "鶴岡市",
    "city_kana": "ツルオカシ",
    "town": "宝田",
    "town_kana": "タカラダ",
    "street": "１丁目３−２３",
    "office_name": "生活協同組合共立社",
    "office_name_kana": "セイカツキヨウドウクミアイキヨウリツシヤ"
  },
  "8601": {
    "postcode": "9978601",
    "prefecture": "山形県",
    "prefecture_kana": "ヤマガタケン",
    "prefecture_code": 6,
    "city": "鶴岡市",
    "city_kana": "ツルオカシ",
    "town": "馬場町",
    "town_kana": "ババチョウ",
    "street": "９−２５（鶴岡郵便局私書箱第２９号）",
    "office_name": "鶴岡市役所",
    "office_name_kana": "ツルオカシヤクシヨ"
  },
  "8611": {
    "postcode": "9978611",
    "prefecture": "山形県",
    "prefecture_kana": "ヤマガタケン",
    "prefecture_code": 6,
    "city": "鶴岡市",
    "city_kana": "ツルオカシ",
    "town": "本町",
    "town_kana": "ホンチョウ",
    "street": "１丁目９−７（鶴岡郵便局私書箱第５号）",
    "office_name": "株式会社　荘内銀行",
    "office_name_kana": "カブシキガイシヤ シヨウナイギンコウ"
  },
  "8655": {
    "postcode": "9978655",
    "prefecture": "山形県",
    "prefecture_kana": "ヤマガタケン",
    "prefecture_code": 6,
    "city": "鶴岡市",
    "city_kana": "ツルオカシ",
    "town": "馬場町",
    "town_kana": "ババチョウ",
    "street": "１−１４（鶴岡郵便局私書箱第２２号）",
    "office_name": "鶴岡信用金庫",
    "office_name_kana": "ツルオカシンヨウキンコ"
  }
}